Unnamed: 0,name,address,lat,lon,Unnamed: 0.1,State,Locality,Precincts (Or Locality-wide),Is Early Voting,Is Drop Off,manual
4236,SHADOW HILLS ELEM SCHOOL-GYM,"8770 Harbison Canyon Rd, Alpine, CA 91901, USA",32.83262,-116.81602,4237.0,CA,SAN DIEGO COUNTY,ALPINE,False,False,1.0
4237,SHADOW HILLS ELEM SCHOOL-GYM,"8770 Harbison Canyon Rd, Alpine, CA 91901, USA",32.83262,-116.81602,4238.0,CA,SAN DIEGO COUNTY,ALPINE,True,False,1.0
4238,ALPINE ELEMENTARY SCHOOL-AUDITORIUM,"1850 Alpine Blvd, Alpine, CA 91901, USA",32.83835,-116.77387,4239.0,CA,SAN DIEGO COUNTY,"ALPINE, ALPINE",False,False,1.0
4239,ALPINE ELEMENTARY SCHOOL-AUDITORIUM,"1850 Alpine Blvd, Alpine, CA 91901, USA",32.83835,-116.77387,4240.0,CA,SAN DIEGO COUNTY,"ALPINE, ALPINE",True,False,1.0
4240,JAMES DUKES ELEM SCHOOL-MULTIPURPOSE CTR,"24908 Abalar Way, Ramona, CA 92065, USA",33.00886,-116.79103,4241.0,CA,SAN DIEGO COUNTY,"BARONA, BALLENA",False,False,1.0
4241,JAMES DUKES ELEM SCHOOL-MULTIPURPOSE CTR,"24908 Abalar Way, Ramona, CA 92065, USA",33.00886,-116.79103,4242.0,CA,SAN DIEGO COUNTY,"BARONA, BALLENA",True,False,1.0
4242,BONITA VISTA HIGH SCHOOL-CAFETERIA,"751 Otay Lakes Rd, Chula Vista, CA 91913, USA",32.64591,-116.99956,4243.0,CA,SAN DIEGO COUNTY,"BONITA, CHULA VISTA, CHULA VISTA",False,False,1.0
4243,BONITA VISTA HIGH SCHOOL-CAFETERIA,"751 Otay Lakes Rd, Chula Vista, CA 91913, USA",32.64591,-116.99956,4244.0,CA,SAN DIEGO COUNTY,"BONITA, CHULA VISTA, CHULA VISTA",True,False,1.0
4244,BORREGO SPRINGS HIGH SCHOOL-GYM,"2281 Diegueno Rd, Borrego Springs, CA 92004, USA",33.26419,-116.38222,4245.0,CA,SAN DIEGO COUNTY,BORREGO SPRINGS,False,False,1.0
4245,BORREGO SPRINGS HIGH SCHOOL-GYM,"2281 Diegueno Rd, Borrego Springs, CA 92004, USA",33.26419,-116.38222,4246.0,CA,SAN DIEGO COUNTY,BORREGO SPRINGS,True,False,1.0
4246,RIVERVIEW ELEM SCHOOL-MPR,"9308 Winter Gardens Blvd, Lakeside, CA 92040, USA",32.84728,-116.9317,4247.0,CA,SAN DIEGO COUNTY,BOSTONIA,False,False,1.0
4247,RIVERVIEW ELEM SCHOOL-MPR,"9308 Winter Gardens Blvd, Lakeside, CA 92040, USA",32.84728,-116.9317,4248.0,CA,SAN DIEGO COUNTY,BOSTONIA,True,False,1.0
4248,W D HALL ELEM SCHOOL-AUDITORIUM,"1376 Pepper Dr, El Cajon, CA 92021, USA",32.82142,-116.93028,4249.0,CA,SAN DIEGO COUNTY,"BOSTONIA, BOSTONIA, BOSTONIA, EL CAJON, BOSTONIA",False,False,1.0
4249,W D HALL ELEM SCHOOL-AUDITORIUM,"1376 Pepper Dr, El Cajon, CA 92021, USA",32.82142,-116.93028,4250.0,CA,SAN DIEGO COUNTY,"BOSTONIA, BOSTONIA, BOSTONIA, EL CAJON, BOSTONIA",True,False,1.0
4250,MAGNOLIA ELEM SCHOOL-AUDITORIUM,"650 Greenfield Dr, El Cajon, CA 92021, USA",32.81468,-116.95399,4251.0,CA,SAN DIEGO COUNTY,"BOSTONIA, BOSTONIA, EL CAJON, BOSTONIA",False,False,1.0
4251,MAGNOLIA ELEM SCHOOL-AUDITORIUM,"650 Greenfield Dr, El Cajon, CA 92021, USA",32.81468,-116.95399,4252.0,CA,SAN DIEGO COUNTY,"BOSTONIA, BOSTONIA, EL CAJON, BOSTONIA",True,False,1.0
4252,HANNALEI ELEMENTARY SCHOOL-MPR,"120 Hannalei Dr, Vista, CA 92083, USA",33.17844,-117.21743,4253.0,CA,SAN DIEGO COUNTY,"BUENA, FOOTHILL, FOOTHILL, BUENA, VISTA, BUENA, FOOTHILL",False,False,1.0
4253,CARRILLO ELEM SCHOOL-MPR,"2875 Poinsettia Ln, Carlsbad, CA 92009, USA",33.12097,-117.2383,4254.0,CA,SAN DIEGO COUNTY,"CARLSBAD, CARLSBAD",False,False,1.0
4254,CARRILLO ELEM SCHOOL-MPR,"2875 Poinsettia Ln, Carlsbad, CA 92009, USA",33.12097,-117.2383,4255.0,CA,SAN DIEGO COUNTY,"CARLSBAD, CARLSBAD",True,False,1.0
4255,STAGECOACH COMMUNTY CENTER-GYM,"3420 Camino De Los Coches, Carlsbad, CA 92009, USA",33.07543,-117.23445,4256.0,CA,SAN DIEGO COUNTY,"CARLSBAD, CARLSBAD, CARLSBAD",False,False,1.0
4256,STAGECOACH COMMUNTY CENTER-GYM,"3420 Camino De Los Coches, Carlsbad, CA 92009, USA",33.07543,-117.23445,4257.0,CA,SAN DIEGO COUNTY,"CARLSBAD, CARLSBAD, CARLSBAD",True,False,1.0
4257,LA COSTA MEADOWS SCHOOL-CAFETERIA,"6889 El Fuerte St, Carlsbad, CA 92009, USA",33.10373,-117.24123,4258.0,CA,SAN DIEGO COUNTY,"CARLSBAD, CARLSBAD, CARLSBAD",False,False,1.0
4258,LA COSTA MEADOWS SCHOOL-CAFETERIA,"6889 El Fuerte St, Carlsbad, CA 92009, USA",33.10373,-117.24123,4259.0,CA,SAN DIEGO COUNTY,"CARLSBAD, CARLSBAD, CARLSBAD",True,False,1.0
4259,EL CAMINO CREEK SCHOOL-AUDITORIUM,"7885 Paseo Aliso, Carlsbad, CA 92009, USA",33.07587,-117.2599,4260.0,CA,SAN DIEGO COUNTY,"CARLSBAD, CARLSBAD, CARLSBAD",False,False,1.0
4260,EL CAMINO CREEK SCHOOL-AUDITORIUM,"7885 Paseo Aliso, Carlsbad, CA 92009, USA",33.07587,-117.2599,4261.0,CA,SAN DIEGO COUNTY,"CARLSBAD, CARLSBAD, CARLSBAD",True,False,1.0
4261,PACIFIC RIM ELEM SCHOOL-AUDITORIUM,"1100 Camino De Las Ondas, Carlsbad, CA 92011, USA",33.11091,-117.30536,4262.0,CA,SAN DIEGO COUNTY,"CARLSBAD, CARLSBAD, CARLSBAD, CARLSBAD",False,False,1.0
4262,PACIFIC RIM ELEM SCHOOL-AUDITORIUM,"1100 Camino De Las Ondas, Carlsbad, CA 92011, USA",33.11091,-117.30536,4263.0,CA,SAN DIEGO COUNTY,"CARLSBAD, CARLSBAD, CARLSBAD, CARLSBAD",True,False,1.0
4263,CARLSBAD HIGH SCHOOL-GYM,"3557 Monroe St, Carlsbad, CA 92008, USA",33.16339,-117.32799,4264.0,CA,SAN DIEGO COUNTY,"CARLSBAD, CARLSBAD, CARLSBAD, CARLSBAD",False,False,1.0
4264,CARLSBAD HIGH SCHOOL-GYM,"3557 Monroe St, Carlsbad, CA 92008, USA",33.16339,-117.32799,4265.0,CA,SAN DIEGO COUNTY,"CARLSBAD, CARLSBAD, CARLSBAD, CARLSBAD",True,False,1.0
4265,AVIARA OAKS ELEM SCHOOL-AUDITORIUM,"6900 Ambrosia Ln, Carlsbad, CA 92011, USA",33.1027,-117.27673,4266.0,CA,SAN DIEGO COUNTY,"CARLSBAD, CARLSBAD, CARLSBAD, CARLSBAD",False,False,1.0
4266,AVIARA OAKS ELEM SCHOOL-AUDITORIUM,"6900 Ambrosia Ln, Carlsbad, CA 92011, USA",33.1027,-117.27673,4267.0,CA,SAN DIEGO COUNTY,"CARLSBAD, CARLSBAD, CARLSBAD, CARLSBAD",True,False,1.0
4267,CALAVERA COMMUNITY PARK - GYM,"2997 Glasgow Dr, Carlsbad, CA 92010, USA",33.16617,-117.29911,4268.0,CA,SAN DIEGO COUNTY,"CARLSBAD, CARLSBAD, CARLSBAD, CARLSBAD, CARLSBAD",False,False,1.0
4268,CALAVERA COMMUNITY PARK - GYM,"2997 Glasgow Dr, Carlsbad, CA 92010, USA",33.16617,-117.29911,4269.0,CA,SAN DIEGO COUNTY,"CARLSBAD, CARLSBAD, CARLSBAD, CARLSBAD, CARLSBAD",True,False,1.0
4269,PINE AVE COMMUNITY CENTER-GYM,"3209 Harding St, Carlsbad, CA 92008, USA",33.15921,-117.34262,4270.0,CA,SAN DIEGO COUNTY,"CARLSBAD, CARLSBAD, CARLSBAD, CARLSBAD, CARLSBAD",False,False,1.0
4270,PINE AVE COMMUNITY CENTER-GYM,"3209 Harding St, Carlsbad, CA 92008, USA",33.15921,-117.34262,4271.0,CA,SAN DIEGO COUNTY,"CARLSBAD, CARLSBAD, CARLSBAD, CARLSBAD, CARLSBAD",True,False,1.0
4271,MIRA COSTA COMM COLL-DINING HL BLDG 3400,"1 Barnard Dr, Oceanside, CA 92056, USA",33.19007,-117.30218,4272.0,CA,SAN DIEGO COUNTY,"CARLSBAD, CARLSBAD, OCEANSIDE",False,False,1.0
4272,MIRA COSTA COMM COLL-DINING HL BLDG 3400,"1 Barnard Dr, Oceanside, CA 92056, USA",33.19007,-117.30218,4273.0,CA,SAN DIEGO COUNTY,"CARLSBAD, CARLSBAD, OCEANSIDE",True,False,1.0
4273,SAN DIEGO CITY COLLEGE-HARRY WEST GYM,"1313 Park Blvd, San Diego, CA 92101, USA",32.71861,-117.15254,4274.0,CA,SAN DIEGO COUNTY,CENTRE CITY,False,False,1.0
4274,SAN DIEGO CITY COLLEGE-HARRY WEST GYM,"1313 Park Blvd, San Diego, CA 92101, USA",32.71861,-117.15254,4275.0,CA,SAN DIEGO COUNTY,CENTRE CITY,True,False,1.0
4275,SAN DIEGO CONVENTION CENTER - HALL B,"111 W Harbor Dr, San Diego, CA 92101, USA",32.70682,-117.16287,4276.0,CA,SAN DIEGO COUNTY,"CENTRE CITY, CENTRE CITY",False,False,1.0
4276,SAN DIEGO CONVENTION CENTER - HALL B,"111 W Harbor Dr, San Diego, CA 92101, USA",32.70682,-117.16287,4277.0,CA,SAN DIEGO COUNTY,"CENTRE CITY, CENTRE CITY",True,False,1.0
4277,MOUNTAIN VIEW COMMUNITY CTR-GYM,"641 S Boundary St, San Diego, CA 92113, USA",32.69939,-117.10593,4278.0,CA,SAN DIEGO COUNTY,"CHOLLAS PARK, CHOLLAS PARK, CHOLLAS PARK",False,False,1.0
4278,MOUNTAIN VIEW COMMUNITY CTR-GYM,"641 S Boundary St, San Diego, CA 92113, USA",32.69939,-117.10593,4279.0,CA,SAN DIEGO COUNTY,"CHOLLAS PARK, CHOLLAS PARK, CHOLLAS PARK",True,False,1.0
4279,SOUTHCREST REC CTR - GYM,"Southcrest Recreation Center, 4149 Newton Ave, San Diego, CA 92113, USA",32.6931,-117.10593,4280.0,CA,SAN DIEGO COUNTY,"CHOLLAS PARK, SE SAN DIEGO E",False,False,1.0
4280,SOUTHCREST REC CTR - GYM,"Southcrest Recreation Center, 4149 Newton Ave, San Diego, CA 92113, USA",32.6931,-117.10593,4281.0,CA,SAN DIEGO COUNTY,"CHOLLAS PARK, SE SAN DIEGO E",True,False,1.0
4281,EASTLAKE HIGH SCHOOL-ROOM 1604,"1120 Eastlake Pkwy, Chula Vista, CA 91915, USA",32.64032,-116.96763,4282.0,CA,SAN DIEGO COUNTY,CHULA VISTA,False,False,1.0
4282,EASTLAKE HIGH SCHOOL-ROOM 1604,"1120 Eastlake Pkwy, Chula Vista, CA 91915, USA",32.64032,-116.96763,4283.0,CA,SAN DIEGO COUNTY,CHULA VISTA,True,False,1.0
4283,"MC MILLIN, CORKY SCHOOL-AUDITORIUM","1201 Santa Cora Ave, Chula Vista, CA 91913, USA",32.63371,-116.98403,4284.0,CA,SAN DIEGO COUNTY,CHULA VISTA,False,False,1.0
4284,"MC MILLIN, CORKY SCHOOL-AUDITORIUM","1201 Santa Cora Ave, Chula Vista, CA 91913, USA",32.63371,-116.98403,4285.0,CA,SAN DIEGO COUNTY,CHULA VISTA,True,False,1.0
4285,OTAY RANCH HIGH SCHL-GYM,"1250 Olympic Pkwy, Chula Vista, CA 91913, USA",32.62037,-116.99039,4286.0,CA,SAN DIEGO COUNTY,CHULA VISTA,False,False,1.0
4286,OTAY RANCH HIGH SCHL-GYM,"1250 Olympic Pkwy, Chula Vista, CA 91913, USA",32.62037,-116.99039,4287.0,CA,SAN DIEGO COUNTY,CHULA VISTA,True,False,1.0
4287,HERITAGE RECREATION CENTER-MPR,"1381 E Palomar St, Chula Vista, CA 91913, USA",32.62432,-116.99738,4288.0,CA,SAN DIEGO COUNTY,CHULA VISTA,False,False,1.0
4288,HERITAGE RECREATION CENTER-MPR,"1381 E Palomar St, Chula Vista, CA 91913, USA",32.62432,-116.99738,4289.0,CA,SAN DIEGO COUNTY,CHULA VISTA,True,False,1.0
4289,CASTLE PARK HIGH SCHOOL-STUDENT UNION,"1395 Hilltop Dr, Chula Vista, CA 91911, USA",32.60628,-117.05029,4290.0,CA,SAN DIEGO COUNTY,CHULA VISTA,False,False,1.0
4290,CASTLE PARK HIGH SCHOOL-STUDENT UNION,"1395 Hilltop Dr, Chula Vista, CA 91911, USA",32.60628,-117.05029,4291.0,CA,SAN DIEGO COUNTY,CHULA VISTA,True,False,1.0
4291,"CAMARENA, ENRIQUE S ELEM SCHOOL-MPR","1650 Exploration Falls Dr, Chula Vista, CA 91915, USA",32.62445,-116.9585,4292.0,CA,SAN DIEGO COUNTY,CHULA VISTA,False,False,1.0
4292,"CAMARENA, ENRIQUE S ELEM SCHOOL-MPR","1650 Exploration Falls Dr, Chula Vista, CA 91915, USA",32.62445,-116.9585,4293.0,CA,SAN DIEGO COUNTY,CHULA VISTA,True,False,1.0
4293,CASTLE PARK ELEM SCHOOL-MPR,"25 Emerson St, Chula Vista, CA 91911, USA",32.6148,-117.05652,4294.0,CA,SAN DIEGO COUNTY,CHULA VISTA,False,False,1.0
4294,CASTLE PARK ELEM SCHOOL-MPR,"25 Emerson St, Chula Vista, CA 91911, USA",32.6148,-117.05652,4295.0,CA,SAN DIEGO COUNTY,CHULA VISTA,True,False,1.0
4295,SALT CREEK COMMUNITY PARK-GYM,"2710 Otay Lakes Rd, Chula Vista, CA 91915, USA",32.64373,-116.94486,4296.0,CA,SAN DIEGO COUNTY,CHULA VISTA,False,False,1.0
4296,SALT CREEK COMMUNITY PARK-GYM,"2710 Otay Lakes Rd, Chula Vista, CA 91915, USA",32.64373,-116.94486,4297.0,CA,SAN DIEGO COUNTY,CHULA VISTA,True,False,1.0
4297,CHULA VISTA MIDDLE SCHOOL-AUDITORIUM,"415 5th Ave, Chula Vista, CA 91910, USA",32.63518,-117.08456,4298.0,CA,SAN DIEGO COUNTY,CHULA VISTA,False,False,1.0
4298,CHULA VISTA MIDDLE SCHOOL-AUDITORIUM,"415 5th Ave, Chula Vista, CA 91910, USA",32.63518,-117.08456,4299.0,CA,SAN DIEGO COUNTY,CHULA VISTA,True,False,1.0
4299,HILLTOP HIGH SCHOOL-CAFETERIA,"555 Claire Ave, Chula Vista, CA 91910, USA",32.63701,-117.05941,4300.0,CA,SAN DIEGO COUNTY,CHULA VISTA,False,False,1.0
4300,HILLTOP HIGH SCHOOL-CAFETERIA,"555 Claire Ave, Chula Vista, CA 91910, USA",32.63701,-117.05941,4301.0,CA,SAN DIEGO COUNTY,CHULA VISTA,True,False,1.0
4301,EASTLAKE MIDDLE SCHOOL-MPR,"900 Duncan Ranch Rd, Chula Vista, CA 91914, USA",32.65469,-116.94808,4302.0,CA,SAN DIEGO COUNTY,CHULA VISTA,False,False,1.0
4302,EASTLAKE MIDDLE SCHOOL-MPR,"900 Duncan Ranch Rd, Chula Vista, CA 91914, USA",32.65469,-116.94808,4303.0,CA,SAN DIEGO COUNTY,CHULA VISTA,True,False,1.0
4303,BONITA VISTA MIDDLE SCHOOL-CAFETERIA,"650 Otay Lakes Rd, Chula Vista, CA 91910, USA",32.64878,-117.00547,4304.0,CA,SAN DIEGO COUNTY,"CHULA VISTA, CHULA VISTA",False,False,1.0
4304,BONITA VISTA MIDDLE SCHOOL-CAFETERIA,"650 Otay Lakes Rd, Chula Vista, CA 91910, USA",32.64878,-117.00547,4305.0,CA,SAN DIEGO COUNTY,"CHULA VISTA, CHULA VISTA",True,False,1.0
4305,HARBORSIDE ELEM SCHOOL-AUDITORIUM,"681 Naples St, Chula Vista, CA 91911, USA",32.60853,-117.08546,4306.0,CA,SAN DIEGO COUNTY,"CHULA VISTA, CHULA VISTA",False,False,1.0
4306,HARBORSIDE ELEM SCHOOL-AUDITORIUM,"681 Naples St, Chula Vista, CA 91911, USA",32.60853,-117.08546,4307.0,CA,SAN DIEGO COUNTY,"CHULA VISTA, CHULA VISTA",True,False,1.0
4307,"MUELLER CHARTER, R L, SCH-PERF ARTS CTR","715 I St, Chula Vista, CA 91910, USA",32.62692,-117.09326,4308.0,CA,SAN DIEGO COUNTY,"CHULA VISTA, CHULA VISTA",False,False,1.0
4308,"MUELLER CHARTER, R L, SCH-PERF ARTS CTR","715 I St, Chula Vista, CA 91910, USA",32.62692,-117.09326,4309.0,CA,SAN DIEGO COUNTY,"CHULA VISTA, CHULA VISTA",True,False,1.0
4309,SOUTHWESTERN COMM COLLEGE-STUDENT UNION,"900 Otay Lakes Rd, Chula Vista, CA 91910, USA",32.64071,-116.99806,4310.0,CA,SAN DIEGO COUNTY,"CHULA VISTA, CHULA VISTA",False,False,1.0
4310,SOUTHWESTERN COMM COLLEGE-STUDENT UNION,"900 Otay Lakes Rd, Chula Vista, CA 91910, USA",32.64071,-116.99806,4311.0,CA,SAN DIEGO COUNTY,"CHULA VISTA, CHULA VISTA",True,False,1.0
4311,NORMAN PARK SENIOR CENTER,"270 F St, Chula Vista, CA 91910, USA",32.64141,-117.07835,4312.0,CA,SAN DIEGO COUNTY,"CHULA VISTA, CHULA VISTA, CHULA VISTA",False,False,1.0
4312,NORMAN PARK SENIOR CENTER,"270 F St, Chula Vista, CA 91910, USA",32.64141,-117.07835,4313.0,CA,SAN DIEGO COUNTY,"CHULA VISTA, CHULA VISTA, CHULA VISTA",True,False,1.0
4313,OTAY RECREATION CENTER - GYM,"3554 Main St, Chula Vista, CA 91911, USA",32.59501,-117.05625,4314.0,CA,SAN DIEGO COUNTY,"CHULA VISTA, CHULA VISTA, CHULA VISTA",False,False,1.0
4314,OTAY RECREATION CENTER - GYM,"3554 Main St, Chula Vista, CA 91911, USA",32.59501,-117.05625,4315.0,CA,SAN DIEGO COUNTY,"CHULA VISTA, CHULA VISTA, CHULA VISTA",True,False,1.0
4315,RANCHO DEL REY MID SCHOOL-AUDITORIUM,"1174 E J St, Chula Vista, CA 91910, USA",32.62991,-117.00899,4316.0,CA,SAN DIEGO COUNTY,"CHULA VISTA, CHULA VISTA, CHULA VISTA, CHULA VISTA, CHULA VISTA",False,False,1.0
4316,RANCHO DEL REY MID SCHOOL-AUDITORIUM,"1174 E J St, Chula Vista, CA 91910, USA",32.62991,-117.00899,4317.0,CA,SAN DIEGO COUNTY,"CHULA VISTA, CHULA VISTA, CHULA VISTA, CHULA VISTA, CHULA VISTA",True,False,1.0
4317,VETERANS PARK COMMUNITY CTR-GYM,"785 E Palomar St, Chula Vista, CA 91911, USA",32.61483,-117.02336,4318.0,CA,SAN DIEGO COUNTY,"CHULA VISTA, CHULA VISTA, CHULA VISTA, CHULA VISTA, CHULA VISTA",False,False,1.0
4318,VETERANS PARK COMMUNITY CTR-GYM,"785 E Palomar St, Chula Vista, CA 91911, USA",32.61483,-117.02336,4319.0,CA,SAN DIEGO COUNTY,"CHULA VISTA, CHULA VISTA, CHULA VISTA, CHULA VISTA, CHULA VISTA",True,False,1.0
4319,WEBSTER SCHOOL-AUDITORIUM,"4801 Elm St, San Diego, CA 92102, USA",32.72401,-117.09289,4320.0,CA,SAN DIEGO COUNTY,"CITY HEIGHTS, CHOLLAS PARK, CITY HEIGHTS, ROLANDO REDWOOD",False,False,1.0
4320,WEBSTER SCHOOL-AUDITORIUM,"4801 Elm St, San Diego, CA 92102, USA",32.72401,-117.09289,4321.0,CA,SAN DIEGO COUNTY,"CITY HEIGHTS, CHOLLAS PARK, CITY HEIGHTS, ROLANDO REDWOOD",True,False,1.0
4321,LINDBERGH SCHWEITZER SCHOOL-WEST AUDIT,"4133 Mt Albertine Ave, San Diego, CA 92111, USA",32.81943,-117.1712,4322.0,CA,SAN DIEGO COUNTY,CLAIREMONT E,False,False,1.0
4322,LINDBERGH SCHWEITZER SCHOOL-WEST AUDIT,"4133 Mt Albertine Ave, San Diego, CA 92111, USA",32.81943,-117.1712,4323.0,CA,SAN DIEGO COUNTY,CLAIREMONT E,True,False,1.0
4323,KEARNY MESA REC CENTER-GYM,"3170 Armstrong St, San Diego, CA 92111, USA",32.80187,-117.16544,4324.0,CA,SAN DIEGO COUNTY,"CLAIREMONT E, LINDA VISTA, LINDA VISTA",False,False,1.0
4324,KEARNY MESA REC CENTER-GYM,"3170 Armstrong St, San Diego, CA 92111, USA",32.80187,-117.16544,4325.0,CA,SAN DIEGO COUNTY,"CLAIREMONT E, LINDA VISTA, LINDA VISTA",True,False,1.0
4325,TOLER ELEM SCHOOL-AUDITORIUM,"3350 Baker St, San Diego, CA 92117, USA",32.80141,-117.21015,4326.0,CA,SAN DIEGO COUNTY,CLAIREMONT N,False,False,1.0
4326,TOLER ELEM SCHOOL-AUDITORIUM,"3350 Baker St, San Diego, CA 92117, USA",32.80141,-117.21015,4327.0,CA,SAN DIEGO COUNTY,CLAIREMONT N,True,False,1.0
4327,CADMAN ELEM SCHOOL-AUDITORIUM,"4370 Kamloop Ave, San Diego, CA 92117, USA",32.82187,-117.21612,4328.0,CA,SAN DIEGO COUNTY,CLAIREMONT N,False,False,1.0
4328,CADMAN ELEM SCHOOL-AUDITORIUM,"4370 Kamloop Ave, San Diego, CA 92117, USA",32.82187,-117.21612,4329.0,CA,SAN DIEGO COUNTY,CLAIREMONT N,True,False,1.0
4329,NORTH CLAIREMONT REC CTR - GYM,"4421 Bannock Ave, San Diego, CA 92117, USA",32.83237,-117.19738,4330.0,CA,SAN DIEGO COUNTY,CLAIREMONT N,False,False,1.0
4330,NORTH CLAIREMONT REC CTR - GYM,"4421 Bannock Ave, San Diego, CA 92117, USA",32.83237,-117.19738,4331.0,CA,SAN DIEGO COUNTY,CLAIREMONT N,True,False,1.0
4331,SEQUOIA ELEM SCHOOL-AUDITORIUM,"4690 Limerick Ave, San Diego, CA 92117, USA",32.82845,-117.18015,4332.0,CA,SAN DIEGO COUNTY,CLAIREMONT N,False,False,1.0
4332,SEQUOIA ELEM SCHOOL-AUDITORIUM,"4690 Limerick Ave, San Diego, CA 92117, USA",32.82845,-117.18015,4333.0,CA,SAN DIEGO COUNTY,CLAIREMONT N,True,False,1.0
4333,JOHN D SPRECKELS CENTER,"1019 7th St, Coronado, CA 92118, USA",32.69058,-117.17778,4334.0,CA,SAN DIEGO COUNTY,CORONADO,False,False,1.0
4334,JOHN D SPRECKELS CENTER,"1019 7th St, Coronado, CA 92118, USA",32.69058,-117.17778,4335.0,CA,SAN DIEGO COUNTY,CORONADO,True,False,1.0
4335,CREST ELEMENTARY SCHOOL-COYOTE HALL,"2000 Suncrest Blvd, El Cajon, CA 92021, USA",32.80519,-116.86614,4336.0,CA,SAN DIEGO COUNTY,CREST,False,False,1.0
4336,CREST ELEMENTARY SCHOOL-COYOTE HALL,"2000 Suncrest Blvd, El Cajon, CA 92021, USA",32.80519,-116.86614,4337.0,CA,SAN DIEGO COUNTY,CREST,True,False,1.0
4337,DEL SUR ELEMENTARY SCHOOL-MPR,"15665 Paseo Del Sur, San Diego, CA 92127, USA",33.01855,-117.14054,4338.0,CA,SAN DIEGO COUNTY,"DEL DIOS, DEL DIOS, RHO PENASQUITOS",False,False,1.0
4338,DEL SUR ELEMENTARY SCHOOL-MPR,"15665 Paseo Del Sur, San Diego, CA 92127, USA",33.01855,-117.14054,4339.0,CA,SAN DIEGO COUNTY,"DEL DIOS, DEL DIOS, RHO PENASQUITOS",True,False,1.0
4339,MONTEREY RIDGE ELEM SCHOOL-MPR,"17117 4S Ranch Pkwy, San Diego, CA 92127, USA",33.0263,-117.10853,4340.0,CA,SAN DIEGO COUNTY,"DEL DIOS, DEL DIOS, RHO PENASQUITOS, DEL DIOS",False,False,1.0
4340,MONTEREY RIDGE ELEM SCHOOL-MPR,"17117 4S Ranch Pkwy, San Diego, CA 92127, USA",33.0263,-117.10853,4341.0,CA,SAN DIEGO COUNTY,"DEL DIOS, DEL DIOS, RHO PENASQUITOS, DEL DIOS",True,False,1.0
4341,L R GREEN ELEMENTARY SCHOOL-MPR,"3115 Las Palmas Ave, Escondido, CA 92025, USA",33.08495,-117.05953,4342.0,CA,SAN DIEGO COUNTY,"DEL DIOS, ESCONDIDO, RINCON D DIABLO, ESCONDIDO, DEL DIOS, ESCONDIDO",False,False,1.0
4342,L R GREEN ELEMENTARY SCHOOL-MPR,"3115 Las Palmas Ave, Escondido, CA 92025, USA",33.08495,-117.05953,4343.0,CA,SAN DIEGO COUNTY,"DEL DIOS, ESCONDIDO, RINCON D DIABLO, ESCONDIDO, DEL DIOS, ESCONDIDO",True,False,1.0
4343,WILLOW GROVE ELEM SCHOOL-MPR,"14727 Via Azul, San Diego, CA 92127, USA",32.99263,-117.16129,4344.0,CA,SAN DIEGO COUNTY,"DEL DIOS, RHO PENASQUITOS",False,False,1.0
4344,WILLOW GROVE ELEM SCHOOL-MPR,"14727 Via Azul, San Diego, CA 92127, USA",32.99263,-117.16129,4345.0,CA,SAN DIEGO COUNTY,"DEL DIOS, RHO PENASQUITOS",True,False,1.0
4345,CARMEL DEL MAR ELEM SCHOOL-MUR,"12345 Carmel Park Dr, San Diego, CA 92130, USA",32.94075,-117.22858,4346.0,CA,SAN DIEGO COUNTY,DEL MAR HEIGHTS,False,False,1.0
4346,CARMEL DEL MAR ELEM SCHOOL-MUR,"12345 Carmel Park Dr, San Diego, CA 92130, USA",32.94075,-117.22858,4347.0,CA,SAN DIEGO COUNTY,DEL MAR HEIGHTS,True,False,1.0
4347,DEL MAR HILLS ACADEMY-PAC,"14085 MANGO DR SCHL, Del Mar, CA 92014, USA",32.95351,-117.24593,4348.0,CA,SAN DIEGO COUNTY,"DEL MAR HEIGHTS, DEL MAR",False,False,1.0
4348,DEL MAR HILLS ACADEMY-PAC,"14085 MANGO DR SCHL, Del Mar, CA 92014, USA",32.95351,-117.24593,4349.0,CA,SAN DIEGO COUNTY,"DEL MAR HEIGHTS, DEL MAR",True,False,1.0
4349,CARMEL VALLEY REC CENTER - GYM,"3777 Townsgate Dr, San Diego, CA 92130, USA",32.94846,-117.23417,4350.0,CA,SAN DIEGO COUNTY,"DEL MAR HEIGHTS, DEL MAR HEIGHTS",False,False,1.0
4350,CARMEL VALLEY REC CENTER - GYM,"3777 Townsgate Dr, San Diego, CA 92130, USA",32.94846,-117.23417,4351.0,CA,SAN DIEGO COUNTY,"DEL MAR HEIGHTS, DEL MAR HEIGHTS",True,False,1.0
4351,DESCANSO TOWN HALL,"24536 Viejas Grade Rd, Descanso, CA 91916, USA",32.85367,-116.61961,4352.0,CA,SAN DIEGO COUNTY,DESCANSO,False,False,1.0
4352,DESCANSO TOWN HALL,"24536 Viejas Grade Rd, Descanso, CA 91916, USA",32.85367,-116.61961,4353.0,CA,SAN DIEGO COUNTY,DESCANSO,True,False,1.0
4353,BOSTONIA REC CENTER - GYMNASIUM,"1049 Bostonia St, El Cajon, CA 92021, USA",32.80923,-116.9333,4354.0,CA,SAN DIEGO COUNTY,"EL CAJON, EL CAJON, EL CAJON, EL CAJON",False,False,1.0
4354,BOSTONIA REC CENTER - GYMNASIUM,"1049 Bostonia St, El Cajon, CA 92021, USA",32.80923,-116.9333,4355.0,CA,SAN DIEGO COUNTY,"EL CAJON, EL CAJON, EL CAJON, EL CAJON",True,False,1.0
4355,GROSSMONT COLLEGE-GRIFFIN GATE,"8800 Grossmont College Dr, El Cajon, CA 92020, USA",32.81667,-117.00657,4356.0,CA,SAN DIEGO COUNTY,"EL CAJON, EL CAJON, EL CAJON, EL CAJON",False,False,1.0
4356,GROSSMONT COLLEGE-GRIFFIN GATE,"8800 Grossmont College Dr, El Cajon, CA 92020, USA",32.81667,-117.00657,4357.0,CA,SAN DIEGO COUNTY,"EL CAJON, EL CAJON, EL CAJON, EL CAJON",True,False,1.0
4357,NARANCA ELEM SCHOOL-MPR,"1030 Naranca Ave, El Cajon, CA 92021, USA",32.80426,-116.94757,4358.0,CA,SAN DIEGO COUNTY,"EL CAJON, EL CAJON, EL CAJON, EL CAJON, EL CAJON",False,False,1.0
4358,NARANCA ELEM SCHOOL-MPR,"1030 Naranca Ave, El Cajon, CA 92021, USA",32.80426,-116.94757,4359.0,CA,SAN DIEGO COUNTY,"EL CAJON, EL CAJON, EL CAJON, EL CAJON, EL CAJON",True,False,1.0
4359,WELLS PARK,"1153 E Madison Ave, El Cajon, CA 92021, USA",32.80003,-116.94231,4360.0,CA,SAN DIEGO COUNTY,"EL CAJON, EL CAJON, EL CAJON, EL CAJON, EL CAJON, EL CAJON",False,False,1.0
4360,WELLS PARK,"1153 E Madison Ave, El Cajon, CA 92021, USA",32.80003,-116.94231,4361.0,CA,SAN DIEGO COUNTY,"EL CAJON, EL CAJON, EL CAJON, EL CAJON, EL CAJON, EL CAJON",True,False,1.0
4361,EMERALD MIDDLE SCHOOL-ROOMS 608/609,"1221 Emerald Ave, El Cajon, CA 92020, USA",32.77865,-116.96783,4362.0,CA,SAN DIEGO COUNTY,"EL CAJON, EL CAJON, EL CAJON, EL CAJON, EL CAJON, EL CAJON, EL CAJON",False,False,1.0
4362,EMERALD MIDDLE SCHOOL-ROOMS 608/609,"1221 Emerald Ave, El Cajon, CA 92020, USA",32.77865,-116.96783,4363.0,CA,SAN DIEGO COUNTY,"EL CAJON, EL CAJON, EL CAJON, EL CAJON, EL CAJON, EL CAJON, EL CAJON",True,False,1.0
4363,VISTA GRANDE SCHL-MPR,"1908 VISTA GRANDE RD SCHL, El Cajon, CA 92019, USA",32.76483,-116.91573,4364.0,CA,SAN DIEGO COUNTY,"EL CAJON, VALLE DE ORO, VALLE DE ORO, VALLE DE ORO",False,False,1.0
4364,VISTA GRANDE SCHL-MPR,"1908 VISTA GRANDE RD SCHL, El Cajon, CA 92019, USA",32.76483,-116.91573,4365.0,CA,SAN DIEGO COUNTY,"EL CAJON, VALLE DE ORO, VALLE DE ORO, VALLE DE ORO",True,False,1.0
4365,BETHUNE ELEMENTARY SCHOOL-AUDITORIUM,"6835 Benjamin Holt Rd, San Diego, CA 92114, USA",32.68886,-117.04937,4366.0,CA,SAN DIEGO COUNTY,ENCANTO E,False,False,1.0
4366,BETHUNE ELEMENTARY SCHOOL-AUDITORIUM,"6835 Benjamin Holt Rd, San Diego, CA 92114, USA",32.68886,-117.04937,4367.0,CA,SAN DIEGO COUNTY,ENCANTO E,True,False,1.0
4367,FULTON ELEMENTARY SCHOOL-AUDITORIUM,"7055 Skyline Dr, San Diego, CA 92114, USA",32.70149,-117.04593,4368.0,CA,SAN DIEGO COUNTY,ENCANTO E,False,False,1.0
4368,FULTON ELEMENTARY SCHOOL-AUDITORIUM,"7055 Skyline Dr, San Diego, CA 92114, USA",32.70149,-117.04593,4369.0,CA,SAN DIEGO COUNTY,ENCANTO E,True,False,1.0
4369,FREESE ELEM SCHOOL-AUDITORIUM,"8140 Greenlawn Dr, San Diego, CA 92114, USA",32.70433,-117.02769,4370.0,CA,SAN DIEGO COUNTY,"ENCANTO E, ENCANTO E, ENCANTO E, PARADISE HILLS",False,False,1.0
4370,FREESE ELEM SCHOOL-AUDITORIUM,"8140 Greenlawn Dr, San Diego, CA 92114, USA",32.70433,-117.02769,4371.0,CA,SAN DIEGO COUNTY,"ENCANTO E, ENCANTO E, ENCANTO E, PARADISE HILLS",True,False,1.0
4371,MARTIN LUTHER KING JR REC CTR-GYM,"6401 Skyline Dr, San Diego, CA 92114, USA",32.70104,-117.06058,4372.0,CA,SAN DIEGO COUNTY,ENCANTO W,False,False,1.0
4372,MARTIN LUTHER KING JR REC CTR-GYM,"6401 Skyline Dr, San Diego, CA 92114, USA",32.70104,-117.06058,4373.0,CA,SAN DIEGO COUNTY,ENCANTO W,True,False,1.0
4373,ENCANTO RECREATION CENTER-GYM,"6508 Wunderlin Ave, San Diego, CA 92114, USA",32.71479,-117.05778,4374.0,CA,SAN DIEGO COUNTY,"ENCANTO W, ENCANTO W",False,False,1.0
4374,ENCANTO RECREATION CENTER-GYM,"6508 Wunderlin Ave, San Diego, CA 92114, USA",32.71479,-117.05778,4375.0,CA,SAN DIEGO COUNTY,"ENCANTO W, ENCANTO W",True,False,1.0
4375,ADA W HARRIS ELEM SCHOOL-MPR,"1508 Windsor Rd, Cardiff, CA 92007, USA",33.03139,-117.274,4376.0,CA,SAN DIEGO COUNTY,ENCINITAS,False,False,1.0
4376,ADA W HARRIS ELEM SCHOOL-MPR,"1508 Windsor Rd, Cardiff, CA 92007, USA",33.03139,-117.274,4377.0,CA,SAN DIEGO COUNTY,ENCINITAS,True,False,1.0
4377,PAUL ECKE CENTRAL SCHOOL-MPR,"185 Union St, Encinitas, CA 92024, USA",33.0579,-117.29733,4378.0,CA,SAN DIEGO COUNTY,"ENCINITAS, ENCINITAS",False,False,1.0
4378,PAUL ECKE CENTRAL SCHOOL-MPR,"185 Union St, Encinitas, CA 92024, USA",33.0579,-117.29733,4379.0,CA,SAN DIEGO COUNTY,"ENCINITAS, ENCINITAS",True,False,1.0
4379,OCEAN KNOLL ELEMENTARY SCHOOL-MPR,"910 Melba Rd, Encinitas, CA 92024, USA",33.04055,-117.27165,4380.0,CA,SAN DIEGO COUNTY,"ENCINITAS, ENCINITAS",False,False,1.0
4380,OCEAN KNOLL ELEMENTARY SCHOOL-MPR,"910 Melba Rd, Encinitas, CA 92024, USA",33.04055,-117.27165,4381.0,CA,SAN DIEGO COUNTY,"ENCINITAS, ENCINITAS",True,False,1.0
4381,ENCINITAS COMMUNITY CENTER,"1140 Oakcrest Park Dr, Encinitas, CA 92024, USA",33.04535,-117.26738,4382.0,CA,SAN DIEGO COUNTY,"ENCINITAS, ENCINITAS, ENCINITAS, ENCINITAS, ENCINITAS, ENCINITAS",False,False,1.0
4382,ENCINITAS COMMUNITY CENTER,"1140 Oakcrest Park Dr, Encinitas, CA 92024, USA",33.04535,-117.26738,4383.0,CA,SAN DIEGO COUNTY,"ENCINITAS, ENCINITAS, ENCINITAS, ENCINITAS, ENCINITAS, ENCINITAS",True,False,1.0
4383,PARK DALE LANE ELEM SCHOOL - MPR,"2050 Park Dale Ln, Encinitas, CA 92024, USA",33.04694,-117.24247,4384.0,CA,SAN DIEGO COUNTY,"ENCINITAS, ENCINITAS, ENCINITAS, ENCINITAS, ENCINITAS, ENCINITAS",False,False,1.0
4384,PARK DALE LANE ELEM SCHOOL - MPR,"2050 Park Dale Ln, Encinitas, CA 92024, USA",33.04694,-117.24247,4385.0,CA,SAN DIEGO COUNTY,"ENCINITAS, ENCINITAS, ENCINITAS, ENCINITAS, ENCINITAS, ENCINITAS",True,False,1.0
4385,DEL LAGO ACADEMY-GYM,"1740 Scenic Trail Way, Escondido, CA 92029, USA",33.09957,-117.10409,4386.0,CA,SAN DIEGO COUNTY,"ESCONDIDO, ELFIN FOREST, ESCONDIDO, DEL DIOS, ESCONDIDO",False,False,1.0
4386,DEL LAGO ACADEMY-GYM,"1740 Scenic Trail Way, Escondido, CA 92029, USA",33.09957,-117.10409,4387.0,CA,SAN DIEGO COUNTY,"ESCONDIDO, ELFIN FOREST, ESCONDIDO, DEL DIOS, ESCONDIDO",True,False,1.0
4387,LINCOLN ELEM SCHOOL-MPR,"1029 N Broadway, Escondido, CA 92026, USA",33.13454,-117.08791,4388.0,CA,SAN DIEGO COUNTY,"ESCONDIDO, ESCONDIDO",False,False,1.0
4388,LINCOLN ELEM SCHOOL-MPR,"1029 N Broadway, Escondido, CA 92026, USA",33.13454,-117.08791,4389.0,CA,SAN DIEGO COUNTY,"ESCONDIDO, ESCONDIDO",True,False,1.0
4389,FARR ELEMENTARY SCHOOL-MPR,"933 Farr Ave, Escondido, CA 92026, USA",33.13766,-117.07674,4390.0,CA,SAN DIEGO COUNTY,"ESCONDIDO, ESCONDIDO, ESCONDIDO",False,False,1.0
4390,FARR ELEMENTARY SCHOOL-MPR,"933 Farr Ave, Escondido, CA 92026, USA",33.13766,-117.07674,4391.0,CA,SAN DIEGO COUNTY,"ESCONDIDO, ESCONDIDO, ESCONDIDO",True,False,1.0
4391,EAST VALLEY COMMUNITY CENTER - GYM,"2245 E Valley Pkwy, Escondido, CA 92027, USA",33.13856,-117.04612,4392.0,CA,SAN DIEGO COUNTY,"ESCONDIDO, ESCONDIDO, ESCONDIDO, ESCONDIDO",False,False,1.0
4392,EAST VALLEY COMMUNITY CENTER - GYM,"2245 E Valley Pkwy, Escondido, CA 92027, USA",33.13856,-117.04612,4393.0,CA,SAN DIEGO COUNTY,"ESCONDIDO, ESCONDIDO, ESCONDIDO, ESCONDIDO",True,False,1.0
4393,ESCONDIDO HIGH SCHOOL-MAIN GYM,"1535 N Broadway, Escondido, CA 92026, USA",33.14433,-117.09085,4394.0,CA,SAN DIEGO COUNTY,"ESCONDIDO, ESCONDIDO, ESCONDIDO, ESCONDIDO, ESCONDIDO",False,False,1.0
4394,ESCONDIDO HIGH SCHOOL-MAIN GYM,"1535 N Broadway, Escondido, CA 92026, USA",33.14433,-117.09085,4395.0,CA,SAN DIEGO COUNTY,"ESCONDIDO, ESCONDIDO, ESCONDIDO, ESCONDIDO, ESCONDIDO",True,False,1.0
4395,CENTRAL ELEM SCHOOL-AUDITORIUM,"122 W 4th Ave, Escondido, CA 92025, USA",33.11884,-117.08033,4396.0,CA,SAN DIEGO COUNTY,"ESCONDIDO, ESCONDIDO, ESCONDIDO, ESCONDIDO, ESCONDIDO, ESCONDIDO",False,False,1.0
4396,CENTRAL ELEM SCHOOL-AUDITORIUM,"122 W 4th Ave, Escondido, CA 92025, USA",33.11884,-117.08033,4397.0,CA,SAN DIEGO COUNTY,"ESCONDIDO, ESCONDIDO, ESCONDIDO, ESCONDIDO, ESCONDIDO, ESCONDIDO",True,False,1.0
4397,REIDY CREEK ELEM SCHOOL-MPR,"2869 N Broadway, Escondido, CA 92026, USA",33.17185,-117.09228,4398.0,CA,SAN DIEGO COUNTY,"ESCONDIDO, HIDDEN MEADOWS, JESMOND DENE, HIDDEN MEADOWS, ESCONDIDO",False,False,1.0
4398,REIDY CREEK ELEM SCHOOL-MPR,"2869 N Broadway, Escondido, CA 92026, USA",33.17185,-117.09228,4399.0,CA,SAN DIEGO COUNTY,"ESCONDIDO, HIDDEN MEADOWS, JESMOND DENE, HIDDEN MEADOWS, ESCONDIDO",True,False,1.0
4399,ROCK SPRINGS ELEM SCHOOL-AUDITORIUM,"1155 Deodar Rd, Escondido, CA 92026, USA",33.13777,-117.10667,4400.0,CA,SAN DIEGO COUNTY,"ESCONDIDO, ROCK SPRINGS, ESCONDIDO",False,False,1.0
4400,ROCK SPRINGS ELEM SCHOOL-AUDITORIUM,"1155 Deodar Rd, Escondido, CA 92026, USA",33.13777,-117.10667,4401.0,CA,SAN DIEGO COUNTY,"ESCONDIDO, ROCK SPRINGS, ESCONDIDO",True,False,1.0
4401,FALLBROOK HIGH SCHOOL-GYM,"2400 S Stage Coach Ln, Fallbrook, CA 92028, USA",33.34902,-117.24184,4402.0,CA,SAN DIEGO COUNTY,FALLBROOK,False,False,1.0
4402,FALLBROOK HIGH SCHOOL-GYM,"2400 S Stage Coach Ln, Fallbrook, CA 92028, USA",33.34902,-117.24184,4403.0,CA,SAN DIEGO COUNTY,FALLBROOK,True,False,1.0
4403,WILLIAM H FRAZIER ELEM SCHOOL-MPR,"1835 Gum Tree Ln, Fallbrook, CA 92028, USA",33.38702,-117.22476,4404.0,CA,SAN DIEGO COUNTY,"FALLBROOK, FALLBROOK",False,False,1.0
4404,WILLIAM H FRAZIER ELEM SCHOOL-MPR,"1835 Gum Tree Ln, Fallbrook, CA 92028, USA",33.38702,-117.22476,4405.0,CA,SAN DIEGO COUNTY,"FALLBROOK, FALLBROOK",True,False,1.0
4405,FALLBROOK COMMUNITY CTR-AUDITORIUM,"341 Heald Ln, Fallbrook, CA 92028, USA",33.37771,-117.23593,4406.0,CA,SAN DIEGO COUNTY,"FALLBROOK, FALLBROOK",False,False,1.0
4406,FALLBROOK COMMUNITY CTR-AUDITORIUM,"341 Heald Ln, Fallbrook, CA 92028, USA",33.37771,-117.23593,4407.0,CA,SAN DIEGO COUNTY,"FALLBROOK, FALLBROOK",True,False,1.0
4407,BONSALL COMMUNITY CTR-MAIN RM,"31555 Old River Rd, Bonsall, CA 92003, USA",33.28738,-117.21898,4408.0,CA,SAN DIEGO COUNTY,"FALLBROOK, GOPHER CANYON, FALLBROOK, BONSALL, BONSALL, RHO MONSERATE, BONSALL",True,False,1.0
4408,BONSALL COMMUNITY CTR-MAIN RM,"31555 Old River Rd, Bonsall, CA 92003, USA",33.28738,-117.21898,4409.0,CA,SAN DIEGO COUNTY,"GOPHER CANYON, FALLBROOK, BONSALL, BONSALL, RHO MONSERATE, FALLBROOK, BONSALL",False,False,1.0
4409,DOLORES MAGDALENO MEMORIAL REC CTR-GYM,"2902 Marcy Ave, San Diego, CA 92113, USA",32.69854,-117.13167,4410.0,CA,SAN DIEGO COUNTY,HARBOR,False,False,1.0
4410,DOLORES MAGDALENO MEMORIAL REC CTR-GYM,"2902 Marcy Ave, San Diego, CA 92113, USA",32.69854,-117.13167,4411.0,CA,SAN DIEGO COUNTY,HARBOR,True,False,1.0
4411,CABRILLO ELEMENTARY SCHOOL-AUDITORIUM,"3120 Talbot St, San Diego, CA 92106, USA",32.72168,-117.23344,4412.0,CA,SAN DIEGO COUNTY,"HARBOR, HARBOR",False,False,1.0
4412,CABRILLO ELEMENTARY SCHOOL-AUDITORIUM,"3120 Talbot St, San Diego, CA 92106, USA",32.72168,-117.23344,4413.0,CA,SAN DIEGO COUNTY,"HARBOR, HARBOR",True,False,1.0
4413,CSU SAN MARCOS-CLARKE FIELD HOUSE-GYM,"333 S Twin Oaks Valley Rd, San Marcos, CA 92096, USA",33.12949,-117.15957,4414.0,CA,SAN DIEGO COUNTY,"HARMONY GROVE, SAN MARCOS, SAN MARCOS, SAN MARCOS, HARMONY GROVE",False,False,1.0
4414,CSU SAN MARCOS-CLARKE FIELD HOUSE-GYM,"333 S Twin Oaks Valley Rd, San Marcos, CA 92096, USA",33.12949,-117.15957,4415.0,CA,SAN DIEGO COUNTY,"HARMONY GROVE, SAN MARCOS, SAN MARCOS, SAN MARCOS, HARMONY GROVE",True,False,1.0
4415,SPRING VALLEY ACADEMY-MPR,"3900 Conrad Dr, Spring Valley, CA 91977, USA",32.75019,-116.98777,4416.0,CA,SAN DIEGO COUNTY,"HELIX, HELIX, HELIX",False,False,1.0
4416,SPRING VALLEY ACADEMY-MPR,"3900 Conrad Dr, Spring Valley, CA 91977, USA",32.75019,-116.98777,4417.0,CA,SAN DIEGO COUNTY,"HELIX, HELIX, HELIX",True,False,1.0
4417,SAN DIEGO LGBT COMMUNITY CENTER,"3909 Centre St, San Diego, CA 92103, USA",32.74894,-117.14766,4418.0,CA,SAN DIEGO COUNTY,HILLCREST,False,False,1.0
4418,SAN DIEGO LGBT COMMUNITY CENTER,"3909 Centre St, San Diego, CA 92103, USA",32.74894,-117.14766,4419.0,CA,SAN DIEGO COUNTY,HILLCREST,True,False,1.0
4419,FLORENCE ELEM SCHOOL-AUDITORIUM,"3914 1st Ave, San Diego, CA 92103, USA",32.749,-117.16418,4420.0,CA,SAN DIEGO COUNTY,HILLCREST,False,False,1.0
4420,FLORENCE ELEM SCHOOL-AUDITORIUM,"3914 1st Ave, San Diego, CA 92103, USA",32.749,-117.16418,4421.0,CA,SAN DIEGO COUNTY,HILLCREST,True,False,1.0
4421,GARFIELD ELEM SCHOOL-MPR,"4487 Oregon St, San Diego, CA 92116, USA",32.7583,-117.13477,4422.0,CA,SAN DIEGO COUNTY,"HILLCREST, NORTH PARK",False,False,1.0
4422,GARFIELD ELEM SCHOOL-MPR,"4487 Oregon St, San Diego, CA 92116, USA",32.7583,-117.13477,4423.0,CA,SAN DIEGO COUNTY,"HILLCREST, NORTH PARK",True,False,1.0
4423,SBUSD ED CENTER-BURRESS AUDITORIUM,"601 Elm Ave, Imperial Beach, CA 91932, USA",32.58002,-117.12018,4424.0,CA,SAN DIEGO COUNTY,"IMPERIAL BEACH, IMPERIAL BEACH, CORONADO",False,False,1.0
4424,SBUSD ED CENTER-BURRESS AUDITORIUM,"601 Elm Ave, Imperial Beach, CA 91932, USA",32.58002,-117.12018,4425.0,CA,SAN DIEGO COUNTY,"IMPERIAL BEACH, IMPERIAL BEACH, CORONADO",True,False,1.0
4425,SPORTS PARK GYM,"425 Imperial Beach Blvd, Imperial Beach, CA 91932, USA",32.57625,-117.1234,4426.0,CA,SAN DIEGO COUNTY,"IMPERIAL BEACH, IMPERIAL BEACH, IMPERIAL BEACH, IMPERIAL BEACH",False,False,1.0
4426,SPORTS PARK GYM,"425 Imperial Beach Blvd, Imperial Beach, CA 91932, USA",32.57625,-117.1234,4427.0,CA,SAN DIEGO COUNTY,"IMPERIAL BEACH, IMPERIAL BEACH, IMPERIAL BEACH, IMPERIAL BEACH",True,False,1.0
4427,MUIRLANDS MIDDLE SCHOOL-AUDITORIUM,"1056 Nautilus St, La Jolla, CA 92037, USA",32.83214,-117.26859,4428.0,CA,SAN DIEGO COUNTY,LA JOLLA,False,False,1.0
4428,MUIRLANDS MIDDLE SCHOOL-AUDITORIUM,"1056 Nautilus St, La Jolla, CA 92037, USA",32.83214,-117.26859,4429.0,CA,SAN DIEGO COUNTY,LA JOLLA,True,False,1.0
4429,LA JOLLA ELEM SCHOOL-AUDITORIUM,"1111 Marine St, La Jolla, CA 92037, USA",32.83924,-117.2717,4430.0,CA,SAN DIEGO COUNTY,LA JOLLA,False,False,1.0
4430,LA JOLLA ELEM SCHOOL-AUDITORIUM,"1111 Marine St, La Jolla, CA 92037, USA",32.83924,-117.2717,4431.0,CA,SAN DIEGO COUNTY,LA JOLLA,True,False,1.0
4431,PACIFIC BEACH RECREATION CENTER - GYM,"1405 Diamond St, San Diego, CA 92109, USA",32.80151,-117.24488,4432.0,CA,SAN DIEGO COUNTY,LA JOLLA,False,False,1.0
4432,PACIFIC BEACH RECREATION CENTER - GYM,"1405 Diamond St, San Diego, CA 92109, USA",32.80151,-117.24488,4433.0,CA,SAN DIEGO COUNTY,LA JOLLA,True,False,1.0
4433,ROLANDO ELEM SCHOOL-MPR,"6925 Tower St, La Mesa, CA 91942, USA",32.76272,-117.04833,4434.0,CA,SAN DIEGO COUNTY,LA MESA,False,False,1.0
4434,ROLANDO ELEM SCHOOL-MPR,"6925 Tower St, La Mesa, CA 91942, USA",32.76272,-117.04833,4435.0,CA,SAN DIEGO COUNTY,LA MESA,True,False,1.0
4435,LA MESA ADULT ENRICHMENT CTR-MAIN HALL,"8450 La Mesa Blvd, La Mesa, CA 91942, USA",32.76774,-117.01601,4436.0,CA,SAN DIEGO COUNTY,LA MESA,False,False,1.0
4436,LA MESA ADULT ENRICHMENT CTR-MAIN HALL,"8450 La Mesa Blvd, La Mesa, CA 91942, USA",32.76774,-117.01601,4437.0,CA,SAN DIEGO COUNTY,LA MESA,True,False,1.0
4437,LA MESA ARTS ACADEMY-MPR,"4200 Parks Ave, La Mesa, CA 91941, USA",32.75462,-117.03049,4438.0,CA,SAN DIEGO COUNTY,"LA MESA, LA MESA",False,False,1.0
4438,LA MESA ARTS ACADEMY-MPR,"4200 Parks Ave, La Mesa, CA 91941, USA",32.75462,-117.03049,4439.0,CA,SAN DIEGO COUNTY,"LA MESA, LA MESA",True,False,1.0
4439,PARKWAY MIDDLE SCHOOL-MPR,"9009 Park Plaza Dr, La Mesa, CA 91942, USA",32.79046,-117.0042,4440.0,CA,SAN DIEGO COUNTY,"LA MESA, LA MESA, EL CAJON",False,False,1.0
4440,PARKWAY MIDDLE SCHOOL-MPR,"9009 Park Plaza Dr, La Mesa, CA 91942, USA",32.79046,-117.0042,4441.0,CA,SAN DIEGO COUNTY,"LA MESA, LA MESA, EL CAJON",True,False,1.0
4441,EL CAPITAN HIGH SCHOOL-GYM,"10410 Ashwood St, Lakeside, CA 92040, USA",32.86646,-116.91704,4442.0,CA,SAN DIEGO COUNTY,"LAKESIDE, LAKESIDE, LAKESIDE",False,False,1.0
4442,EL CAPITAN HIGH SCHOOL-GYM,"10410 Ashwood St, Lakeside, CA 92040, USA",32.86646,-116.91704,4443.0,CA,SAN DIEGO COUNTY,"LAKESIDE, LAKESIDE, LAKESIDE",True,False,1.0
4443,LAKESIDE COMMUNITY CENTER-MEYER HALL,"9841 Vine St, Lakeside, CA 92040, USA",32.85926,-116.92025,4444.0,CA,SAN DIEGO COUNTY,"LAKESIDE, LAKESIDE, LAKESIDE",False,False,1.0
4444,LAKESIDE COMMUNITY CENTER-MEYER HALL,"9841 Vine St, Lakeside, CA 92040, USA",32.85926,-116.92025,4445.0,CA,SAN DIEGO COUNTY,"LAKESIDE, LAKESIDE, LAKESIDE",True,False,1.0
4445,RIOS ELEM SCHOOL-MPR,"14314 Rios Canyon Rd, El Cajon, CA 92021, USA",32.8406,-116.87321,4446.0,CA,SAN DIEGO COUNTY,"LAKEVIEW FLINN, LAKEVIEW FLINN",False,False,1.0
4446,RIOS ELEM SCHOOL-MPR,"14314 Rios Canyon Rd, El Cajon, CA 92021, USA",32.8406,-116.87321,4447.0,CA,SAN DIEGO COUNTY,"LAKEVIEW FLINN, LAKEVIEW FLINN",True,False,1.0
4447,LEMON GROVE REC CENTER - GYMNASIUM,"3131 School Ln, Lemon Grove, CA 91945, USA",32.73998,-117.02965,4448.0,CA,SAN DIEGO COUNTY,LEMON GROVE,False,False,1.0
4448,LEMON GROVE REC CENTER - GYMNASIUM,"3131 School Ln, Lemon Grove, CA 91945, USA",32.73998,-117.02965,4449.0,CA,SAN DIEGO COUNTY,LEMON GROVE,True,False,1.0
4449,LEMON BLOSSOM HALL,"8235 Mt Vernon St, Lemon Grove, CA 91945, USA",32.7312,-117.02244,4450.0,CA,SAN DIEGO COUNTY,LEMON GROVE,False,False,1.0
4450,LEMON BLOSSOM HALL,"8235 Mt Vernon St, Lemon Grove, CA 91945, USA",32.7312,-117.02244,4451.0,CA,SAN DIEGO COUNTY,LEMON GROVE,True,False,1.0
4451,LINDA VISTA RECREATION CTR-AUDITORIUM,"7064 Levant St, San Diego, CA 92111, USA",32.79223,-117.1699,4452.0,CA,SAN DIEGO COUNTY,LINDA VISTA,False,False,1.0
4452,LINDA VISTA RECREATION CTR-AUDITORIUM,"7064 Levant St, San Diego, CA 92111, USA",32.79223,-117.1699,4453.0,CA,SAN DIEGO COUNTY,LINDA VISTA,True,False,1.0
4453,San Diego County Registrar of Voters,"5600 Overland Ave STE 100, San Diego, CA 92123, USA",32.83681,-117.12988,4454.0,CA,SAN DIEGO COUNTY,Locality wide location,False,False,1.0
4454,WASHINGTON ELEM SCHOOL-AUDITORIUM,"1789 State St, San Diego, CA 92101, USA",32.72389,-117.16647,4455.0,CA,SAN DIEGO COUNTY,"MIDDLETOWN, MIDDLETOWN",False,False,1.0
4455,WASHINGTON ELEM SCHOOL-AUDITORIUM,"1789 State St, San Diego, CA 92101, USA",32.72389,-117.16647,4456.0,CA,SAN DIEGO COUNTY,"MIDDLETOWN, MIDDLETOWN",True,False,1.0
4456,LOMA PORTAL ELEM SCH-AUDITORIUM,"3341 Browning St, San Diego, CA 92106, USA",32.73989,-117.22186,4457.0,CA,SAN DIEGO COUNTY,MIDWAY OLD TOWN,False,False,1.0
4457,LOMA PORTAL ELEM SCH-AUDITORIUM,"3341 Browning St, San Diego, CA 92106, USA",32.73989,-117.22186,4458.0,CA,SAN DIEGO COUNTY,MIDWAY OLD TOWN,True,False,1.0
4458,GRANT ELEM SCHOOL-AUDITORIUM,"1425 Washington Pl, San Diego, CA 92103, USA",32.74954,-117.17624,4459.0,CA,SAN DIEGO COUNTY,"MIDWAY OLD TOWN, MIDWAY OLD TOWN",False,False,1.0
4459,GRANT ELEM SCHOOL-AUDITORIUM,"1425 Washington Pl, San Diego, CA 92103, USA",32.74954,-117.17624,4460.0,CA,SAN DIEGO COUNTY,"MIDWAY OLD TOWN, MIDWAY OLD TOWN",True,False,1.0
4460,SAN DIEGO MIRAMAR COLLEGE-HOURGLASS GYM,"10440 Black Mountain Rd, San Diego, CA 92126, USA",32.90652,-117.12226,4461.0,CA,SAN DIEGO COUNTY,MIRA MESA,False,False,1.0
4461,SAN DIEGO MIRAMAR COLLEGE-HOURGLASS GYM,"10440 Black Mountain Rd, San Diego, CA 92126, USA",32.90652,-117.12226,4462.0,CA,SAN DIEGO COUNTY,MIRA MESA,True,False,1.0
4462,CHALLENGER MID SCHOOL-ACTIVITY RM,"10810 Parkdale Ave, San Diego, CA 92126, USA",32.91328,-117.15702,4463.0,CA,SAN DIEGO COUNTY,MIRA MESA,False,False,1.0
4463,CHALLENGER MID SCHOOL-ACTIVITY RM,"10810 Parkdale Ave, San Diego, CA 92126, USA",32.91328,-117.15702,4464.0,CA,SAN DIEGO COUNTY,MIRA MESA,True,False,1.0
4464,MIRA MESA REC CTR-GYM,"8575 New Salem St, San Diego, CA 92126, USA",32.91518,-117.14031,4465.0,CA,SAN DIEGO COUNTY,MIRA MESA,False,False,1.0
4465,MIRA MESA REC CTR-GYM,"8575 New Salem St, San Diego, CA 92126, USA",32.91518,-117.14031,4466.0,CA,SAN DIEGO COUNTY,MIRA MESA,True,False,1.0
4466,HAGE ELEM SCHOOL-AUDITORIUM,"9750 Galvin Ave, San Diego, CA 92126, USA",32.92092,-117.12099,4467.0,CA,SAN DIEGO COUNTY,MIRA MESA,False,False,1.0
4467,HAGE ELEM SCHOOL-AUDITORIUM,"9750 Galvin Ave, San Diego, CA 92126, USA",32.92092,-117.12099,4468.0,CA,SAN DIEGO COUNTY,MIRA MESA,True,False,1.0
4468,BAY PARK ELEM SCHOOL-AUDITORIUM,"2433 Denver St, San Diego, CA 92110, USA",32.78754,-117.20353,4469.0,CA,SAN DIEGO COUNTY,"MISSION VALLEY, LINDA VISTA, CLAIREMONT S",False,False,1.0
4469,BAY PARK ELEM SCHOOL-AUDITORIUM,"2433 Denver St, San Diego, CA 92110, USA",32.78754,-117.20353,4470.0,CA,SAN DIEGO COUNTY,"MISSION VALLEY, LINDA VISTA, CLAIREMONT S",True,False,1.0
4470,SDSU VIEJAS ARENA,"5500 Canyon Crest Dr, San Diego, CA 92115, USA",32.77758,-117.07558,4471.0,CA,SAN DIEGO COUNTY,"MONTEZUMA, MONTEZUMA",False,False,1.0
4471,SDSU VIEJAS ARENA,"5500 Canyon Crest Dr, San Diego, CA 92115, USA",32.77758,-117.07558,4472.0,CA,SAN DIEGO COUNTY,"MONTEZUMA, MONTEZUMA",True,False,1.0
4472,OLIVEWOOD ELEM SCHOOL-MPR,"2505 F Ave., National City, CA 91950, USA",32.66237,-117.09285,4473.0,CA,SAN DIEGO COUNTY,"NATIONAL CITY, LINCOLN ACRES",False,False,1.0
4473,OLIVEWOOD ELEM SCHOOL-MPR,"2505 F Ave., National City, CA 91950, USA",32.66237,-117.09285,4474.0,CA,SAN DIEGO COUNTY,"NATIONAL CITY, LINCOLN ACRES",True,False,1.0
4474,MARTIN LUTHER KING JR BLDG - MAIN HALL,"140 E 12th St, National City, CA 91950, USA",32.67232,-117.10377,4475.0,CA,SAN DIEGO COUNTY,"NATIONAL CITY, NATIONAL CITY",False,False,1.0
4475,MARTIN LUTHER KING JR BLDG - MAIN HALL,"140 E 12th St, National City, CA 91950, USA",32.67232,-117.10377,4476.0,CA,SAN DIEGO COUNTY,"NATIONAL CITY, NATIONAL CITY",True,False,1.0
4476,IRA HARBISON ELEM SCHOOL-AUDITORIUM,"3235 E 8th St, National City, CA 91950, USA",32.68605,-117.07366,4477.0,CA,SAN DIEGO COUNTY,"NATIONAL CITY, NATIONAL CITY",False,False,1.0
4477,IRA HARBISON ELEM SCHOOL-AUDITORIUM,"3235 E 8th St, National City, CA 91950, USA",32.68605,-117.07366,4478.0,CA,SAN DIEGO COUNTY,"NATIONAL CITY, NATIONAL CITY",True,False,1.0
4478,HEARST ELEM SCHOOL-AUDITORIUM,"6230 Del Cerro Blvd, San Diego, CA 92120, USA",32.7837,-117.06426,4479.0,CA,SAN DIEGO COUNTY,NAVAJO,False,False,1.0
4479,HEARST ELEM SCHOOL-AUDITORIUM,"6230 Del Cerro Blvd, San Diego, CA 92120, USA",32.7837,-117.06426,4480.0,CA,SAN DIEGO COUNTY,NAVAJO,True,False,1.0
4480,FOSTER ELEM SCHOOL-AUDITORIUM,"6550 51st St, San Diego, CA 92120, USA",32.79226,-117.08492,4481.0,CA,SAN DIEGO COUNTY,"NAVAJO, TIERRASANTA, MISSION VALLEY",False,False,1.0
4481,FOSTER ELEM SCHOOL-AUDITORIUM,"6550 51st St, San Diego, CA 92120, USA",32.79226,-117.08492,4482.0,CA,SAN DIEGO COUNTY,"NAVAJO, TIERRASANTA, MISSION VALLEY",True,False,1.0
4482,ROBERT EGGER REC CTR - GYM,"1885 Coronado Ave, San Diego, CA 92154, USA",32.57516,-117.09416,4483.0,CA,SAN DIEGO COUNTY,NESTOR,False,False,1.0
4483,ROBERT EGGER REC CTR - GYM,"1885 Coronado Ave, San Diego, CA 92154, USA",32.57516,-117.09416,4484.0,CA,SAN DIEGO COUNTY,NESTOR,True,False,1.0
4484,MONTGOMERY WALLER REC CTR - GYM,"3020 Coronado Ave, San Diego, CA 92154, USA",32.57906,-117.06884,4485.0,CA,SAN DIEGO COUNTY,NESTOR,False,False,1.0
4485,MONTGOMERY WALLER REC CTR - GYM,"3020 Coronado Ave, San Diego, CA 92154, USA",32.57906,-117.06884,4486.0,CA,SAN DIEGO COUNTY,NESTOR,True,False,1.0
4486,CESAR CHAVEZ COMMUNITY CTR-GYM,"455 Sycamore Rd, San Diego, CA 92173, USA",32.5467,-117.04537,4487.0,CA,SAN DIEGO COUNTY,NESTOR,False,False,1.0
4487,CESAR CHAVEZ COMMUNITY CTR-GYM,"455 Sycamore Rd, San Diego, CA 92173, USA",32.5467,-117.04537,4488.0,CA,SAN DIEGO COUNTY,NESTOR,True,False,1.0
4488,SOUTHWEST HIGH SCHOOL-GYM,"1685 Hollister St, San Diego, CA 92154, USA",32.56802,-117.0829,4489.0,CA,SAN DIEGO COUNTY,"NESTOR, NESTOR",False,False,1.0
4489,SOUTHWEST HIGH SCHOOL-GYM,"1685 Hollister St, San Diego, CA 92154, USA",32.56802,-117.0829,4490.0,CA,SAN DIEGO COUNTY,"NESTOR, NESTOR",True,False,1.0
4490,MONTGOMERY HIGH SCHOOL-OLD GYM,"3250 Palm Ave, San Diego, CA 92154, USA",32.58394,-117.06266,4491.0,CA,SAN DIEGO COUNTY,"NESTOR, NESTOR",False,False,1.0
4491,MONTGOMERY HIGH SCHOOL-OLD GYM,"3250 Palm Ave, San Diego, CA 92154, USA",32.58394,-117.06266,4492.0,CA,SAN DIEGO COUNTY,"NESTOR, NESTOR",True,False,1.0
4492,NORMAL HEIGHTS ELEM SCHOOL-MPR,"3750 Ward Rd, San Diego, CA 92116, USA",32.76087,-117.11278,4493.0,CA,SAN DIEGO COUNTY,NORMAL HEIGHTS,False,False,1.0
4493,NORMAL HEIGHTS ELEM SCHOOL-MPR,"3750 Ward Rd, San Diego, CA 92116, USA",32.76087,-117.11278,4494.0,CA,SAN DIEGO COUNTY,NORMAL HEIGHTS,True,False,1.0
4494,FRANKLIN ELEM SCHOOL-AUDITORIUM,"4481 Copeland Ave, San Diego, CA 92116, USA",32.75806,-117.10349,4495.0,CA,SAN DIEGO COUNTY,NORMAL HEIGHTS,False,False,1.0
4495,FRANKLIN ELEM SCHOOL-AUDITORIUM,"4481 Copeland Ave, San Diego, CA 92116, USA",32.75806,-117.10349,4496.0,CA,SAN DIEGO COUNTY,NORMAL HEIGHTS,True,False,1.0
4496,COLINA DEL SOL REC CENTER-GYM,"5319 Orange Ave, San Diego, CA 92115, USA",32.75277,-117.08014,4497.0,CA,SAN DIEGO COUNTY,NORMAL HEIGHTS,False,False,1.0
4497,COLINA DEL SOL REC CENTER-GYM,"5319 Orange Ave, San Diego, CA 92115, USA",32.75277,-117.08014,4498.0,CA,SAN DIEGO COUNTY,NORMAL HEIGHTS,True,False,1.0
4498,MID CITY COMMUNITY-GYMNASIUM,"4302 Landis St, San Diego, CA 92105, USA",32.74673,-117.10163,4499.0,CA,SAN DIEGO COUNTY,"NORMAL HEIGHTS, NORMAL HEIGHTS, CITY HEIGHTS",False,False,1.0
4499,MID CITY COMMUNITY-GYMNASIUM,"4302 Landis St, San Diego, CA 92105, USA",32.74673,-117.10163,4500.0,CA,SAN DIEGO COUNTY,"NORMAL HEIGHTS, NORMAL HEIGHTS, CITY HEIGHTS",True,False,1.0
4500,MC KINLEY ELEM SCHOOL-AUDITORIUM,"3045 Felton St, San Diego, CA 92104, USA",32.73684,-117.12096,4501.0,CA,SAN DIEGO COUNTY,NORTH PARK,False,False,1.0
4501,MC KINLEY ELEM SCHOOL-AUDITORIUM,"3045 Felton St, San Diego, CA 92104, USA",32.73684,-117.12096,4502.0,CA,SAN DIEGO COUNTY,NORTH PARK,True,False,1.0
4502,NORTH PARK RECREATION CENTER - GYM,"4044 Idaho St, San Diego, CA 92104, USA",32.75095,-117.13415,4503.0,CA,SAN DIEGO COUNTY,NORTH PARK,False,False,1.0
4503,NORTH PARK RECREATION CENTER - GYM,"4044 Idaho St, San Diego, CA 92104, USA",32.75095,-117.13415,4504.0,CA,SAN DIEGO COUNTY,NORTH PARK,True,False,1.0
4504,WARNER UNION ELEM SCHL-GYM,"30951 CA-79, Warner Springs, CA 92086, USA",33.27377,-116.64246,4505.0,CA,SAN DIEGO COUNTY,OAK GROVE,False,False,1.0
4505,WARNER UNION ELEM SCHL-GYM,"30951 CA-79, Warner Springs, CA 92086, USA",33.27377,-116.64246,4506.0,CA,SAN DIEGO COUNTY,OAK GROVE,True,False,1.0
4506,DANA MID SCHOOL-CAFETERIA,"1775 Chatsworth Blvd, San Diego, CA 92106, USA",32.73229,-117.2327,4507.0,CA,SAN DIEGO COUNTY,OCEAN BEACH,False,False,1.0
4507,DANA MID SCHOOL-CAFETERIA,"1775 Chatsworth Blvd, San Diego, CA 92106, USA",32.73229,-117.2327,4508.0,CA,SAN DIEGO COUNTY,OCEAN BEACH,True,False,1.0
4508,CORREIA MIDDLE SCHOOL-RM 801,"4302 Valeta St, San Diego, CA 92107, USA",32.747,-117.23123,4509.0,CA,SAN DIEGO COUNTY,OCEAN BEACH,False,False,1.0
4509,CORREIA MIDDLE SCHOOL-RM 801,"4302 Valeta St, San Diego, CA 92107, USA",32.747,-117.23123,4510.0,CA,SAN DIEGO COUNTY,OCEAN BEACH,True,False,1.0
4510,OCEAN BEACH REC CTR - GYM,"4726 Santa Monica Ave, San Diego, CA 92107, USA",32.74512,-117.24546,4511.0,CA,SAN DIEGO COUNTY,OCEAN BEACH,False,False,1.0
4511,OCEAN BEACH REC CTR - GYM,"4726 Santa Monica Ave, San Diego, CA 92107, USA",32.74512,-117.24546,4512.0,CA,SAN DIEGO COUNTY,OCEAN BEACH,True,False,1.0
4512,LAUREL ELEMENTARY SCHOOL-ROOMS E15/E16,"1410 Laurel St, Oceanside, CA 92054, USA",33.20738,-117.37317,4513.0,CA,SAN DIEGO COUNTY,OCEANSIDE,False,False,1.0
4513,LAUREL ELEMENTARY SCHOOL-ROOMS E15/E16,"1410 Laurel St, Oceanside, CA 92054, USA",33.20738,-117.37317,4514.0,CA,SAN DIEGO COUNTY,OCEANSIDE,True,False,1.0
4514,TEMPLE HEIGHTS ELEM SCHOOL-MPR,"1550 Temple Heights Dr, Oceanside, CA 92056, USA",33.21859,-117.26945,4515.0,CA,SAN DIEGO COUNTY,OCEANSIDE,False,False,1.0
4515,TEMPLE HEIGHTS ELEM SCHOOL-MPR,"1550 Temple Heights Dr, Oceanside, CA 92056, USA",33.21859,-117.26945,4516.0,CA,SAN DIEGO COUNTY,OCEANSIDE,True,False,1.0
4516,LINCOLN MIDDLE SCHOOL-MPR,"2000 California St, Oceanside, CA 92054, USA",33.18896,-117.3521,4517.0,CA,SAN DIEGO COUNTY,OCEANSIDE,False,False,1.0
4517,LINCOLN MIDDLE SCHOOL-MPR,"2000 California St, Oceanside, CA 92054, USA",33.18896,-117.3521,4518.0,CA,SAN DIEGO COUNTY,OCEANSIDE,True,False,1.0
4518,CESAR CHAVEZ MIDDLE SCHOOL-MPR,"202 Oleander Dr, Oceanside, CA 92057, USA",33.24229,-117.30104,4519.0,CA,SAN DIEGO COUNTY,OCEANSIDE,False,False,1.0
4519,CESAR CHAVEZ MIDDLE SCHOOL-MPR,"202 Oleander Dr, Oceanside, CA 92057, USA",33.24229,-117.30104,4520.0,CA,SAN DIEGO COUNTY,OCEANSIDE,True,False,1.0
4520,LIBBY ELEMENTARY SCHOOL-ROOMS 5/6,"423 W Redondo Dr, Oceanside, CA 92057, USA",33.25176,-117.30534,4521.0,CA,SAN DIEGO COUNTY,OCEANSIDE,False,False,1.0
4521,LIBBY ELEMENTARY SCHOOL-ROOMS 5/6,"423 W Redondo Dr, Oceanside, CA 92057, USA",33.25176,-117.30534,4522.0,CA,SAN DIEGO COUNTY,OCEANSIDE,True,False,1.0
4522,OCEANSIDE COUNTRY CLUB SENIOR CENTER-MPR,"455 Country Club Ln, Oceanside, CA 92054, USA",33.19676,-117.36491,4523.0,CA,SAN DIEGO COUNTY,OCEANSIDE,False,False,1.0
4523,OCEANSIDE COUNTRY CLUB SENIOR CENTER-MPR,"455 Country Club Ln, Oceanside, CA 92054, USA",33.19676,-117.36491,4524.0,CA,SAN DIEGO COUNTY,OCEANSIDE,True,False,1.0
4524,REYNOLDS ELEMENTARY SCHOOL-ROOMS G1/G4,"4575 Douglas Dr, Oceanside, CA 92057, USA",33.25648,-117.31268,4525.0,CA,SAN DIEGO COUNTY,OCEANSIDE,False,False,1.0
4525,REYNOLDS ELEMENTARY SCHOOL-ROOMS G1/G4,"4575 Douglas Dr, Oceanside, CA 92057, USA",33.25648,-117.31268,4526.0,CA,SAN DIEGO COUNTY,OCEANSIDE,True,False,1.0
4526,MADISON MIDDLE SCHOOL-MPR,"4930 Lake Blvd, Oceanside, CA 92056, USA",33.17466,-117.25857,4527.0,CA,SAN DIEGO COUNTY,"OCEANSIDE, BUENA, OCEANSIDE",False,False,1.0
4527,MADISON MIDDLE SCHOOL-MPR,"4930 Lake Blvd, Oceanside, CA 92056, USA",33.17466,-117.25857,4528.0,CA,SAN DIEGO COUNTY,"OCEANSIDE, BUENA, OCEANSIDE",True,False,1.0
4528,OCEANSIDE HIGH SCH - PERF ARTS CTR LOBBY,"1 Pirates Cove Way, Oceanside, CA 92054, USA",33.19702,-117.37416,4529.0,CA,SAN DIEGO COUNTY,"OCEANSIDE, OCEANSIDE",False,False,1.0
4529,OCEANSIDE HIGH SCH - PERF ARTS CTR LOBBY,"1 Pirates Cove Way, Oceanside, CA 92054, USA",33.19702,-117.37416,4530.0,CA,SAN DIEGO COUNTY,"OCEANSIDE, OCEANSIDE",True,False,1.0
4530,MARTIN L KING JR MID SCHOOL-MPR,"1290 Ivey Ranch Rd, Oceanside, CA 92057, USA",33.21512,-117.30966,4531.0,CA,SAN DIEGO COUNTY,"OCEANSIDE, OCEANSIDE",False,False,1.0
4531,MARTIN L KING JR MID SCHOOL-MPR,"1290 Ivey Ranch Rd, Oceanside, CA 92057, USA",33.21512,-117.30966,4532.0,CA,SAN DIEGO COUNTY,"OCEANSIDE, OCEANSIDE",True,False,1.0
4532,EL CORAZON SENIOR CENTER - CLASSROOMS,"3302 Senior Center Dr, Oceanside, CA 92056, USA",33.2061,-117.31486,4533.0,CA,SAN DIEGO COUNTY,"OCEANSIDE, OCEANSIDE, OCEANSIDE",False,False,1.0
4533,EL CORAZON SENIOR CENTER - CLASSROOMS,"3302 Senior Center Dr, Oceanside, CA 92056, USA",33.2061,-117.31486,4534.0,CA,SAN DIEGO COUNTY,"OCEANSIDE, OCEANSIDE, OCEANSIDE",True,False,1.0
4534,DEL RIO ELEMENTARY SCHOOL-MPR,"5200 N River Rd, Oceanside, CA 92057, USA",33.25667,-117.29517,4535.0,CA,SAN DIEGO COUNTY,"OCEANSIDE, OCEANSIDE, OCEANSIDE",False,False,1.0
4535,DEL RIO ELEMENTARY SCHOOL-MPR,"5200 N River Rd, Oceanside, CA 92057, USA",33.25667,-117.29517,4536.0,CA,SAN DIEGO COUNTY,"OCEANSIDE, OCEANSIDE, OCEANSIDE",True,False,1.0
4536,ROOSEVELT MIDDLE SCHOOL-MPR,"850 Sagewood Dr, Oceanside, CA 92057, USA",33.236,-117.28145,4537.0,CA,SAN DIEGO COUNTY,"OCEANSIDE, OCEANSIDE, OCEANSIDE, OCEANSIDE",False,False,1.0
4537,ROOSEVELT MIDDLE SCHOOL-MPR,"850 Sagewood Dr, Oceanside, CA 92057, USA",33.236,-117.28145,4538.0,CA,SAN DIEGO COUNTY,"OCEANSIDE, OCEANSIDE, OCEANSIDE, OCEANSIDE",True,False,1.0
4538,CASITA CENTER-MPR,"260 Cedar Rd, Vista, CA 92083, USA",33.18917,-117.28483,4539.0,CA,SAN DIEGO COUNTY,"OCEANSIDE, VISTA",False,False,1.0
4539,CASITA CENTER-MPR,"260 Cedar Rd, Vista, CA 92083, USA",33.18917,-117.28483,4540.0,CA,SAN DIEGO COUNTY,"OCEANSIDE, VISTA",True,False,1.0
4540,"FINNEY, MYRTLE S ELEM SCHOOL-AUDITORIUM","3950 Byrd St, San Diego, CA 92154, USA",32.58505,-117.04934,4541.0,CA,SAN DIEGO COUNTY,OTAY,False,False,1.0
4541,"FINNEY, MYRTLE S ELEM SCHOOL-AUDITORIUM","3950 Byrd St, San Diego, CA 92154, USA",32.58505,-117.04934,4542.0,CA,SAN DIEGO COUNTY,OTAY,True,False,1.0
4542,SANTA CLARA PT REC CTR-MPR,"1008 Santa Clara Pl, San Diego, CA 92109, USA",32.78351,-117.24903,4543.0,CA,SAN DIEGO COUNTY,PACIFIC BEACH,False,False,1.0
4543,SANTA CLARA PT REC CTR-MPR,"1008 Santa Clara Pl, San Diego, CA 92109, USA",32.78351,-117.24903,4544.0,CA,SAN DIEGO COUNTY,PACIFIC BEACH,True,False,1.0
4544,MISSION BAY HIGH SCHOOL-ACTIVITY RM,"2475 Grand Ave, San Diego, CA 92109, USA",32.80122,-117.2235,4545.0,CA,SAN DIEGO COUNTY,PACIFIC BEACH,False,False,1.0
4545,MISSION BAY HIGH SCHOOL-ACTIVITY RM,"2475 Grand Ave, San Diego, CA 92109, USA",32.80122,-117.2235,4546.0,CA,SAN DIEGO COUNTY,PACIFIC BEACH,True,False,1.0
4546,BELL MIDDLE SCHOOL-ASSEMBLY/DINING,"620 Briarwood Rd, San Diego, CA 92139, USA",32.68814,-117.03863,4547.0,CA,SAN DIEGO COUNTY,"PARADISE HILLS, PARADISE HILLS",False,False,1.0
4547,BELL MIDDLE SCHOOL-ASSEMBLY/DINING,"620 Briarwood Rd, San Diego, CA 92139, USA",32.68814,-117.03863,4548.0,CA,SAN DIEGO COUNTY,"PARADISE HILLS, PARADISE HILLS",True,False,1.0
4548,PARADISE HILLS REC CENTER - GYM,"6610 Potomac St, San Diego, CA 92139, USA",32.68528,-117.05085,4549.0,CA,SAN DIEGO COUNTY,"PARADISE HILLS, PARADISE HILLS",False,False,1.0
4549,PARADISE HILLS REC CENTER - GYM,"6610 Potomac St, San Diego, CA 92139, USA",32.68528,-117.05085,4550.0,CA,SAN DIEGO COUNTY,"PARADISE HILLS, PARADISE HILLS",True,False,1.0
4550,MOUNTAIN EMPIRE HIGH SCHOOL-GYM,"3305 Buckman Springs Rd, Pine Valley, CA 91962, USA",32.73435,-116.49295,4551.0,CA,SAN DIEGO COUNTY,PINE VALLEY,False,False,1.0
4551,MOUNTAIN EMPIRE HIGH SCHOOL-GYM,"3305 Buckman Springs Rd, Pine Valley, CA 91962, USA",32.73435,-116.49295,4552.0,CA,SAN DIEGO COUNTY,PINE VALLEY,True,False,1.0
4552,JERABEK ELEM SCHOOL-AUDITORIUM,"10050 Avenida Magnifica, San Diego, CA 92131, USA",32.9079,-117.084,4553.0,CA,SAN DIEGO COUNTY,POMERADO,False,False,1.0
4553,JERABEK ELEM SCHOOL-AUDITORIUM,"10050 Avenida Magnifica, San Diego, CA 92131, USA",32.9079,-117.084,4554.0,CA,SAN DIEGO COUNTY,POMERADO,True,False,1.0
4554,DINGEMAN ELEM SCH-AUDITORIUM,"11840 Scripps Creek Dr, San Diego, CA 92131, USA",32.93348,-117.09061,4555.0,CA,SAN DIEGO COUNTY,"POMERADO, POMERADO",False,False,1.0
4555,DINGEMAN ELEM SCH-AUDITORIUM,"11840 Scripps Creek Dr, San Diego, CA 92131, USA",32.93348,-117.09061,4556.0,CA,SAN DIEGO COUNTY,"POMERADO, POMERADO",True,False,1.0
4556,ELLEN BROWNING SCRIPPS ELEM-MPR,"11778 Cypress Canyon Rd, San Diego, CA 92131, USA",32.93046,-117.08221,4557.0,CA,SAN DIEGO COUNTY,"POMERADO, POMERADO, POMERADO",False,False,1.0
4557,ELLEN BROWNING SCRIPPS ELEM-MPR,"11778 Cypress Canyon Rd, San Diego, CA 92131, USA",32.93046,-117.08221,4558.0,CA,SAN DIEGO COUNTY,"POMERADO, POMERADO, POMERADO",True,False,1.0
4558,VALLEY ELEMENTARY SCHOOL-MPR,"13000 Bowron Rd #5799, Poway, CA 92064, USA",32.95365,-117.04596,4559.0,CA,SAN DIEGO COUNTY,POWAY,False,False,1.0
4559,VALLEY ELEMENTARY SCHOOL-MPR,"13000 Bowron Rd #5799, Poway, CA 92064, USA",32.95365,-117.04596,4560.0,CA,SAN DIEGO COUNTY,POWAY,True,False,1.0
4560,CREEKSIDE ELEM SCHOOL-MPR,"12362 Springhurst Dr, San Diego, CA 92128, USA",32.94426,-117.07637,4561.0,CA,SAN DIEGO COUNTY,"POWAY, POMERADO",False,False,1.0
4561,CREEKSIDE ELEM SCHOOL-MPR,"12362 Springhurst Dr, San Diego, CA 92128, USA",32.94426,-117.07637,4562.0,CA,SAN DIEGO COUNTY,"POWAY, POMERADO",True,False,1.0
4562,MIDLAND ELEMENTARY SCHOOL-MPR,"13910 Midland Rd, Poway, CA 92064, USA",32.96655,-117.03713,4563.0,CA,SAN DIEGO COUNTY,"POWAY, POWAY",False,False,1.0
4563,MIDLAND ELEMENTARY SCHOOL-MPR,"13910 Midland Rd, Poway, CA 92064, USA",32.96655,-117.03713,4564.0,CA,SAN DIEGO COUNTY,"POWAY, POWAY",True,False,1.0
4564,POWAY HIGH SCHOOL-K1,"15500 Espola Rd, Poway, CA 92064, USA",32.99869,-117.02451,4565.0,CA,SAN DIEGO COUNTY,"POWAY, POWAY",False,False,1.0
4565,POWAY HIGH SCHOOL-K1,"15500 Espola Rd, Poway, CA 92064, USA",32.99869,-117.02451,4566.0,CA,SAN DIEGO COUNTY,"POWAY, POWAY",True,False,1.0
4566,POMERADO ELEM SCH-MPR,"12321 9th St, Poway, CA 92064, USA",32.95775,-117.06359,4567.0,CA,SAN DIEGO COUNTY,"POWAY, POWAY, POWAY, POWAY",False,False,1.0
4567,POMERADO ELEM SCH-MPR,"12321 9th St, Poway, CA 92064, USA",32.95775,-117.06359,4568.0,CA,SAN DIEGO COUNTY,"POWAY, POWAY, POWAY, POWAY",True,False,1.0
4568,RAMONA COMMUNITY CAMPUS-MPR,"1010 Ramona St, Ramona, CA 92065, USA",33.02625,-116.87753,4569.0,CA,SAN DIEGO COUNTY,RAMONA,False,False,1.0
4569,RAMONA COMMUNITY CAMPUS-MPR,"1010 Ramona St, Ramona, CA 92065, USA",33.02625,-116.87753,4570.0,CA,SAN DIEGO COUNTY,RAMONA,True,False,1.0
4570,HANSON ELEMENTARY SCHOOL-MPR,"2520 Boundary Ave, Ramona, CA 92065, USA",33.01824,-116.89019,4571.0,CA,SAN DIEGO COUNTY,RAMONA,False,False,1.0
4571,HANSON ELEMENTARY SCHOOL-MPR,"2520 Boundary Ave, Ramona, CA 92065, USA",33.01824,-116.89019,4572.0,CA,SAN DIEGO COUNTY,RAMONA,True,False,1.0
4572,RAMONA ELEM SCHOOL-MPR,"415 8th St, Ramona, CA 92065, USA",33.04231,-116.8652,4573.0,CA,SAN DIEGO COUNTY,RAMONA,False,False,1.0
4573,RAMONA ELEM SCHOOL-MPR,"415 8th St, Ramona, CA 92065, USA",33.04231,-116.8652,4574.0,CA,SAN DIEGO COUNTY,RAMONA,True,False,1.0
4574,ROLLING HILLS ELEM SCHOOL-MPR,"15255 Penasquitos Dr, San Diego, CA 92129, USA",32.99026,-117.09242,4575.0,CA,SAN DIEGO COUNTY,RANCHO BERNARDO,False,False,1.0
4575,ROLLING HILLS ELEM SCHOOL-MPR,"15255 Penasquitos Dr, San Diego, CA 92129, USA",32.99026,-117.09242,4576.0,CA,SAN DIEGO COUNTY,RANCHO BERNARDO,True,False,1.0
4576,TURTLEBACK ELEMENTARY SCHOOL-MPR,"15855 Turtleback Rd, San Diego, CA 92127, USA",33.00441,-117.08713,4577.0,CA,SAN DIEGO COUNTY,"RANCHO BERNARDO, RANCHO BERNARDO",False,False,1.0
4577,TURTLEBACK ELEMENTARY SCHOOL-MPR,"15855 Turtleback Rd, San Diego, CA 92127, USA",33.00441,-117.08713,4578.0,CA,SAN DIEGO COUNTY,"RANCHO BERNARDO, RANCHO BERNARDO",True,False,1.0
4578,WESTWOOD ELEM SCHOOL-MPR,"17449 Matinal Rd, San Diego, CA 92127, USA",33.03025,-117.08685,4579.0,CA,SAN DIEGO COUNTY,"RANCHO BERNARDO, RANCHO BERNARDO, RANCHO BERNARDO, RANCHO BERNARDO",False,False,1.0
4579,WESTWOOD ELEM SCHOOL-MPR,"17449 Matinal Rd, San Diego, CA 92127, USA",33.03025,-117.08685,4580.0,CA,SAN DIEGO COUNTY,"RANCHO BERNARDO, RANCHO BERNARDO, RANCHO BERNARDO, RANCHO BERNARDO",True,False,1.0
4580,RANCHO BERNARDO REC CENTER - GYM,"18448 W BERNARDO DR POLL, San Diego, CA 92127, USA",33.0483,-117.07688,4581.0,CA,SAN DIEGO COUNTY,"RANCHO BERNARDO, RANCHO BERNARDO, RANCHO BERNARDO, RANCHO BERNARDO",False,False,1.0
4581,RANCHO BERNARDO REC CENTER - GYM,"18448 W BERNARDO DR POLL, San Diego, CA 92127, USA",33.0483,-117.07688,4582.0,CA,SAN DIEGO COUNTY,"RANCHO BERNARDO, RANCHO BERNARDO, RANCHO BERNARDO, RANCHO BERNARDO",True,False,1.0
4582,1ST CHURCH OF CHRIST SCIENTIST-SCHL RM,"6165 La Flecha, Rancho Santa Fe, CA 92067, USA",33.0208,-117.2005,4583.0,CA,SAN DIEGO COUNTY,"RANCHO SANTA FE, RANCHO SANTA FE, RANCHO SANTA FE, LOMAS SANTA FE, RANCHO SANTA FE, LOMAS SANTA FE",False,False,1.0
4583,1ST CHURCH OF CHRIST SCIENTIST-SCHL RM,"6165 La Flecha, Rancho Santa Fe, CA 92067, USA",33.0208,-117.2005,4584.0,CA,SAN DIEGO COUNTY,"RANCHO SANTA FE, RANCHO SANTA FE, RANCHO SANTA FE, LOMAS SANTA FE, RANCHO SANTA FE, LOMAS SANTA FE",True,False,1.0
4584,VALLECITOS ELEM SCHOOL-CLASSROOM,"5211 5th St, Fallbrook, CA 92028, USA",33.41336,-117.14909,4585.0,CA,SAN DIEGO COUNTY,"RHO MONSERATE, RHO MONSERATE, RAINBOW, RAINBOW",False,False,1.0
4585,VALLECITOS ELEM SCHOOL-CLASSROOM,"5211 5th St, Fallbrook, CA 92028, USA",33.41336,-117.14909,4586.0,CA,SAN DIEGO COUNTY,"RHO MONSERATE, RHO MONSERATE, RAINBOW, RAINBOW",True,False,1.0
4586,DEER CANYON ELEM SCHOOL-MPR,"13455 Russet Leaf Ln, San Diego, CA 92129, USA",32.96348,-117.143,4587.0,CA,SAN DIEGO COUNTY,RHO PENASQUITOS,False,False,1.0
4587,DEER CANYON ELEM SCHOOL-MPR,"13455 Russet Leaf Ln, San Diego, CA 92129, USA",32.96348,-117.143,4588.0,CA,SAN DIEGO COUNTY,RHO PENASQUITOS,True,False,1.0
4588,OCEAN AIR RECREATION CENTER - GYM,"4770 Fairport Way, San Diego, CA 92130, USA",32.92798,-117.21699,4589.0,CA,SAN DIEGO COUNTY,RHO PENASQUITOS,False,False,1.0
4589,OCEAN AIR RECREATION CENTER - GYM,"4770 Fairport Way, San Diego, CA 92130, USA",32.92798,-117.21699,4590.0,CA,SAN DIEGO COUNTY,RHO PENASQUITOS,True,False,1.0
4590,SAGE CANYON SCHOOL-MUR,"5290 Harvest Run Dr, San Diego, CA 92130, USA",32.92606,-117.20381,4591.0,CA,SAN DIEGO COUNTY,RHO PENASQUITOS,False,False,1.0
4591,SAGE CANYON SCHOOL-MUR,"5290 Harvest Run Dr, San Diego, CA 92130, USA",32.92606,-117.20381,4592.0,CA,SAN DIEGO COUNTY,RHO PENASQUITOS,True,False,1.0
4592,SUNDANCE ELEM SCHOOL-MPR,"8944 Twin Trails Dr, San Diego, CA 92129, USA",32.9614,-117.13379,4593.0,CA,SAN DIEGO COUNTY,RHO PENASQUITOS,False,False,1.0
4593,SUNDANCE ELEM SCHOOL-MPR,"8944 Twin Trails Dr, San Diego, CA 92129, USA",32.9614,-117.13379,4594.0,CA,SAN DIEGO COUNTY,RHO PENASQUITOS,True,False,1.0
4594,HILLTOP COMMUNITY PARK-MPR,"9711 Oviedo Way, San Diego, CA 92129, USA",32.9714,-117.11901,4595.0,CA,SAN DIEGO COUNTY,RHO PENASQUITOS,False,False,1.0
4595,HILLTOP COMMUNITY PARK-MPR,"9711 Oviedo Way, San Diego, CA 92129, USA",32.9714,-117.11901,4596.0,CA,SAN DIEGO COUNTY,RHO PENASQUITOS,True,False,1.0
4596,CARMEL MOUNTAIN RANCH REC CENTER-GYM,"10152 Rancho Carmel Dr, San Diego, CA 92128, USA",32.96705,-117.09131,4597.0,CA,SAN DIEGO COUNTY,"RHO PENASQUITOS, POMERADO",False,False,1.0
4597,CARMEL MOUNTAIN RANCH REC CENTER-GYM,"10152 Rancho Carmel Dr, San Diego, CA 92128, USA",32.96705,-117.09131,4598.0,CA,SAN DIEGO COUNTY,"RHO PENASQUITOS, POMERADO",True,False,1.0
4598,PACIFIC HIGHLANDS RANCH REC CTR-GYM,"5977 Village Center Loop Rd, San Diego, CA 92130, USA",32.96093,-117.18708,4599.0,CA,SAN DIEGO COUNTY,"RHO PENASQUITOS, RHO PENASQUITOS",False,False,1.0
4599,PACIFIC HIGHLANDS RANCH REC CTR-GYM,"5977 Village Center Loop Rd, San Diego, CA 92130, USA",32.96093,-117.18708,4600.0,CA,SAN DIEGO COUNTY,"RHO PENASQUITOS, RHO PENASQUITOS",True,False,1.0
4600,CANYON VIEW ELEM SCHOOL-MPR,"9225 Adolphia St, San Diego, CA 92129, USA",32.94556,-117.12887,4601.0,CA,SAN DIEGO COUNTY,"RHO PENASQUITOS, RHO PENASQUITOS, RHO PENASQUITOS",False,False,1.0
4601,CANYON VIEW ELEM SCHOOL-MPR,"9225 Adolphia St, San Diego, CA 92129, USA",32.94556,-117.12887,4602.0,CA,SAN DIEGO COUNTY,"RHO PENASQUITOS, RHO PENASQUITOS, RHO PENASQUITOS",True,False,1.0
4602,ORANGE GLEN HIGH SCHOOL-GYM,"2200 Glenridge Rd, Escondido, CA 92027, USA",33.12889,-117.04061,4603.0,CA,SAN DIEGO COUNTY,"RINCON D DIABLO, ESCONDIDO, ESCONDIDO",False,False,1.0
4603,ORANGE GLEN HIGH SCHOOL-GYM,"2200 Glenridge Rd, Escondido, CA 92027, USA",33.12889,-117.04061,4604.0,CA,SAN DIEGO COUNTY,"RINCON D DIABLO, ESCONDIDO, ESCONDIDO",True,False,1.0
4604,OAK HILL ELEM SCHOOL-MPR,"1820 Oak Hill Dr, Escondido, CA 92027, USA",33.13067,-117.04976,4605.0,CA,SAN DIEGO COUNTY,"RINCON D DIABLO, ESCONDIDO, ESCONDIDO, ESCONDIDO, ESCONDIDO, ESCONDIDO",False,False,1.0
4605,OAK HILL ELEM SCHOOL-MPR,"1820 Oak Hill Dr, Escondido, CA 92027, USA",33.13067,-117.04976,4606.0,CA,SAN DIEGO COUNTY,"RINCON D DIABLO, ESCONDIDO, ESCONDIDO, ESCONDIDO, ESCONDIDO, ESCONDIDO",True,False,1.0
4606,CRAWFORD HIGH SCHOOL-GYM,"5600 Spartan Dr, San Diego, CA 92115, USA",32.7531,-117.0747,4607.0,CA,SAN DIEGO COUNTY,"ROLANDO REDWOOD, ROLANDO REDWOOD, ROLANDO REDWOOD",False,False,1.0
4607,CRAWFORD HIGH SCHOOL-GYM,"5600 Spartan Dr, San Diego, CA 92115, USA",32.7531,-117.0747,4608.0,CA,SAN DIEGO COUNTY,"ROLANDO REDWOOD, ROLANDO REDWOOD, ROLANDO REDWOOD",True,False,1.0
4608,ROLANDO PARK ELEM SCHOOL-AUDITORIUM,"6620 Marlowe Dr, San Diego, CA 92115, USA",32.74656,-117.05496,4609.0,CA,SAN DIEGO COUNTY,"ROLANDO REDWOOD, ROLANDO REDWOOD, ROLANDO REDWOOD",False,False,1.0
4609,ROLANDO PARK ELEM SCHOOL-AUDITORIUM,"6620 Marlowe Dr, San Diego, CA 92115, USA",32.74656,-117.05496,4610.0,CA,SAN DIEGO COUNTY,"ROLANDO REDWOOD, ROLANDO REDWOOD, ROLANDO REDWOOD",True,False,1.0
4610,ALLIED GARDENS REC CENTER-GYM,"5155 Greenbrier Ave, San Diego, CA 92120, USA",32.79599,-117.08065,4611.0,CA,SAN DIEGO COUNTY,"SAN CARLOS, NAVAJO, SAN CARLOS",False,False,1.0
4611,ALLIED GARDENS REC CENTER-GYM,"5155 Greenbrier Ave, San Diego, CA 92120, USA",32.79599,-117.08065,4612.0,CA,SAN DIEGO COUNTY,"SAN CARLOS, NAVAJO, SAN CARLOS",True,False,1.0
4612,SAN CARLOS REC CENTER - GYM,"6445 Lake Badin Ave, San Diego, CA 92119, USA",32.79821,-117.02175,4613.0,CA,SAN DIEGO COUNTY,"SAN CARLOS, SAN CARLOS",False,False,1.0
4613,SAN CARLOS REC CENTER - GYM,"6445 Lake Badin Ave, San Diego, CA 92119, USA",32.79821,-117.02175,4614.0,CA,SAN DIEGO COUNTY,"SAN CARLOS, SAN CARLOS",True,False,1.0
4614,PATRICK HENRY HIGH SCHOOL-CAFETERIA,"6702 Wandermere Dr, San Diego, CA 92120, USA",32.79907,-117.05146,4615.0,CA,SAN DIEGO COUNTY,"SAN CARLOS, SAN CARLOS, SAN CARLOS",False,False,1.0
4615,PATRICK HENRY HIGH SCHOOL-CAFETERIA,"6702 Wandermere Dr, San Diego, CA 92120, USA",32.79907,-117.05146,4616.0,CA,SAN DIEGO COUNTY,"SAN CARLOS, SAN CARLOS, SAN CARLOS",True,False,1.0
4616,JULIAN TOWN HALL - DOWNSTAIRS,"2129 Main St, Ramona, CA 92065, USA",33.07831,-116.60244,4617.0,CA,SAN DIEGO COUNTY,SAN FELIPE,False,False,1.0
4617,JULIAN TOWN HALL - DOWNSTAIRS,"2129 Main St, Ramona, CA 92065, USA",33.07831,-116.60244,4618.0,CA,SAN DIEGO COUNTY,SAN FELIPE,True,False,1.0
4618,SAN ELIJO ELEMENTARY SCHOOL-MPR,"1615 Schoolhouse Way, San Marcos, CA 92078, USA",33.10037,-117.19448,4619.0,CA,SAN DIEGO COUNTY,"SAN MARCOS, ELFIN FOREST, SAN MARCOS, SAN MARCOS, ELFIN FOREST, SAN MARCOS",False,False,1.0
4619,SAN ELIJO ELEMENTARY SCHOOL-MPR,"1615 Schoolhouse Way, San Marcos, CA 92078, USA",33.10037,-117.19448,4620.0,CA,SAN DIEGO COUNTY,"SAN MARCOS, ELFIN FOREST, SAN MARCOS, SAN MARCOS, ELFIN FOREST, SAN MARCOS",True,False,1.0
4620,DISCOVERY ELEM SCHOOL-MPR,"730 Applewilde Dr, San Marcos, CA 92078, USA",33.12863,-117.19067,4621.0,CA,SAN DIEGO COUNTY,"SAN MARCOS, LAKE SAN MARCOS, LAKE SAN MARCOS, LAKE SAN MARCOS, LAKE SAN MARCOS",False,False,1.0
4621,DISCOVERY ELEM SCHOOL-MPR,"730 Applewilde Dr, San Marcos, CA 92078, USA",33.12863,-117.19067,4622.0,CA,SAN DIEGO COUNTY,"SAN MARCOS, LAKE SAN MARCOS, LAKE SAN MARCOS, LAKE SAN MARCOS, LAKE SAN MARCOS",True,False,1.0
4622,SAN MARCOS SENIOR CENTER-HORIZON 1 AND 2,"111 Richmar Ave, San Marcos, CA 92069, USA",33.14346,-117.16356,4623.0,CA,SAN DIEGO COUNTY,"SAN MARCOS, SAN MARCOS",False,False,1.0
4623,SAN MARCOS SENIOR CENTER-HORIZON 1 AND 2,"111 Richmar Ave, San Marcos, CA 92069, USA",33.14346,-117.16356,4624.0,CA,SAN DIEGO COUNTY,"SAN MARCOS, SAN MARCOS",True,False,1.0
4624,SAN MARCOS COMMUNITY CENTER-MAIN HALL,"3 Civic Center Dr, San Marcos, CA 92069, USA",33.14085,-117.15979,4625.0,CA,SAN DIEGO COUNTY,"SAN MARCOS, SAN MARCOS, SAN MARCOS, SAN MARCOS, SAN MARCOS",False,False,1.0
4625,SAN MARCOS COMMUNITY CENTER-MAIN HALL,"3 Civic Center Dr, San Marcos, CA 92069, USA",33.14085,-117.15979,4626.0,CA,SAN DIEGO COUNTY,"SAN MARCOS, SAN MARCOS, SAN MARCOS, SAN MARCOS, SAN MARCOS",True,False,1.0
4626,LA MIRADA ACADEMY-GYM,"3697 La Mirada Dr, San Marcos, CA 92078, USA",33.14305,-117.20313,4627.0,CA,SAN DIEGO COUNTY,"SAN MARCOS, SAN MARCOS, SAN MARCOS, SAN MARCOS, SAN MARCOS",False,False,1.0
4627,LA MIRADA ACADEMY-GYM,"3697 La Mirada Dr, San Marcos, CA 92078, USA",33.14305,-117.20313,4628.0,CA,SAN DIEGO COUNTY,"SAN MARCOS, SAN MARCOS, SAN MARCOS, SAN MARCOS, SAN MARCOS",True,False,1.0
4628,WALNUT GROVE PARK RED BARN,"1950 Sycamore Dr, San Marcos, CA 92069, USA",33.18173,-117.15293,4629.0,CA,SAN DIEGO COUNTY,"SAN MARCOS, TWIN OAKS",False,False,1.0
4629,WALNUT GROVE PARK RED BARN,"1950 Sycamore Dr, San Marcos, CA 92069, USA",33.18173,-117.15293,4630.0,CA,SAN DIEGO COUNTY,"SAN MARCOS, TWIN OAKS",True,False,1.0
4630,COLONEL IRVING SALOMON COMM CTR - GYM,"179 Diza Rd, San Ysidro, CA 92173, USA",32.56508,-117.04585,4631.0,CA,SAN DIEGO COUNTY,"SAN YSIDRO, SAN YSIDRO",False,False,1.0
4631,COLONEL IRVING SALOMON COMM CTR - GYM,"179 Diza Rd, San Ysidro, CA 92173, USA",32.56508,-117.04585,4632.0,CA,SAN DIEGO COUNTY,"SAN YSIDRO, SAN YSIDRO",True,False,1.0
4632,SAN YSIDRO HIGH SCHOOL-GYM,"5353 Airway Rd, San Diego, CA 92154, USA",32.56416,-117.01835,4633.0,CA,SAN DIEGO COUNTY,"SAN YSIDRO, SAN YSIDRO",False,False,1.0
4633,SAN YSIDRO HIGH SCHOOL-GYM,"5353 Airway Rd, San Diego, CA 92154, USA",32.56416,-117.01835,4634.0,CA,SAN DIEGO COUNTY,"SAN YSIDRO, SAN YSIDRO",True,False,1.0
4634,PRIDE ACADEMY AT PROSPECT AVE-MEDIA CTR,"9303 Prospect Ave, Santee, CA 92071, USA",32.83349,-116.99587,4635.0,CA,SAN DIEGO COUNTY,SANTEE,False,False,1.0
4635,PRIDE ACADEMY AT PROSPECT AVE-MEDIA CTR,"9303 Prospect Ave, Santee, CA 92071, USA",32.83349,-116.99587,4636.0,CA,SAN DIEGO COUNTY,SANTEE,True,False,1.0
4636,CAJON PARK SCHOOL-MPR,"10300 N Magnolia Ave, Santee, CA 92071, USA",32.86543,-116.97236,4637.0,CA,SAN DIEGO COUNTY,"SANTEE, SANTEE",False,False,1.0
4637,CAJON PARK SCHOOL-MPR,"10300 N Magnolia Ave, Santee, CA 92071, USA",32.86543,-116.97236,4638.0,CA,SAN DIEGO COUNTY,"SANTEE, SANTEE",True,False,1.0
4638,SANTEE CITY HALL - BUILDING 8P,"10601 N Magnolia Ave, Santee, CA 92071, USA",32.87069,-116.96993,4639.0,CA,SAN DIEGO COUNTY,"SANTEE, SANTEE",False,False,1.0
4639,SANTEE CITY HALL - BUILDING 8P,"10601 N Magnolia Ave, Santee, CA 92071, USA",32.87069,-116.96993,4640.0,CA,SAN DIEGO COUNTY,"SANTEE, SANTEE",True,False,1.0
4640,CARLTON HILLS SCHOOL-MPR,"9353 Pike Rd, Santee, CA 92071, USA",32.84819,-116.9955,4641.0,CA,SAN DIEGO COUNTY,"SANTEE, SANTEE",False,False,1.0
4641,CARLTON HILLS SCHOOL-MPR,"9353 Pike Rd, Santee, CA 92071, USA",32.84819,-116.9955,4642.0,CA,SAN DIEGO COUNTY,"SANTEE, SANTEE",True,False,1.0
4642,JONES ELEMENTARY SCHOOL-MPR,"2751 Greyling Dr, San Diego, CA 92123, USA",32.79555,-117.14081,4643.0,CA,SAN DIEGO COUNTY,SERRA MESA,False,False,1.0
4643,JONES ELEMENTARY SCHOOL-MPR,"2751 Greyling Dr, San Diego, CA 92123, USA",32.79555,-117.14081,4644.0,CA,SAN DIEGO COUNTY,SERRA MESA,True,False,1.0
4644,SERRA MESA REC CENTER-GYM,"9020 Village Glen Dr, San Diego, CA 92123, USA",32.80548,-117.13305,4645.0,CA,SAN DIEGO COUNTY,SERRA MESA,False,False,1.0
4645,SERRA MESA REC CENTER-GYM,"9020 Village Glen Dr, San Diego, CA 92123, USA",32.80548,-117.13305,4646.0,CA,SAN DIEGO COUNTY,SERRA MESA,True,False,1.0
4646,SKYLINE ELEMENTARY SCHOOL-THEATER,"606 Lomas Santa Fe Dr, Solana Beach, CA 92075, USA",32.99667,-117.26185,4647.0,CA,SAN DIEGO COUNTY,"SOLANA BEACH, SOLANA BEACH, SOLANA BEACH, SOLANA BEACH, SOLANA BEACH, SOLANA BEACH, SOLANA BEACH, SOLANA BEACH",False,False,1.0
4647,SKYLINE ELEMENTARY SCHOOL-THEATER,"606 Lomas Santa Fe Dr, Solana Beach, CA 92075, USA",32.99667,-117.26185,4648.0,CA,SAN DIEGO COUNTY,"SOLANA BEACH, SOLANA BEACH, SOLANA BEACH, SOLANA BEACH, SOLANA BEACH, SOLANA BEACH, SOLANA BEACH, SOLANA BEACH",True,False,1.0
4648,LUTHER BURBANK SCHOOL-AUDITORIUM,"2146 Julian Ave, San Diego, CA 92113, USA",32.70037,-117.13819,4649.0,CA,SAN DIEGO COUNTY,SOUTH PARK,False,False,1.0
4649,LUTHER BURBANK SCHOOL-AUDITORIUM,"2146 Julian Ave, San Diego, CA 92113, USA",32.70037,-117.13819,4650.0,CA,SAN DIEGO COUNTY,SOUTH PARK,True,False,1.0
4650,GOLDEN HILL RECREATION CTR-GYM,"Balboa Park Clubhouse, 2600 Golf Course Dr, San Diego, CA 92102, USA",32.72499,-117.13764,4651.0,CA,SAN DIEGO COUNTY,"SOUTH PARK, SOUTH PARK",False,False,1.0
4651,GOLDEN HILL RECREATION CTR-GYM,"Balboa Park Clubhouse, 2600 Golf Course Dr, San Diego, CA 92102, USA",32.72499,-117.13764,4652.0,CA,SAN DIEGO COUNTY,"SOUTH PARK, SOUTH PARK",True,False,1.0
4652,CUYAMACA COLLEGE-STUDENT CTR BLDG I,"900 Rancho San Diego Pkwy, El Cajon, CA 92019, USA",32.74465,-116.94044,4653.0,CA,SAN DIEGO COUNTY,"SPRING VALLEY, HELIX, HELIX, JAMACHA, VALLE DE ORO",False,False,1.0
4653,CUYAMACA COLLEGE-STUDENT CTR BLDG I,"900 Rancho San Diego Pkwy, El Cajon, CA 92019, USA",32.74465,-116.94044,4654.0,CA,SAN DIEGO COUNTY,"SPRING VALLEY, HELIX, HELIX, JAMACHA, VALLE DE ORO",True,False,1.0
4654,VALLEY VISTA ELEM SCHOOL-AUDITORIUM,"3724 Valley Vista Way, Bonita, CA 91902, USA",32.6597,-117.04847,4655.0,CA,SAN DIEGO COUNTY,"SPRING VALLEY, NATIONAL CITY, CHULA VISTA",False,False,1.0
4655,VALLEY VISTA ELEM SCHOOL-AUDITORIUM,"3724 Valley Vista Way, Bonita, CA 91902, USA",32.6597,-117.04847,4656.0,CA,SAN DIEGO COUNTY,"SPRING VALLEY, NATIONAL CITY, CHULA VISTA",True,False,1.0
4656,HIGHLANDS ELEM SCHOOL-MPR,"3131 S Barcelona St, Spring Valley, CA 91977, USA",32.73767,-116.98078,4657.0,CA,SAN DIEGO COUNTY,"SPRING VALLEY, SPRING VALLEY",False,False,1.0
4657,HIGHLANDS ELEM SCHOOL-MPR,"3131 S Barcelona St, Spring Valley, CA 91977, USA",32.73767,-116.98078,4658.0,CA,SAN DIEGO COUNTY,"SPRING VALLEY, SPRING VALLEY",True,False,1.0
4658,BANCROFT COMMUNITY SCHOOL-MPR,"8805 Tyler St, Spring Valley, CA 91977, USA",32.72962,-117.00759,4659.0,CA,SAN DIEGO COUNTY,"SPRING VALLEY, SPRING VALLEY",False,False,1.0
4659,BANCROFT COMMUNITY SCHOOL-MPR,"8805 Tyler St, Spring Valley, CA 91977, USA",32.72962,-117.00759,4660.0,CA,SAN DIEGO COUNTY,"SPRING VALLEY, SPRING VALLEY",True,False,1.0
4660,MT MIGUEL HIGH SCHOOL-MULTICULTURAL CTR,"8585 Blossom Ln, Spring Valley, CA 91977, USA",32.72262,-117.01675,4661.0,CA,SAN DIEGO COUNTY,"SPRING VALLEY, SPRING VALLEY, SPRING VALLEY",False,False,1.0
4661,MT MIGUEL HIGH SCHOOL-MULTICULTURAL CTR,"8585 Blossom Ln, Spring Valley, CA 91977, USA",32.72262,-117.01675,4662.0,CA,SAN DIEGO COUNTY,"SPRING VALLEY, SPRING VALLEY, SPRING VALLEY",True,False,1.0
4662,SPRING VALLEY COMMUNITY CTR-KETELL HALL,"8735 Jamacha Blvd, Spring Valley, CA 91977, USA",32.70658,-117.00773,4663.0,CA,SAN DIEGO COUNTY,"SPRING VALLEY, SPRING VALLEY, SPRING VALLEY, SPRING VALLEY",False,False,1.0
4663,SPRING VALLEY COMMUNITY CTR-KETELL HALL,"8735 Jamacha Blvd, Spring Valley, CA 91977, USA",32.70658,-117.00773,4664.0,CA,SAN DIEGO COUNTY,"SPRING VALLEY, SPRING VALLEY, SPRING VALLEY, SPRING VALLEY",True,False,1.0
4664,TIERRASANTA REC CENTER - GYM,"11220 Clairemont Mesa Blvd, San Diego, CA 92124, USA",32.83057,-117.0886,4665.0,CA,SAN DIEGO COUNTY,TIERRASANTA,False,False,1.0
4665,TIERRASANTA REC CENTER - GYM,"11220 Clairemont Mesa Blvd, San Diego, CA 92124, USA",32.83057,-117.0886,4666.0,CA,SAN DIEGO COUNTY,TIERRASANTA,True,False,1.0
4666,SERRA HIGH SCHOOL-BLDG 200 HALLWAY,"5156 Santo Rd, San Diego, CA 92124, USA",32.82576,-117.10494,4667.0,CA,SAN DIEGO COUNTY,"TIERRASANTA, TIERRASANTA, MIRAMAR",False,False,1.0
4667,SERRA HIGH SCHOOL-BLDG 200 HALLWAY,"5156 Santo Rd, San Diego, CA 92124, USA",32.82576,-117.10494,4668.0,CA,SAN DIEGO COUNTY,"TIERRASANTA, TIERRASANTA, MIRAMAR",True,False,1.0
4668,DOYLE RECREATION CENTER-GYM,"8175 Regents Rd, San Diego, CA 92122, USA",32.86452,-117.2209,4669.0,CA,SAN DIEGO COUNTY,UNIVERSITY N,False,False,1.0
4669,DOYLE RECREATION CENTER-GYM,"8175 Regents Rd, San Diego, CA 92122, USA",32.86452,-117.2209,4670.0,CA,SAN DIEGO COUNTY,UNIVERSITY N,True,False,1.0
4670,TORREY PINES ELEM SCHOOL-AUDITORIUM,"8350 Cliffridge Ave, La Jolla, CA 92037, USA",32.85882,-117.24398,4671.0,CA,SAN DIEGO COUNTY,UNIVERSITY N,False,False,1.0
4671,TORREY PINES ELEM SCHOOL-AUDITORIUM,"8350 Cliffridge Ave, La Jolla, CA 92037, USA",32.85882,-117.24398,4672.0,CA,SAN DIEGO COUNTY,UNIVERSITY N,True,False,1.0
4672,NOBEL RECREATION CENTER - GYM,"8810 Judicial Dr, San Diego, CA 92122, USA",32.86695,-117.1994,4673.0,CA,SAN DIEGO COUNTY,UNIVERSITY N,False,False,1.0
4673,NOBEL RECREATION CENTER - GYM,"8810 Judicial Dr, San Diego, CA 92122, USA",32.86695,-117.1994,4674.0,CA,SAN DIEGO COUNTY,UNIVERSITY N,True,False,1.0
4674,SANDBURG ELEMENTARY SCHOOL-MPR,"11230 Avenida Del Gato, San Diego, CA 92126, USA",32.92596,-117.1492,4675.0,CA,SAN DIEGO COUNTY,"UNIVERSITY N, MIRA MESA",False,False,1.0
4675,SANDBURG ELEMENTARY SCHOOL-MPR,"11230 Avenida Del Gato, San Diego, CA 92126, USA",32.92596,-117.1492,4676.0,CA,SAN DIEGO COUNTY,"UNIVERSITY N, MIRA MESA",True,False,1.0
4676,UCSD-RIMAC 1ST FLOOR TRITON CONF RM,"9730 Hopkins Dr, La Jolla, CA 92093, USA",32.88528,-117.23918,4677.0,CA,SAN DIEGO COUNTY,"UNIVERSITY N, UNIVERSITY N, UNIVERSITY N",False,False,1.0
4677,UCSD-RIMAC 1ST FLOOR TRITON CONF RM,"9730 Hopkins Dr, La Jolla, CA 92093, USA",32.88528,-117.23918,4678.0,CA,SAN DIEGO COUNTY,"UNIVERSITY N, UNIVERSITY N, UNIVERSITY N",True,False,1.0
4678,STANDLEY PARK AND REC CTR - GYM,"Standley Recreation Center, 3585 Governor Dr, San Diego, CA 92122, USA",32.85117,-117.21028,4679.0,CA,SAN DIEGO COUNTY,UNIVERSITY S,False,False,1.0
4679,STANDLEY PARK AND REC CTR - GYM,"Standley Recreation Center, 3585 Governor Dr, San Diego, CA 92122, USA",32.85117,-117.21028,4680.0,CA,SAN DIEGO COUNTY,UNIVERSITY S,True,False,1.0
4680,FOOTHILLS ADULT ED CTR-AUDITORIUM,"1550 Melody Ln, El Cajon, CA 92019, USA",32.79746,-116.92424,4681.0,CA,SAN DIEGO COUNTY,"VALLE DE ORO, EL CAJON, EL CAJON, EL CAJON, EL CAJON",False,False,1.0
4681,FOOTHILLS ADULT ED CTR-AUDITORIUM,"1550 Melody Ln, El Cajon, CA 92019, USA",32.79746,-116.92424,4682.0,CA,SAN DIEGO COUNTY,"VALLE DE ORO, EL CAJON, EL CAJON, EL CAJON, EL CAJON",True,False,1.0
4682,JAMUL INTERMEDIATE SCHOOL-LIBRARY,"14545 Lyons Valley Rd, Jamul, CA 91935, USA",32.729,-116.85616,4683.0,CA,SAN DIEGO COUNTY,"VALLE DE ORO, JAMUL, JAMACHA, JAMUL",False,False,1.0
4683,JAMUL INTERMEDIATE SCHOOL-LIBRARY,"14545 Lyons Valley Rd, Jamul, CA 91935, USA",32.729,-116.85616,4684.0,CA,SAN DIEGO COUNTY,"VALLE DE ORO, JAMUL, JAMACHA, JAMUL",True,False,1.0
4684,RANCHO SAN DIEGO ELEM SCHOOL-MPR,"12151 Calle Albara, El Cajon, CA 92019, USA",32.75359,-116.93336,4685.0,CA,SAN DIEGO COUNTY,"VALLE DE ORO, VALLE DE ORO, VALLE DE ORO, VALLE DE ORO",False,False,1.0
4685,RANCHO SAN DIEGO ELEM SCHOOL-MPR,"12151 Calle Albara, El Cajon, CA 92019, USA",32.75359,-116.93336,4686.0,CA,SAN DIEGO COUNTY,"VALLE DE ORO, VALLE DE ORO, VALLE DE ORO, VALLE DE ORO",True,False,1.0
4686,VALLEY CENTER HIGH SCHOOL-GYM,"31322 Cole Grade Rd, Valley Center, CA 92082, USA",33.27999,-117.02401,4687.0,CA,SAN DIEGO COUNTY,"VALLEY CENTER, VALLEY CENTER, VALLEY CENTER",False,False,1.0
4687,VALLEY CENTER HIGH SCHOOL-GYM,"31322 Cole Grade Rd, Valley Center, CA 92082, USA",33.27999,-117.02401,4688.0,CA,SAN DIEGO COUNTY,"VALLEY CENTER, VALLEY CENTER, VALLEY CENTER",True,False,1.0
4688,VISTA HIGH SCHOOL-GYM,"1 Panther Way, Vista, CA 92084, USA",33.2237,-117.24113,4689.0,CA,SAN DIEGO COUNTY,"VALLEY CENTER, VISTA ACRES, VISTA, VISTA, VISTA",False,False,1.0
4689,VISTA HIGH SCHOOL-GYM,"1 Panther Way, Vista, CA 92084, USA",33.2237,-117.24113,4690.0,CA,SAN DIEGO COUNTY,"VALLEY CENTER, VISTA ACRES, VISTA, VISTA, VISTA",True,False,1.0
4690,HANNALEI ELEMENTARY SCHOOL-MPR,"120 Hannalei Dr, Vista, CA 92083, USA",33.17844,-117.21743,4691.0,CA,SAN DIEGO COUNTY,"VISTA, BUENA, FOOTHILL, BUENA, FOOTHILL, FOOTHILL, BUENA",True,False,1.0
4691,GLORIA MC CLELLAN SENIOR CTR-AZALEA ROOM,"1400 Vale Terrace Dr, Vista, CA 92084, USA",33.20674,-117.2186,4692.0,CA,SAN DIEGO COUNTY,"VISTA, VISTA, VISTA",False,False,1.0
4692,GLORIA MC CLELLAN SENIOR CTR-AZALEA ROOM,"1400 Vale Terrace Dr, Vista, CA 92084, USA",33.20674,-117.2186,4693.0,CA,SAN DIEGO COUNTY,"VISTA, VISTA, VISTA",True,False,1.0
4693,MARYLAND ELEMENTARY SCHOOL-AUDITORIUM,"700 North Ave, Vista, CA 92083, USA",33.21482,-117.26063,4694.0,CA,SAN DIEGO COUNTY,"VISTA, VISTA, VISTA",False,False,1.0
4694,MARYLAND ELEMENTARY SCHOOL-AUDITORIUM,"700 North Ave, Vista, CA 92083, USA",33.21482,-117.26063,4695.0,CA,SAN DIEGO COUNTY,"VISTA, VISTA, VISTA",True,False,1.0
4695,VISTA INNOVATION CENTER-MPR,"836 Olive Ave, Vista, CA 92083, USA",33.20425,-117.25992,4696.0,CA,SAN DIEGO COUNTY,"VISTA, VISTA, VISTA",False,False,1.0
4696,VISTA INNOVATION CENTER-MPR,"836 Olive Ave, Vista, CA 92083, USA",33.20425,-117.25992,4697.0,CA,SAN DIEGO COUNTY,"VISTA, VISTA, VISTA",True,False,1.0
4697,BREEZE HILL ELEM SCHOOL-MPR,"1111 Melrose Way, Vista, CA 92081, USA",33.18517,-117.25467,4698.0,CA,SAN DIEGO COUNTY,"VISTA, VISTA, VISTA, VISTA",False,False,1.0
4698,BREEZE HILL ELEM SCHOOL-MPR,"1111 Melrose Way, Vista, CA 92081, USA",33.18517,-117.25467,4699.0,CA,SAN DIEGO COUNTY,"VISTA, VISTA, VISTA, VISTA",True,False,1.0
4699,RANCHO BUENA VISTA HIGH SCHOOL-GYM,"1601 Longhorn Dr, Vista, CA 92081, USA",33.16324,-117.24735,4700.0,CA,SAN DIEGO COUNTY,"VISTA, VISTA, VISTA, VISTA, VISTA",False,False,1.0
4700,RANCHO BUENA VISTA HIGH SCHOOL-GYM,"1601 Longhorn Dr, Vista, CA 92081, USA",33.16324,-117.24735,4701.0,CA,SAN DIEGO COUNTY,"VISTA, VISTA, VISTA, VISTA, VISTA",True,False,1.0
50884,SYCUAN TRIBAL HALL - BUILDING 3,"3, Kwaaypaay Rd, El Cajon, CA 92019, USA",32.78881,-116.8275,50886.0,CA,SAN DIEGO COUNTY,"HARBISON CANYON, ALPINE, DEHESA, JAPATUL, DEHESA",False,False,1.0
50885,SYCUAN TRIBAL HALL - BUILDING 3,"3, Kwaaypaay Rd, El Cajon, CA 92019, USA",32.78881,-116.8275,50887.0,CA,SAN DIEGO COUNTY,"HARBISON CANYON, ALPINE, DEHESA, JAPATUL, DEHESA",True,False,1.0
50886,RINCON TRIBAL HALL,"33750 Valley Center Rd, Valley Center, CA 92082, USA",33.27487,-116.96008,50888.0,CA,SAN DIEGO COUNTY,"PALA, RAINBOW, PAUMA VALLEY, RHO MONSERATE, VALLEY CENTER",False,False,1.0
50887,RINCON TRIBAL HALL,"33750 Valley Center Rd, Valley Center, CA 92082, USA",33.27487,-116.96008,50889.0,CA,SAN DIEGO COUNTY,"PALA, RAINBOW, PAUMA VALLEY, RHO MONSERATE, VALLEY CENTER",True,False,1.0
51286,HOOVER HIGH SCHOOL-AUDITORIUM STAGE,"4474 El Cajon Blvd, San Diego, CA 92115, USA",32.75759,-117.0978,5.0,CA,SAN DIEGO COUNTY,"NORMAL HEIGHTS, NORMAL HEIGHTS, NORTH PARK, NORMAL HEIGHTS",False,False,1.0
51287,HOOVER HIGH SCHOOL-AUDITORIUM STAGE,"4474 El Cajon Blvd, San Diego, CA 92115, USA",32.75759,-117.0978,6.0,CA,SAN DIEGO COUNTY,"NORMAL HEIGHTS, NORMAL HEIGHTS, NORTH PARK, NORMAL HEIGHTS",True,False,1.0
