Unnamed: 0,name,address,lat,lon,Unnamed: 0.1,State,Locality,Precincts (Or Locality-wide),Is Early Voting,Is Drop Off,manual
0,MIRA COSTA COMM COLL - BOARD RM,1 BARNARD DR CLG  OCEANSIDE 92056,33.19007,-117.30218,,,,,,,
1,TWIN OAKS ELEM SCHOOL-CAFETERIA,1 CASSOU RD  SAN MARCOS 92069,33.17868,-117.15695,,,,,,,
2,RINCON TRIBAL GOVERNMENT CTR - SUN ROOM,1 GOVERNMENT CENTER LN  VALLEY CENTER 92082,33.252,-116.9618,,,,,,,
3,LA COSTA CANYON HIGH SCHOOL-ADMN CONF RM,1 MAVERICK WAY SCHL  CARLSBAD 92009,33.07337,-117.23024,,,,,,,
4,ONE MIRAMAR STREET-THE LOUNGE,1 MIRAMAR ST  LA JOLLA 92092,32.8735,-117.22641,,,,,,,
5,DEL MAR VILLAS-RECREATION ROOM,1 PORTOFINO CIR DEL MAR 92014,32.93535,-117.24343,,,,,,,
6,GARAGE-ROBERTS RESIDENCE,10002 WOODPARK DR  SANTEE 92071,32.85881,-116.97397,,,,,,,
7,STEAM ACADEMY-AUDITORIUM,1001 LELAND ST SCHL  SPRING VALLEY 91977,32.71168,-117.00515,,,,,,,
8,CROSSING CHURCH,1001 W COUNTRY CLUB LN  ESCONDIDO 92026,33.15578,-117.10708,,,,,,,
9,GARAGE-MULLER RESIDENCE,10036 STANLEY CT  SANTEE 92071,32.85579,-116.97814,,,,,,,
10,GOMPERS CHARTER MID SCHOOL-AUDIT FOYER,1005 47TH ST  SAN DIEGO 92102,32.71673,-117.09228,,,,,,,
11,ANZA ELEMENTARY SCHOOL-MPR,1005 S ANZA ST  EL CAJON 92020,32.78173,-116.94734,,,,,,,
12,HATFIELD PARK CLUBHOUSE,10050 AUSTIN DR BUS.  SPRING VALLEY 91977,32.73128,-116.97828,,,,,,,
13,JERABEK ELEM SCHOOL-TEACHER'S LOUNGE,10050 AVENIDA MAGNIFICA  SAN DIEGO 92131,32.9079,-117.084,,,,,,,
14,GARAGE-SPEARS-MARTIN RESIDENCE,1007 SANTA GABRIELLA  SOLANA BEACH 92075,33.00649,-117.25103,,,,,,,
15,GARAGE-HOFFMAN RESIDENCE,10078 KNIGHT DR  SAN DIEGO 92126,32.90049,-117.15789,,,,,,,
16,GARAGE-LAMANTIA RESIDENCE,10104 PINERY GROVE  LAKESIDE 92040,32.85797,-116.95226,,,,,,,
17,SAN MIGUEL FIRE AND RESCUE #21,10105 VIVERA DR  LA MESA 91941,32.76981,-116.98002,,,,,,,
18,GARAGE-SMITH RESIDENCE,1011 IRIS CT  CARLSBAD 92011,33.09911,-117.29732,,,,,,,
19,SYCAMORE CANYON SCHOOL-MPR,10201 SETTLE RD  SANTEE 92071,32.86273,-117.00511,,,,,,,
20,GARAGE-DIEHL RESIDENCE,10210 PRINCE JED CT  SANTEE 92071,32.87286,-116.97473,,,,,,,
21,GARAGE-ELAZEGUI RESIDENCE,10222 DRUMCLIFF AVE  SAN DIEGO 92126,32.90356,-117.14224,,,,,,,
22,ATONEMENT LUTHERAN CHURCH,10245 LOMA RANCHO DR  SPRING VALLEY 91978,32.73982,-116.97149,,,,,,,
23,NARANCA ELEM SCHOOL-MPR,1030 NARANCA AVE  EL CAJON 92021,32.80477,-116.94661,,,,,,,
24,CAJON PARK SCHOOL-MPR,10300 N MAGNOLIA AVE SCHL  SANTEE 92071,32.86543,-116.97236,,,,,,,
25,SCRIPPS MIRAMAR RCH LIBRARY-COMMUNITY RM,10301 SCRIPPS LAKE DR  SAN DIEGO 92131,32.91124,-117.10532,,,,,,,
26,GARAGE-TAYLOR RESIDENCE,1031 SUNSET CROSSING PT  SAN DIEGO 92154,32.58037,-117.01856,,,,,,,
27,NEW HOPE CHURCH-LOBBY,10330 CARMEL MOUNTAIN RD  SAN DIEGO 92129,32.96369,-117.10414,,,,,,,
28,CHULA VISTA ADULT SCHOOL-101,1034 4TH AVE  CHULA VISTA 91911,32.61422,-117.07555,,,,,,,
29,WILLIE HENDERSON SPORT CMPLX-MEETING RM,1035 S 45TH ST  SAN DIEGO 92113,32.69575,-117.09805,,,,,,,
30,GARAGE-DIBAGGIO RESIDENCE,1037 BREAKAWAY DR  OCEANSIDE 92057,33.27299,-117.2906,,,,,,,
31,ALAMO WEST STORAGE,1037 OLIVE ST  RAMONA 92065,33.04776,-116.87388,,,,,,,
32,INNOVATIONS ACADEMY-MPR,10380 SPRING CANYON RD  SAN DIEGO 92131,32.93537,-117.09522,,,,,,,
33,SCRIPPS RANCH HIGH SCHOOL-THEATRE,10410 TREENA ST SCHL  SAN DIEGO 92131,32.9087,-117.11198,,,,,,,
34,GARAGE-GRAUEL RESIDENCE,10412 LEN WAY  SANTEE 92071,32.86658,-116.96889,,,,,,,
35,GARAGE-ZABROWSKI RESIDENCE,10422 TOMEL CT  SANTEE 92071,32.86045,-116.97011,,,,,,,
36,4S RANCH BRANCH LIBRARY-CONFERENCE ROOM,10433 RESERVE DR  SAN DIEGO 92127,33.02112,-117.11439,,,,,,,
37,SAN DIEGO MIRAMAR COLLEGE-I101 AANDB FOYER,10440 BLACK MOUNTAIN RD SCHL  SAN DIEGO 92126,32.90983,-117.12141,,,,,,,
38,TERRACE GARDENS APTS - REC ROOM,1045 MORNING VIEW DR  ESCONDIDO 92026,33.13323,-117.09518,,,,,,,
39,GLENWOOD SPRINGS CLUBHOUSE,10470 CROSSCREEK TER  SAN DIEGO 92131,32.91027,-117.09566,,,,,,,
40,PALOMAR FAMILY YMCA,1050 N BROADWAY  ESCONDIDO 92026,33.13523,-117.08575,,,,,,,
41,SEACOAST COMMUNITY CHURCH,1050 REGAL RD  ENCINITAS 92024,33.03917,-117.28189,,,,,,,
42,CITY OF VISTA FIRE STATION #2,1050 VALLEY DR  VISTA 92084,33.19109,-117.21375,,,,,,,
43,MIRA MESA HIGH SCHOOL-STAFF LOUNGE,10510 MARAUDER WAY  SAN DIEGO 92126,32.9109,-117.14037,,,,,,,
44,MESA VILLAGE HOA-RECREATION RM 1,10550 CAMINITO FLORES  SAN DIEGO 92126,32.91031,-117.13422,,,,,,,
45,MUIRLANDS MIDDLE SCHOOL-AUDITORIUM,1056 NAUTILUS ST SCHL  LA JOLLA 92037,32.83214,-117.26859,,,,,,,
46,VILLA PORTOFINO CLUBHOUSE,10690 ESCOBAR DR  SAN DIEGO 92124,32.82478,-117.10046,,,,,,,
47,SWEETWATER LODGE MHP-REC RM,10707 JAMACHA BLVD  SPRING VALLEY 91978,32.72723,-116.9639,,,,,,,
48,PACIFIC BEACH CHRISTIAN CHURCH,1074 LORING ST  SAN DIEGO 92109,32.8065,-117.25314,,,,,,,
49,MIRAMAR RANCH ELEM SCHOOL-FOYER,10770 RED CEDAR DR  SAN DIEGO 92131,32.90946,-117.09825,,,,,,,
50,SUMMIT POINT CHURCH - C BUILDING,10770 RICKERT RD  SAN DIEGO 92126,32.91625,-117.12735,,,,,,,
51,GARAGE-CONLON RESIDENCE,10796 CHARBONO TER  SAN DIEGO 92131,32.91933,-117.07016,,,,,,,
52,GARAGE-BLAIS RESIDENCE,1080 W THORN ST  SAN DIEGO 92103,32.73984,-117.17277,,,,,,,
53,THE CITY CHURCH - ROOM 103,10802 WILLOW CT  SAN DIEGO 92127,33.0158,-117.10198,,,,,,,
54,THE CITY CHURCH - ROOM 102,10802 WILLOW CT  SAN DIEGO 92127,33.0158,-117.10198,,,,,,,
55,GARAGE-LUDENA RESIDENCE,10803 HEATHER RIDGE DR  SAN DIEGO 92130,32.93008,-117.20847,,,,,,,
56,GARAGE-WAKHAM RESIDENCE,10804 VISTA DEL SUR  SPRING VALLEY 91978,32.73843,-116.9608,,,,,,,
57,CHALLENGER MID SCHOOL-AUDITORIUM,10810 PARKDALE AVE SCHL  SAN DIEGO 92126,32.91328,-117.15702,,,,,,,
58,TORREY HILLS SCHOOL-LIBRARY,10830 CALLE MAR DE MARIPOSA  SAN DIEGO 92130,32.91444,-117.22328,,,,,,,
59,HICKMAN ELEM SCHOOL-MUSIC ROOM,10850 MONTONGO ST  SAN DIEGO 92126,32.91493,-117.1529,,,,,,,
60,GLORIA DEI LUTHERAN CHURCH,1087 W COUNTRY CLUB LN  ESCONDIDO 92026,33.15646,-117.10887,,,,,,,
61,LAS VILLAS DE CARLSBAD,1088 LAGUNA DR  CARLSBAD 92008,33.1659,-117.34457,,,,,,,
62,LEGACY CHURCH TIERRASANTA-SANCTUARY,10881 TIERRASANTA BLVD  SAN DIEGO 92124,32.82022,-117.09747,,,,,,,
63,FRIENDS CHRISTIAN CHURCH,10925 HARTLEY RD K  SANTEE 92071,32.84468,-116.9633,,,,,,,
64,GARAGE-WHITE RESIDENCE,10926 NEW SALEM CT  SAN DIEGO 92126,32.91695,-117.1532,,,,,,,
65,WOODLAND PARK BIBLE CHURCH,1093 ROCK SPRINGS RD  SAN MARCOS 92069,33.14707,-117.13435,,,,,,,
66,GARAGE-RAMSEY RESIDENCE,10944 BROKEN WHEEL RD  LAKESIDE 92040,32.87806,-116.9481,,,,,,,
67,GARAGE-FOX RESIDENCE,10975 PASITA DE KRISTY  LAKESIDE 92040,32.86049,-116.95997,,,,,,,
68,DISCOVERY CHARTER SCHOOL-LIBRARY,1100 CAMINO BISCAY SCHL  CHULA VISTA 91910,32.64187,-117.01587,,,,,,,
69,GROSSMONT HIGH SCH-100 BLDG BREAK RM,1100 MURRAY DR SCHL  EL CAJON 92020,32.78068,-116.98731,,,,,,,
70,GARAGE-CHERNOW RESIDENCE,1102 CONURE CT  OCEANSIDE 92057,33.28321,-117.28538,,,,,,,
71,RODEWAY INN,1103 N COAST HWY  OCEANSIDE 92054,33.20408,-117.38575,,,,,,,
72,GARAGE-MILLS RESIDENCE,11046 IVY HILL DR  SAN DIEGO 92131,32.93726,-117.09088,,,,,,,
73,SAN ELIJO REC CTR-TERRACE RM,1105 ELFIN FOREST RD  SAN MARCOS 92078,33.09997,-117.20166,,,,,,,
74,THE LODGE AT LAKE SAN MARCOS-GALLERY RM,1105 LA BONITA DR  SAN MARCOS 92078,33.1229,-117.20922,,,,,,,
75,THE LODGE AT LAKE SAN MARCOS-CLUB ROOM,1105 LA BONITA DR  SAN MARCOS 92078,33.1229,-117.20922,,,,,,,
76,GENERATION CHURCH,1106 WHALEY ST  OCEANSIDE 92054,33.18084,-117.35913,,,,,,,
77,GARAGE-ROBINSON RESIDENCE,11090 CORTE PLAYA MERIDA  SAN DIEGO 92124,32.83896,-117.09088,,,,,,,
78,SAN MARCOS SENIOR ACTIVITY CENTER,111 RICHMAR AVE  SAN MARCOS 92069,33.14346,-117.16356,,,,,,,
79,LA JOLLA ELEM SCHOOL-AUDITORIUM,1111 MARINE ST SCHL  LA JOLLA 92037,32.83924,-117.2717,,,,,,,
80,FUNDAMENTAL BAPTIST CHURCH,1111 N ASH ST  ESCONDIDO 92027,33.14091,-117.07486,,,,,,,
81,GARAGE-FORNAL RESIDENCE,1112 CANYON GROVE DR  ESCONDIDO 92027,33.16409,-117.07488,,,,,,,
82,GARAGE-TIETGE RESIDENCE,1113 CASA BONITA WAY  VISTA 92081,33.18987,-117.26166,,,,,,,
83,ERICSON ELEM SCHOOL-MUSIC RM,11174 WESTONHILL DR SCHL  SAN DIEGO 92126,32.92693,-117.13607,,,,,,,
84,REMAX HOMETOWN REALTORS,112 ORANGE AVE  CORONADO 92118,32.69861,-117.17284,,,,,,,
85,EASTLAKE HIGH SCHOOL-ROOM 1604,1120 EASTLAKE PKWY SCHL  CHULA VISTA 91915,32.64032,-116.96763,,,,,,,
86,LIFEWAY CHURCH,1120 HIGHLAND DR  VISTA 92083,33.2118,-117.25709,,,,,,,
87,SANDBURG ELEMENTARY SCHOOL-PROF ROOM,11230 AVENIDA DEL GATO SCHL  SAN DIEGO 92126,32.92596,-117.1492,,,,,,,
88,TIERRASANTA LUTHERAN CHR LIBRARY,11240 CLAIREMONT MESA BLVD CHR  SAN DIEGO 92124,32.83022,-117.08626,,,,,,,
89,GARAGE-JUDD RESIDENCE,1128 OSAGE DR  SPRING VALLEY 91977,32.71741,-117.02286,,,,,,,
90,GARAGE-MONTALVO RESIDENCE,1129 RANSOM ST  SAN DIEGO 92154,32.57625,-117.04252,,,,,,,
91,GARAGE-ATWOOD RESIDENCE,11295 GRASSY TRAIL DR  SAN DIEGO 92127,33.00158,-117.08711,,,,,,,
92,CREST COMMUNITY CLUBHOUSE,113 NORTH PARK DR  EL CAJON 92021,32.81008,-116.86414,,,,,,,
93,SWEETWATER UN HIGH DIST OFFICE-BOARD RM,1130 5TH AVE  CHULA VISTA 91911,32.60998,-117.07706,,,,,,,
94,JOSEPH CASILLAS ELEM SCHOOL-AUDITORIUM,1130 E J ST SCHL  CHULA VISTA 91910,32.62938,-117.01104,,,,,,,
95,NATIONAL CITY EXPRESS LAUNDRY,1131 HIGHLAND AVE  NATIONAL CITY 91950,32.67545,-117.09647,,,,,,,
96,GARAGE-WENDROFF RESIDENCE,11335 LEGACY TER  SAN DIEGO 92131,32.92386,-117.0587,,,,,,,
97,GARAGE-HAINES RESIDENCE,1134 CLOVERLEAF DR  EL CAJON 92019,32.78112,-116.92402,,,,,,,
98,GARAGE-GLANTON RESIDENCE,11382 VOLANS ST  SAN DIEGO 92126,32.93239,-117.1367,,,,,,,
99,GARAGE-MC WETHY RESIDENCE,11382 WINDING RIDGE DR  SAN DIEGO 92131,32.92549,-117.10536,,,,,,,
100,CAMINO BERNARDO CLUBHOUSE,11395 AVENIDA DE LOS LOBOS PUBL  SAN DIEGO 92127,33.00448,-117.09386,,,,,,,
101,SCRIPPS RANCH ESTATES CROWN PT-CLUBHOUSE,11441 CAMINITO MAGNIFICA  SAN DIEGO 92131,32.90079,-117.08341,,,,,,,
102,OCEAN AIR ELEM SCHOOL-MUR,11444 CANTER HEIGHTS DR  SAN DIEGO 92130,32.92797,-117.21488,,,,,,,
103,ST MARKS CATHOLIC CHR-HEALY HALL,1147 DISCOVERY ST  SAN MARCOS 92078,33.12804,-117.19301,,,,,,,
104,GARAGE-ATTIG RESIDENCE,11470 LUZ RD  SAN DIEGO 92127,33.03239,-117.0841,,,,,,,
105,TRINITY BAPTIST CHURCH,1150 MERRITT DR  EL CAJON 92020,32.78373,-116.94417,,,,,,,
106,GARAGE-ABRAHAM RESIDENCE,11504 JOHNSON LAKE RD  LAKESIDE 92040,32.89292,-116.94649,,,,,,,
107,GARAGE-LUTTGEN RESIDENCE,11530 MESA MADERA CT  SAN DIEGO 92131,32.90641,-117.0872,,,,,,,
108,GARAGE-MURPHY RESIDENCE,11535 VIA SANTA BRISA  SAN DIEGO 92131,32.92768,-117.02171,,,,,,,
109,RANCHO SAN DIEGO LIBRARY,11555 VIA RANCHO SAN DIEGO  EL CAJON 92019,32.74941,-116.92902,,,,,,,
110,GARAGE-CARROLL RESIDENCE,11583 LA COLINA RD  SAN DIEGO 92131,32.90598,-117.08361,,,,,,,
111,LA VIDA REAL,11588 VIA RANCHO SAN DIEGO  EL CAJON 92019,32.74819,-116.93015,,,,,,,
112,GARAGE-SMITH RESIDENCE,11603 VIA FIRUL  SAN DIEGO 92128,32.99435,-117.07658,,,,,,,
113,FUERTE ELEM SCHOOL-AUDITORIUM STAGE,11625 FUERTE DR  EL CAJON 92020,32.76164,-116.94661,,,,,,,
114,NORTH CITY PRESBYTERIAN CHURCH,11717 POWAY RD  POWAY 92064,32.94766,-117.07647,,,,,,,
115,GARAGE-ANKLESARIA RESIDENCE,1172 CUCHARA DR  DEL MAR 92014,32.95698,-117.2615,,,,,,,
116,ELLEN BROWNING SCRIPPS ELEM-STAFF LOUNGE,11778 CYPRESS CANYON RD  SAN DIEGO 92131,32.93046,-117.08221,,,,,,,
117,LAKESIDE MIDDLE SCHOOL-LIBRARY,11833 WOODSIDE AVE  LAKESIDE 92040,32.85386,-116.93778,,,,,,,
118,DINGEMAN ELEM SCH-AUDITORIUM,11840 SCRIPPS CREEK DR SCHL  SAN DIEGO 92131,32.93348,-117.09061,,,,,,,
119,GARAGE-BRESLIN RESIDENCE,1190 COVE VIEW WAY  SAN DIEGO 92154,32.57587,-117.02601,,,,,,,
120,WILLOWBROOK GOLF COURSE - EVENTS ROOM,11905 RIVERSIDE DR  LAKESIDE 92040,32.86267,-116.93665,,,,,,,
121,MOUNTAIN VIEW COMMUNITY CHURCH-FOYER,1191 MEADOWLARK WAY  RAMONA 92065,33.06126,-116.87254,,,,,,,
122,FIRST UNITED METHODIST CHR-CHAPEL,1200 E H ST  CHULA VISTA 91910,32.63832,-117.01023,,,,,,,
123,GOLDEN HILL SUBACUTE AND REHABILITATION,1201 34TH ST  SAN DIEGO 92102,32.71816,-117.12036,,,,,,,
124,SAN DIEGO POST ACUTE,1201 S ORANGE AVE  EL CAJON 92020,32.77911,-116.96326,,,,,,,
125,"MC MILLIN, CORKY SCHOOL-AUDITORIUM",1201 SANTA CORA AVE  CHULA VISTA 91913,32.63371,-116.98403,,,,,,,
126,GARAGE-LARSON RESIDENCE,12038 OAKVIEW WAY  SAN DIEGO 92128,32.93752,-117.069,,,,,,,
127,BOY SCOUTS OF AMERICA,1207 UPAS ST  SAN DIEGO 92103,32.74017,-117.1535,,,,,,,
128,HILLSBOROUGH RECREATION CENTER,1208 MANZANA WAY  SAN DIEGO 92139,32.69268,-117.0275,,,,,,,
129,GARAGE-DE SAEGHER RESIDENCE,12089 LITTLE SILVER CT  SAN DIEGO 92131,32.92909,-117.0707,,,,,,,
130,GARAGE-DAMBACH RESIDENCE,1210 GRANDVIEW RD  VISTA 92084,33.21669,-117.21088,,,,,,,
131,GARAGE-KUNOLD RESIDENCE,12107 CALLADO RD  SAN DIEGO 92128,33.01301,-117.06973,,,,,,,
132,GARAGE-MINERS SCHMIDT RESIDENCE,12115 SALIX WAY  SAN DIEGO 92129,32.93879,-117.15407,,,,,,,
133,GARAGE-GOODJOHN RESIDENCE,1215 WHITE SANDS DR  SAN MARCOS 92078,33.12691,-117.22664,,,,,,,
134,RISE CITY CHURCH - LOBBY,12150 WOODSIDE AVE  LAKESIDE 92040,32.85773,-116.93023,,,,,,,
135,RANCHO SAN DIEGO ELEM SCHOOL-MPR,12151 CALLE ALBARA SCHL  EL CAJON 92019,32.75359,-116.93336,,,,,,,
136,CASITAS DEL SOL REC HALL,1219 E BARHAM DR MHP  SAN MARCOS 92078,33.13384,-117.13151,,,,,,,
137,SEA BREEZE COMMUNITY CHURCH-SANCTUARY,1220 ELM AVE  IMPERIAL BEACH 91932,32.58098,-117.10782,,,,,,,
138,OLYMPIC VIEW SCHOOL-AUDITORIUM,1220 S GREENSVIEW DR SCHL  CHULA VISTA 91915,32.63774,-116.96493,,,,,,,
139,KIMBALL SENIOR CENTER-MEETING ROOM,1221 D AVE  NATIONAL CITY 91950,32.67305,-117.10078,,,,,,,
140,EMERALD MIDDLE SCHOOL-ROOM 605,1221 EMERALD AVE SCHL  EL CAJON 92020,32.7787,-116.968,,,,,,,
141,LAKESIDE FIRE ADMINISTRATION-BOARD RM,12216 LAKESIDE AVE  LAKESIDE 92040,32.86663,-116.92812,,,,,,,
142,GARAGE-MILLER RESIDENCE,1222 SUNGLOW DR  OCEANSIDE 92056,33.23044,-117.26474,,,,,,,
143,THE THURSDAY CLUB,1224 SANTA BARBARA ST  SAN DIEGO 92107,32.72874,-117.2491,,,,,,,
144,SUMMERFIELD VILLAS APTS-CLUB ROOM,1225 E GRAND AVE  ESCONDIDO 92027,33.12708,-117.06449,,,,,,,
145,CASA ANTIGUA APARTMENTS,1225 PALOMAR PL  VISTA 92084,33.22283,-117.22375,,,,,,,
146,GARAGE-LA COSTA RESIDENCE,12255 SPRUCE GROVE PL  SAN DIEGO 92131,32.91328,-117.07026,,,,,,,
147,HOMETOWN REALTY,1231 ELFIN FOREST RD W 111  SAN MARCOS 92078,33.09759,-117.19973,,,,,,,
148,GIRL SCOUTS HQ-LDRSHP BLDG-CLARK RM,1231 UPAS ST  SAN DIEGO 92103,32.74073,-117.152,,,,,,,
149,GARAGE-KIESEL RESIDENCE,1231 VIA ANGELICA  VISTA 92081,33.18725,-117.26897,,,,,,,
150,CENTRO UNIVERSIDAD POPULAR,1234 N SANTA FE AVE  VISTA 92083,33.21609,-117.24556,,,,,,,
151,POWAY VFW POST #7907,12342 OLD POMERADO RD  POWAY 92064,32.94215,-117.06642,,,,,,,
152,CARMEL DEL MAR ELEM SCHOOL-MUR,12345 CARMEL PARK DR SCHL  SAN DIEGO 92130,32.94068,-117.22898,,,,,,,
153,CANYON SIDE REC CENTER-GAME ROOM,12350 BLACK MOUNTAIN RD  SAN DIEGO 92129,32.94218,-117.1303,,,,,,,
154,FALLBROOK BRANCH LIBRARY,124 S MISSION RD  FALLBROOK 92028,33.38142,-117.25324,,,,,,,
155,GOLDEN HILL SCHOOL-AUDITORIUM,1240 33RD ST  SAN DIEGO 92102,32.71814,-117.12358,,,,,,,
156,GARAGE-MUNSON RESIDENCE,12411 FLORESTA WAY  SAN DIEGO 92128,33.03334,-117.06318,,,,,,,
157,GARAGE-WILLIAMS RESIDENCE,1244 ROCKY POINT WAY  ESCONDIDO 92026,33.16618,-117.08081,,,,,,,
158,GARAGE-NIES RESIDENCE,12442 KEEMO TER  LAKESIDE 92040,32.83837,-116.91852,,,,,,,
159,MOST PRECIOUS BLOOD CHR-SANTO NINO HALL,1245 4TH AVE  CHULA VISTA 91911,32.60775,-117.07081,,,,,,,
160,ABRAXAS HIGH SCHOOL-BLDG 3 LIBRARY,12450 GLENOAK RD SCHL  POWAY 92064,32.97449,-117.06102,,,,,,,
161,SAN YSIDRO SENIOR CITIZEN CENTER,125 E PARK AVE  SAN YSIDRO 92173,32.55295,-117.04433,,,,,,,
162,N C APOSTOLIC ASSEMBLY CHR - SOCIAL HALL,125 PALM AVE  NATIONAL CITY 91950,32.68567,-117.09223,,,,,,,
163,GEORGINA COLE LIBRARY-COMMUNITY RM,1250 CARLSBAD VILLAGE DR  CARLSBAD 92008,33.16495,-117.34051,,,,,,,
164,OTAY RANCH HIGH SCHL-LIBRARY,1250 OLYMPIC PKWY  CHULA VISTA 91913,32.62037,-116.99039,,,,,,,
165,FLYING HILLS SCHOOL-REHEARSAL ROOM,1251 FINCH ST  EL CAJON 92020,32.81244,-116.9812,,,,,,,
166,GARAGE-THORP RESIDENCE,1253 SIMEON PL  ESCONDIDO 92029,33.08947,-117.09196,,,,,,,
167,CYPRESS COURT SENIOR LIVING-ACTIVITY RM,1255 N BROADWAY  ESCONDIDO 92026,33.13916,-117.0898,,,,,,,
168,GARAGE-DOLTER RESIDENCE,1257 COLTON CT  CHULA VISTA 91913,32.62704,-117.00265,,,,,,,
169,OAKS NORTH COMMUNITY CENTER-AUD,12578 OAKS NORTH DR  SAN DIEGO 92128,33.03322,-117.05812,,,,,,,
170,THE SPRINGS OF ESCONDIDO-LIVING RM,1261 E WASHINGTON AVE  ESCONDIDO 92027,33.1338,-117.06594,,,,,,,
171,POMERADO CHRISTIAN CHR-FELLOWSHIP HALL,12708 STONE CANYON RD  POWAY 92064,33.00494,-117.05573,,,,,,,
172,GARAGE-ADAMS RESIDENCE,12712 RIFE WAY  SAN DIEGO 92129,32.95784,-117.13969,,,,,,,
173,GARAGE-SPITZLEY RESIDENCE,12728 BOXWOOD CT  POWAY 92064,32.98594,-117.0564,,,,,,,
174,CARLSBAD FIRE STATION #1,1275 CARLSBAD VILLAGE DR  CARLSBAD 92008,33.16431,-117.33987,,,,,,,
175,RAMONA BRANCH LIBRARY-COMMUNITY ROOM,1275 MAIN ST  RAMONA 92065,33.03997,-116.87314,,,,,,,
176,GATEWAY RETIREMENT CENTER,12751 GATEWAY PARK RD  POWAY 92064,32.99984,-117.05541,,,,,,,
177,GARAGE-YOUNIS RESIDENCE,12767 JORDAN RIDGE CT  SAN DIEGO 92130,32.94986,-117.20895,,,,,,,
178,GARAGE-BARNARD RESIDENCE,12777 VIA ESPERIA  DEL MAR 92014,32.93337,-117.25082,,,,,,,
179,GARAGE-DOZOIS RESIDENCE,12787 CIJON ST  SAN DIEGO 92129,32.94976,-117.11017,,,,,,,
180,VANTAGE POINTE APARTMENTS - FOYER,1281 9TH AVE  SAN DIEGO 92101,32.71834,-117.15605,,,,,,,
181,MORNING STAR LUTHERAN CHURCH,12821 HA HANA RD  LAKESIDE 92040,32.84086,-116.91236,,,,,,,
182,GARAGE-DAY RESIDENCE,12865 ORANGEBURG AVE  SAN DIEGO 92129,32.95229,-117.11926,,,,,,,
183,GARAGE-MERCADO RESIDENCE,1292 BATTLE CREEK RD  CHULA VISTA 91913,32.63412,-116.98214,,,,,,,
184,GARAGE-DANTESS RESIDENCE,12977 SEABREEZE FARMS DR  SAN DIEGO 92130,32.95411,-117.20029,,,,,,,
185,ATRIA RANCHO PENASQUITOS,12979 RANCHO PENASQUITOS BLVD  SAN DIEGO 92129,32.95308,-117.10786,,,,,,,
186,CANVAS CHURCH-CAFE,1300 S JUNIPER ST  ESCONDIDO 92025,33.11252,-117.07012,,,,,,,
187,RANCHO BERNARDO HS-PERF ARTS CTR,13010 PASEO LUCIDO SCHL  SAN DIEGO 92128,32.9964,-117.06479,,,,,,,
188,HELIX GARDENS COURT APTS-REC RM,1302 HELIX ST  SPRING VALLEY 91977,32.71725,-117.0098,,,,,,,
189,ASHLEY FALLS SCHOOL-LIBRARY,13030 ASHLEY FALLS DR  SAN DIEGO 92130,32.95717,-117.20955,,,,,,,
190,GARAGE-CEMALOVIC RESIDENCE,1305 ENCHANTE WAY  OCEANSIDE 92056,33.22163,-117.29257,,,,,,,
191,GARAGE-SWERDLOW RESIDENCE,1307 SAVANNAH LN  CARLSBAD 92011,33.09419,-117.29363,,,,,,,
192,BELMONT VILLAGE-BISTRO RM,13075 EVENING CREEK DR S  SAN DIEGO 92128,32.95547,-117.09774,,,,,,,
193,DEL MAR BRANCH LIBRARY-COMMUNITY RM,1309 CAMINO DEL MAR  DEL MAR 92014,32.95787,-117.26426,,,,,,,
194,BROOKDALE-ACTIVITY ROOM,13101 HARTFIELD AVE  SAN DIEGO 92130,32.95692,-117.22917,,,,,,,
195,COUNTY OF SAN DIEGO ROAD STATION-BARN,13115 WILLOW RD  LAKESIDE 92040,32.87463,-116.90935,,,,,,,
196,GARAGE-CONDIT RESIDENCE,1312 CRAIGMONT ST  EL CAJON 92019,32.78302,-116.9355,,,,,,,
197,POWAY BRANCH LIBRARY,13137 POWAY RD  POWAY 92064,32.95599,-117.0458,,,,,,,
198,MAPLEVIEW BAPTIST CHURCH,13176 MAPLEVIEW ST  LAKESIDE 92040,32.86506,-116.90967,,,,,,,
199,GARAGE-SHELLY-SHIELDS RESIDENCE,1318 RANCHO ENCINITAS DR  ENCINITAS 92024,33.0609,-117.21991,,,,,,,
200,FALLBROOK HISTORICAL SOCIETY-RECHE SCHL,1319 S LIVE OAK PARK RD  FALLBROOK 92028,33.36892,-117.20879,,,,,,,
201,LOS COCHES MBL HOME EST REC ROOM,13217 AURORA DR  EL CAJON 92021,32.82982,-116.90612,,,,,,,
202,ELKS LODGE #2543,13219 POWAY RD  POWAY 92064,32.95603,-117.04424,,,,,,,
203,MESA VIEW BAPTIST CHURCH - SANCTUARY,13230 POMERADO RD  POWAY 92064,32.95547,-117.06311,,,,,,,
204,LAS VILLAS DEL NORTE - POOL ROOM,1325 LAS VILLAS WAY  ESCONDIDO 92026,33.13892,-117.09467,,,,,,,
205,POWAY ROYAL MOBILE ESTATES,13300 ALPINE DR  POWAY 92064,32.95136,-117.04484,,,,,,,
206,LOS ALTOS ELEM SCHOOL-YMCA,1332 KENALAN DR  SAN DIEGO 92154,32.57243,-117.04976,,,,,,,
207,RANCHO PENASQUITOS LIBRARY-MEETING ROOM,13330 SALMON RIVER RD POLL  SAN DIEGO 92129,32.95799,-117.1221,,,,,,,
208,GARAGE-MARTIN RESIDENCE,1335 LAW ST  SAN DIEGO 92109,32.80414,-117.24715,,,,,,,
209,GARAGE-DE PAOLA RESIDENCE,1345 CAMINO LINDA DR  SAN MARCOS 92078,33.12169,-117.21748,,,,,,,
210,FIRST SAMOAN CONGRESSIONAL CHRISTIAN CHR,1345 S 45TH ST  SAN DIEGO 92113,32.69213,-117.09711,,,,,,,
211,HALEY RANCH ESTATES,13455 POWAY CREEK RD  POWAY 92064,32.95337,-117.03911,,,,,,,
212,NORTH COAST CALVARY CHAPEL-ROOM C-104,1350 POINSETTIA LN  CARLSBAD 92011,33.11095,-117.29473,,,,,,,
213,WESTVIEW HIGH SCHOOL-DANCE ROOM,13500 CAMINO DEL SUR  SAN DIEGO 92129,32.96804,-117.14876,,,,,,,
214,GARAGE-MERLO RESIDENCE,1351 AVENIDA PANTERA  SAN MARCOS 92069,33.16489,-117.18141,,,,,,,
215,CHRIST CHURCH OF SAN DIEGO,1355 FERN ST  SAN DIEGO 92102,32.72004,-117.12909,,,,,,,
216,JOHNSON ELEM SCHOOL-AUDITORIUM,1355 KELTON RD  SAN DIEGO 92114,32.71953,-117.07463,,,,,,,
217,VETERANS MEMORIAL ASSOCIATION-NORTH HALL,136 CHAMBERS ST  EL CAJON 92020,32.79595,-116.96689,,,,,,,
218,CORNERSTONE CHURCH OF POWAY,13617 MIDLAND RD  POWAY 92064,32.9612,-117.03569,,,,,,,
219,GARAGE-HOPP RESIDENCE,13618 GROSSE POINTE  SAN DIEGO 92128,32.966,-117.07897,,,,,,,
220,POINSETTIA SENIOR MHP - CLUBHOUSE,13648 EDGEMOOR ST  POWAY 92064,32.9678,-117.03432,,,,,,,
221,GARAGE-VERMA RESIDENCE,13656 CLOVER HILL WAY  SAN DIEGO 92130,32.96983,-117.1878,,,,,,,
222,GARAGE-VELOVICH RESIDENCE,1366 STEARNS WHARF RD  CHULA VISTA 91913,32.61105,-116.99101,,,,,,,
223,OUR REDEEMER LUTHERAN CHR HALL,1370 EUCLID AVE  SAN DIEGO 92105,32.71931,-117.08575,,,,,,,
224,ST PETERS BY THE SEA LUTHERAN CHR,1371 SUNSET CLIFFS BLVD  SAN DIEGO 92107,32.73577,-117.25487,,,,,,,
225,ST GABRIEL CATHOLIC CHR-MSGR DOLLEN HALL,13734 TWIN PEAKS RD  POWAY 92064,32.98065,-117.0344,,,,,,,
226,EAST VILLAGE COMMUNITY CHURCH,1374 ISLAND AVE  SAN DIEGO 92101,32.71063,-117.15226,,,,,,,
227,W D HALL ELEM SCHOOL-AUDITORIUM,1376 PEPPER DR  EL CAJON 92021,32.82159,-116.93042,,,,,,,
228,GARAGE-BAKER RESIDENCE,13790 BRAESWOOD TER  EL CAJON 92021,32.83116,-116.89156,,,,,,,
229,GARAGE-STARNES RESIDENCE,13815 OLIVE GROVE PL  POWAY 92064,32.96481,-117.04091,,,,,,,
230,GARAGE-KAUSHAGEN RESIDENCE,13852 WAYLAND GROVE CT  POWAY 92064,32.96519,-117.03812,,,,,,,
231,MAAC COMMUNITY CENTER,1387 3RD AVE  CHULA VISTA 91911,32.60376,-117.06494,,,,,,,
232,HARVEST EVANGELICAL CHURCH OF SD-RM 102,13885 EL CAMINO REAL  SAN DIEGO 92130,32.97151,-117.23886,,,,,,,
233,GARAGE-ROBERTSON RESIDENCE,1389 CONEJO CT  EL CAJON 92021,32.81354,-116.90994,,,,,,,
234,BOSTONIA ELEM SCHOOL-MPR,1390 BROADWAY  EL CAJON 92021,32.80803,-116.93166,,,,,,,
235,SAN DIEGO CENTRAL 7TH DAY ADVENTIST CHR,13940 POMERADO RD  POWAY 92064,32.96753,-117.06309,,,,,,,
236,CASTLE PARK HIGH SCHOOL-STUDENT UNION,1395 HILLTOP DR  CHULA VISTA 91911,32.60628,-117.05029,,,,,,,
237,LAS FLORES CHURCH OF THE NAZARENE,1400 LAS FLORES DR  CARLSBAD 92008,33.17094,-117.34069,,,,,,,
238,DEL DIOS MIDDLE SCHOOL-MPR,1400 W 9TH AVE SCHL  ESCONDIDO 92029,33.11081,-117.10124,,,,,,,
239,LAKESIDE FIRE DIST STN #3 - TRAINING RM,14008 HY 8 BUSINESS  EL CAJON 92021,32.84419,-116.88443,,,,,,,
240,MADRID MANOR - CLUBHOUSE,1401 EL NORTE PKWY  SAN MARCOS 92069,33.15358,-117.12721,,,,,,,
241,NATIONAL CITY PUBLIC LIBRARY,1401 NATIONAL CITY BLVD  NATIONAL CITY 91950,32.6706,-117.10414,,,,,,,
242,JAMUL FIRE STATION #36,14024 PEACEFUL VALLEY RANCH RD  JAMUL 91935,32.70517,-116.86868,,,,,,,
243,PACIFIC BEACH RECREATION CENTER-CRAFT RM,1405 DIAMOND ST  SAN DIEGO 92109,32.80151,-117.24488,,,,,,,
244,ZION LUTHERAN CHR - FELLOWSHIP CTR FOYER,1405 E FALLBROOK ST  FALLBROOK 92028,33.37632,-117.22952,,,,,,,
245,JAMUL COMMUNITY CHR-ADULT ED ROOM,14058 JAMUL DR  JAMUL 91935,32.72801,-116.86936,,,,,,,
246,GARAGE-GARCIA RESIDENCE,1408 YORK AVE  ESCONDIDO 92027,33.14054,-117.06785,,,,,,,
247,DEL MAR HILLS ACADEMY-ROOM P-1,14085 MANGO DR SCHL  DEL MAR 92014,32.95387,-117.2463,,,,,,,
248,FIRST LUTHERAN CHR - COMMUNITY RM,1410 FOOTHILL DR  VISTA 92084,33.21647,-117.21885,,,,,,,
249,LAUREL ELEMENTARY SCHOOL-MPR,1410 LAUREL ST  OCEANSIDE 92058,33.20738,-117.37317,,,,,,,
250,RHINOS BOXING-FOYER,1411 S SANTA FE AVE  VISTA 92083,33.18408,-117.22274,,,,,,,
251,GARAGE-DEAS RESIDENCE,1412 CASCADE PL  CHULA VISTA 91913,32.61884,-117.01037,,,,,,,
252,GARAGE-BECKHAM RESIDENCE,14153 RECUERDO DR  DEL MAR 92014,32.95474,-117.25188,,,,,,,
253,ST PAULS PLAZA - COMMUNITY ROOM,1420 E PALOMAR ST  CHULA VISTA 91913,32.62335,-116.99467,,,,,,,
254,RIOS ELEM SCHOOL-MPR,14314 RIOS CANYON RD  EL CAJON 92021,32.84064,-116.87323,,,,,,,
255,GARAGE-DOWDS RESIDENCE,14323 BARRYMORE ST  SAN DIEGO 92129,32.97686,-117.13468,,,,,,,
256,PENASQUITOS LUTHERAN CHURCH-LIBRARY RM,14484 PENASQUITOS DR  SAN DIEGO 92129,32.97834,-117.09285,,,,,,,
257,STONEBROOKE CHURCH-MAIN AUDITORIUM,145 HANNALEI DR  VISTA 92083,33.17999,-117.21841,,,,,,,
258,GRACE PRESBYTERIAN CHURCH,1450 E VISTA WAY  VISTA 92084,33.22088,-117.22725,,,,,,,
259,LOMA VERDE ELEM - MPR,1450 LOMA LN  CHULA VISTA 91911,32.60113,-117.04916,,,,,,,
260,ST THOMAS MORE CATHOLIC CHURCH-HALL,1450 S MELROSE DR CHR  OCEANSIDE 92056,33.17111,-117.25083,,,,,,,
261,GARAGE-ESTRADA RESIDENCE,1451 NETTLE CREEK WAY  CHULA VISTA 91915,32.63728,-116.9358,,,,,,,
262,JAMUL INTERMEDIATE SCHOOL-LIBRARY,14545 LYONS VALLEY RD  JAMUL 91935,32.729,-116.85616,,,,,,,
263,GARAGE-HOUSER RESIDENCE,14574 HIGH PINE ST  POWAY 92064,32.94969,-117.01534,,,,,,,
264,GARAGE-SNODGRASS RESIDENCE,14608 KALAPANA ST  POWAY 92064,32.97823,-117.02171,,,,,,,
265,GARAGE-ARNETT RESIDENCE,1463 SAVOY CIR  SAN DIEGO 92107,32.7321,-117.24531,,,,,,,
266,UNITED METHODIST CHURCH HALL,1465 E MADISON AVE  EL CAJON 92019,32.79989,-116.92835,,,,,,,
267,WILLOW GROVE ELEM SCHOOL-MPR,14727 VIA AZUL  SAN DIEGO 92127,32.99263,-117.16133,,,,,,,
268,CASA ALDEA SENIOR LIVING-SALON RM,14740 VIA FIESTA  SAN DIEGO 92127,32.99217,-117.16327,,,,,,,
269,ALL SOULS EPISCOPAL CHURCH-GOODEN HALL,1475 CATALINA BLVD  SAN DIEGO 92107,32.73116,-117.24244,,,,,,,
270,SAN DIEGO CITY COLLEGE - P BLDG FLEX RM,1480 PARK BLVD  SAN DIEGO 92101,32.7213,-117.15359,,,,,,,
271,HIGHLAND RANCH ELEM SCHOOL-MPR,14840 WAVERLY DOWNS WAY SCHL  SAN DIEGO 92128,32.9839,-117.07169,,,,,,,
272,JAMUL COMMUNITY CHR OFFICE-STUDENT CTR,14866 LYONS VALLEY RD  JAMUL 91935,32.73088,-116.83968,,,,,,,
273,GREENFIELD MID SCHOOL-GYM,1495 GREENFIELD DR SCHL  EL CAJON 92021,32.81034,-116.92821,,,,,,,
274,GARAGE-BARRON-RAMIREZ RESIDENCE,1499 LIBERTY CREEK PL  CHULA VISTA 91913,32.61618,-117.0069,,,,,,,
275,EL CAJON WESLEYAN CHR-FOYER,1500 E LEXINGTON AVE  EL CAJON 92019,32.79305,-116.92623,,,,,,,
276,WESTMINSTER PRESBYTERIAN CHURCH,1500 S JUNIPER ST  ESCONDIDO 92025,33.11002,-117.06916,,,,,,,
277,GARAGE-NOVOA RESIDENCE,1505 WHITESTONE RD  SPRING VALLEY 91977,32.71803,-116.97738,,,,,,,
278,ADA W HARRIS ELEM SCHOOL-MUSIC ROOM,1508 WINDSOR RD SCHL  CARDIFF BY THE SEA 92007,33.03139,-117.274,,,,,,,
279,VALLE LINDO ELEM SCHOOL-LIBRARY,1515 OLEANDER AVE  CHULA VISTA 91911,32.60455,-117.03183,,,,,,,
280,LAKESIDE FIRE DIST STATION #26 - APP BAY,15245 OAK CREEK RD  EL CAJON 92021,32.86104,-116.84433,,,,,,,
281,GARY AND MARY WEST SENIOR WELLNESS CENTER,1525 4TH AVE  SAN DIEGO 92101,32.72128,-117.16076,,,,,,,
282,ROLLING HILLS ELEM SCHOOL-STAGE,15255 PENASQUITOS DR  SAN DIEGO 92129,32.99026,-117.09242,,,,,,,
283,ST JOSEPH CATHEDRAL-AUDITORIUM,1528 4TH AVE  SAN DIEGO 92101,32.72139,-117.1613,,,,,,,
284,GARAGE-FRUECHTING RESIDENCE,1531 CONWAY DR  ESCONDIDO 92027,33.15113,-117.07474,,,,,,,
285,ESCONDIDO HIGH SCHOOL-GYM FOYER,1535 N BROADWAY  ESCONDIDO 92026,33.14433,-117.09085,,,,,,,
286,GARAGE-RODRIGUEZ RESIDENCE,1540 CLOVIS CT  CHULA VISTA 91913,32.62971,-116.99235,,,,,,,
287,FRED H ROHR ELEM SCHOOL-CAFETERIA,1540 MALTA AVE  CHULA VISTA 91911,32.60166,-117.04153,,,,,,,
288,THE MEADOWS SENIOR MHP - CLUBHOUSE,15420 OLDE HY 80  EL CAJON 92021,32.85875,-116.84171,,,,,,,
289,BON VIVANT REC ROOM,1544 SONORA DR  CHULA VISTA 91911,32.6042,-117.03033,,,,,,,
290,THE RANCH HOUSE AT DEL SUR,15455 PASEO DEL SUR  SAN DIEGO 92127,33.01299,-117.14601,,,,,,,
291,VETERANS ELEM SCHOOL-YMCA,1550 MAGDALENA AVE  CHULA VISTA 91913,32.62474,-116.97715,,,,,,,
292,FOOTHILLS ADULT ED CTR-STUDENT LOUNGE,1550 MELODY LN  EL CAJON 92019,32.79708,-116.92443,,,,,,,
293,POWAY HIGH SCHOOL-K1,15500 ESPOLA RD SCHL  POWAY 92064,32.99839,-117.02543,,,,,,,
294,GARAGE-KNOWLES RESIDENCE,15511 CALISTOGA DR  RAMONA 92065,33.0001,-116.81165,,,,,,,
295,GARAGE-BANAGA RESIDENCE,1553 APPLEGATE ST  CHULA VISTA 91913,32.62552,-116.98945,,,,,,,
296,GARAGE-LONGLEY RESIDENCE,1560 VIA CORONA  LA JOLLA 92037,32.81825,-117.25553,,,,,,,
297,PAC BCH UNITED METHODIST CHR-HUGHES HALL,1561 THOMAS AVE  SAN DIEGO 92109,32.79645,-117.24038,,,,,,,
298,POWAY HEALTHCARE CENTER,15632 POMERADO RD  POWAY 92064,32.99719,-117.05835,,,,,,,
299,DEL SUR ELEMENTARY SCHOOL-MPR,15665 PASEO DEL SUR  SAN DIEGO 92127,33.01855,-117.14054,,,,,,,
300,EARL WARREN MIDDLE SCH-SD COUNTY LIBRARY,157 STEVENS AVE SCHL  SOLANA BEACH 92075,32.99443,-117.2626,,,,,,,
301,GARAGE-VAN DAM RESIDENCE,157 VIA LA PAZ  SAN MARCOS 92069,33.13753,-117.12843,,,,,,,
302,MONTGOMERY MIDDLE SCHOOL-THEATRE,1570 MELODY LN SCHL  EL CAJON 92019,32.79733,-116.92103,,,,,,,
303,THE FIREHOUSE MUSEUM-HALL,1572 COLUMBIA ST  SAN DIEGO 92101,32.72174,-117.1677,,,,,,,
304,VILLA RANCHO BERNARDO-MULTIPURPOSE ROOM,15720 BERNARDO CENTER DR  SAN DIEGO 92127,33.00572,-117.09426,,,,,,,
305,GARAGE-EASTHAM RESIDENCE,15822 CAMINITO CANTARAS  DEL MAR 92014,32.98433,-117.24752,,,,,,,
306,GARAGE-PURCELL RESIDENCE,1584 HAWK VIEW DR  ENCINITAS 92024,33.07769,-117.28336,,,,,,,
307,CASTLE PARK MIDDLE SCHOOL- LIBRARY,160 QUINTARD ST SCHL  CHULA VISTA 91911,32.60538,-117.05958,,,,,,,
308,PALOMAR UNITARIAN UNIVERSALIST FLLWSHP,1600 BUENA VISTA DR  VISTA 92081,33.16795,-117.24598,,,,,,,
309,VISTA CASCADE MHP CLUBHOUSE,1600 E VISTA WAY  VISTA 92084,33.22351,-117.22759,,,,,,,
310,JOHN J MONTGOMERY SCHOOL-AUDITORIUM,1601 4TH AVE SCHL  CHULA VISTA 91911,32.5977,-117.0687,,,,,,,
311,THE MILLS HOUSE,1604 7TH AVE  SAN DIEGO 92101,32.72218,-117.15857,,,,,,,
312,GARAGE-DRAWDY RESIDENCE,16059 AVENIDA CALMA  RANCHO SANTA FE 92091,32.99116,-117.21523,,,,,,,
313,WOMENS CLUB OF OCEANSIDE,1606 MISSOURI AVE  OCEANSIDE 92054,33.19459,-117.36684,,,,,,,
314,GARAGE-GAUSS RESIDENCE,1607 VILLA CREST DR  EL CAJON 92021,32.81743,-116.92234,,,,,,,
315,SEASIDE CENTER FOR SPIRITUAL LIVING,1613 LAKE DR  ENCINITAS 92024,33.02847,-117.26515,,,,,,,
316,MADISON AVENUE ELEM SCHL-TEACHERS LOUNGE,1615 E MADISON AVE  EL CAJON 92019,32.7998,-116.92098,,,,,,,
317,GARAGE-HOOVER RESIDENCE,1615 LA CORTA ST  LEMON GROVE 91945,32.72074,-117.04541,,,,,,,
318,GARAGE-CAMERON RESIDENCE,1617 ALAPAT DR  ESCONDIDO 92027,33.12179,-117.05049,,,,,,,
319,CHRIST KING LUTHERAN CHURCH - LIBRARY,1620 S STAGE COACH LN POLL  FALLBROOK 92028,33.35787,-117.23,,,,,,,
320,NORTHVIEW ASSOCIATION - CLUBHOUSE,1622 WILLOWSPRING DR N ENCINITAS 92024,33.05859,-117.25096,,,,,,,
321,WINDING OAKS-CLUBHOUSE,1625 DISCOVERY FALLS DR  CHULA VISTA 91915,32.62368,-116.95962,,,,,,,
322,GARAGE-WHITE RESIDENCE,1625 HOLLOW PL  EL CAJON 92019,32.76487,-116.92466,,,,,,,
323,ST PETER CATHOLIC CHURCH,1627 JAMACHA WAY  EL CAJON 92019,32.75386,-116.92333,,,,,,,
324,ST BARTHOLOMEWS EPISCOPAL CHURCH,16275 POMERADO RD  POWAY 92064,33.00842,-117.05571,,,,,,,
325,MT WOODSON FIRE STATION 86-APPARATUS BAY,16310 HY 67  RAMONA 92065,33.00841,-116.95553,,,,,,,
326,GARAGE-DURAN RESIDENCE,1633 CAPISTRANO AVE  SPRING VALLEY 91977,32.72097,-116.99,,,,,,,
327,ST JOHNS EVANGELIST CHURCH,1638 POLK AVE  SAN DIEGO 92103,32.75285,-117.14709,,,,,,,
328,GARAGE-JACOBSON RESIDENCE,164 COOP CT  ENCINITAS 92024,33.07281,-117.30706,,,,,,,
329,"MURAOKA, SABURO ELEM SCHOOL-MPR",1644 SANTA ALEXIA AVE  CHULA VISTA 91913,32.61456,-116.99231,,,,,,,
330,"CAMARENA, ENRIQUE S ELEM SCHOOL-MPR",1650 EXPLORATION FALLS DR  CHULA VISTA 91915,32.62443,-116.9585,,,,,,,
331,OTAY ELEMENTARY SCHOOL-MPR,1651 ALBANY AVE SCHL  CHULA VISTA 91911,32.59612,-117.05697,,,,,,,
332,GARAGE-KOSKY RESIDENCE,1655 CALLE CAMILLE  LA JOLLA 92037,32.81808,-117.24472,,,,,,,
333,HOPE UNITED METHODIST CHR-COVENANT HL 4,16550 BERNARDO HEIGHTS PKWY CHR  SAN DIEGO 92128,33.01373,-117.0765,,,,,,,
334,GARAGE-BRESLIN RESIDENCE,1658 LANDQUIST DR  ENCINITAS 92024,33.03696,-117.25147,,,,,,,
335,BOARDWALK AT MILLENIA - 2ND FLOOR LOUNGE,1660 METRO AVE  CHULA VISTA 91915,32.61906,-116.96636,,,,,,,
336,GARAGE-DROLET RESIDENCE,1670 CALLE LAS CASAS  OCEANSIDE 92056,33.21885,-117.28702,,,,,,,
337,PAINTED ROCK ELEM SCHOOL-MPR,16711 MARTINCOIT RD  POWAY 92064,33.01625,-117.039,,,,,,,
338,GARAGE-CHUBBIC RESIDENCE,1674 RINCON AVE  ESCONDIDO 92026,33.1685,-117.07387,,,,,,,
339,KENNEDY REC CENTER-MEETING RM,1675 E MADISON AVE  EL CAJON 92019,32.79986,-116.91947,,,,,,,
340,PAC BCH PRESBYTERIAN CHR-CHURCH OFFICE,1675 GARNET AVE CHR  SAN DIEGO 92109,32.79976,-117.239,,,,,,,
341,SEVEN OAKS COMMUNITY CENTER,16789 BERNARDO OAKS DR  SAN DIEGO 92128,33.01749,-117.06548,,,,,,,
342,SOUTHWEST HIGH SCHOOL-GYM FOYER,1685 HOLLISTER ST  SAN DIEGO 92154,32.56777,-117.08328,,,,,,,
343,LUTHERAN CHR OF INCARNATION-HALL,16889 ESPOLA RD  POWAY 92064,33.01967,-117.05123,,,,,,,
344,"TIFFANY, BURTON ELEM SCHOOL-YMCA",1691 ELMHURST ST  CHULA VISTA 91913,32.64531,-116.9915,,,,,,,
345,EQUESTRIAN CENTER,16911 GUNN STAGE RD  RAMONA 92065,33.02002,-116.80163,,,,,,,
346,RANCHO SANTA FE FIRE STN #2-TRAINING RM,16930 FOUR GEE RD  SAN DIEGO 92127,33.02244,-117.12303,,,,,,,
347,RANCHO BERNARDO SWIM AND TENNIS CLUB,16955 BERNARDO OAKS DR  SAN DIEGO 92128,33.0192,-117.06286,,,,,,,
348,GARAGE-HAUSVIK RESIDENCE,170 SHADOW GLEN CT  EL CAJON 92019,32.79619,-116.90405,,,,,,,
349,ESCONDIDO HIGHLANDS CLUBHOUSE-ROOM 1,1700 WOODLAND HEIGHTS GLN  ESCONDIDO 92026,33.1633,-117.13684,,,,,,,
350,RANCHO SANTA FE LIBRARY,17040 AVENIDA DE ACACIAS CTR  RANCHO SANTA FE 92067,33.02095,-117.20552,,,,,,,
351,GARAGE-PETERSON RESIDENCE,17060 PALACIO CT  SAN DIEGO 92127,33.02545,-117.0906,,,,,,,
352,GARAGE-COSTA RESIDENCE,1708 RED BARN RD  ENCINITAS 92024,33.04872,-117.25041,,,,,,,
353,PACIFIC POINTE RETIREMENT-LIBRARY,171 4TH AVE  CHULA VISTA 91910,32.64495,-117.08525,,,,,,,
354,RANCHO BERNARDO BRANCH LIB-COMMUNITY RM,17110 BERNARDO CENTER DR  SAN DIEGO 92128,33.02492,-117.07541,,,,,,,
355,MONTEREY RIDGE ELEM SCHOOL-MPR,17117 4S RANCH PKWY  SAN DIEGO 92127,33.02692,-117.10892,,,,,,,
356,GARAGE-HUMPHREY RESIDENCE,17207 GRANDEE PL  SAN DIEGO 92128,33.02642,-117.05819,,,,,,,
357,PACIFIC BEACH WOMANS CLUB,1721 HORNBLEND ST  SAN DIEGO 92109,32.79912,-117.2381,,,,,,,
358,GARAGE-SLOAN RESIDENCE,1722 LASLO DR  ESCONDIDO 92025,33.1105,-117.05665,,,,,,,
359,GARAGE-MAULDIN RESIDENCE,1724 ADRIAN CT  ALPINE 91901,32.82915,-116.79345,,,,,,,
360,CORONADO SHORES-ROEDER PAVILION,1725 AVENIDA DEL MUNDO  CORONADO 92118,32.67752,-117.17611,,,,,,,
361,CITRUS GARDENS MHP,1725 TOYON GLN  ESCONDIDO 92026,33.14958,-117.12163,,,,,,,
362,SAN RAFAEL PARISH HALL,17252 BERNARDO CENTER DR  SAN DIEGO 92128,33.02698,-117.07628,,,,,,,
363,EBENEZER MISSIONARY BAPTIST CHURCH,1728 S 39TH ST  SAN DIEGO 92113,32.68819,-117.11041,,,,,,,
364,GARAGE-BARRETT RESIDENCE,1729 BLUE WATER LN  SAN MARCOS 92078,33.09886,-117.18284,,,,,,,
365,ESCONDIDO FIRE STATION #6,1735 DEL DIOS RD  ESCONDIDO 92029,33.1051,-117.1021,,,,,,,
366,GARAGE-FINLEY RESIDENCE,1736 ROGUE ISLE CT  CARLSBAD 92008,33.15114,-117.32398,,,,,,,
367,CALVARY CHAPEL-SANCTUARY,1739 MELROSE DR 102  SAN MARCOS 92078,33.10633,-117.22067,,,,,,,
368,GARAGE-COYNE RESIDENCE,1739 ORANGE BLOSSOM WAY  ENCINITAS 92024,33.06041,-117.25818,,,,,,,
369,WESTWOOD CLUB ADULT LOUNGE,17394 W BERNARDO DR  SAN DIEGO 92127,33.02855,-117.08419,,,,,,,
370,HIGH COUNTRY VILLA CLUBHOUSE,174 S WILLOWSPRING DR  ENCINITAS 92024,33.04025,-117.2477,,,,,,,
371,OCEANSIDE FIRE STATION #2,1740 S DITMAR ST  OCEANSIDE 92054,33.17671,-117.36013,,,,,,,
372,DEL LAGO ACADEMY-LOUNGE A210,1740 SCENIC TRAILS WAY  ESCONDIDO 92029,33.09912,-117.10461,,,,,,,
373,GARAGE-ALEXANDER RESIDENCE,1747 VIA DEL TANIDO  SAN YSIDRO 92173,32.56339,-117.05833,,,,,,,
374,ALPINE BRANCH LIBRARY-RESOURCE ROOM,1752 ALPINE BLVD  ALPINE 91901,32.83797,-116.77598,,,,,,,
375,EASTVIEW RB COMMUNITY CTR CLUBHOUSE,17520 DRAYTON HALL WAY  SAN DIEGO 92128,33.032,-117.07457,,,,,,,
376,HOPE CHURCH OF THE NAZARENE,1755 THIBODO RD  VISTA 92081,33.1759,-117.22772,,,,,,,
377,LIFEBRIDGE CHURCH-CAFE AREA,17645 W BERNARDO DR  SAN DIEGO 92127,33.03406,-117.07996,,,,,,,
378,FAIRBANKS RANCH CLUBHOUSE,17651 CIRCA DEL NORTE  RANCHO SANTA FE 92067,33.00375,-117.17634,,,,,,,
379,GARAGE-ABRAMS RESIDENCE,1766 CAPISTRANO GLN  ESCONDIDO 92026,33.15514,-117.12342,,,,,,,
380,SAN DIEGO FENCING CENTER,1770 S ESCONDIDO BLVD C  ESCONDIDO 92025,33.10354,-117.07182,,,,,,,
381,GARAGE-ACCORDINO RESIDENCE,17746 SAINT ANDREWS DR  POWAY 92064,33.03276,-117.0367,,,,,,,
382,DANA MID SCHOOL-AUDITORIUM FOYER,1775 CHATSWORTH BLVD  SAN DIEGO 92107,32.73229,-117.2327,,,,,,,
383,CARLSBAD CITY LIBRARY-GOWLAND MEETING RM,1775 DOVE LN LIBRARY  CARLSBAD 92011,33.10524,-117.26934,,,,,,,
384,LYONS VALLEY FIRE STATION #32,17759 SKYLINE TT  JAMUL 91935,32.717,-116.87613,,,,,,,
385,GARAGE-MURPHY RESIDENCE,1776 COUNTRY SQUIRE  VISTA 92081,33.15867,-117.24219,,,,,,,
386,WASHINGTON ELEM SCHOOL-AUDITORIUM,1789 STATE ST SCHL  SAN DIEGO 92101,32.72414,-117.1665,,,,,,,
387,COLONEL IRVING SALOMON COMM ACTIVITY CTR,179 DIZA RD  SAN YSIDRO 92173,32.56508,-117.04585,,,,,,,
388,GARAGE-SMITH RESIDENCE,1794 RIDGEVIEW DR  SAN DIEGO 92105,32.72445,-117.1012,,,,,,,
389,GARAGE-DAVIS RESIDENCE,17961 AGUAMIEL RD  SAN DIEGO 92127,33.04123,-117.07927,,,,,,,
390,SAN MARCOS FIRE STATION #1,180 W MISSION RD  SAN MARCOS 92069,33.14349,-117.16448,,,,,,,
391,CHULA VISTA PUBLIC WORKS ADMIN BLDG,1800 MAXWELL RD  CHULA VISTA 91911,32.59669,-117.02028,,,,,,,
392,FIRST CONGREGATIONAL CHURCH OF ESCONDIDO,1800 N BROADWAY  ESCONDIDO 92026,33.15098,-117.08996,,,,,,,
393,RANCHO SANTA FE FIRE STATION #4,18040 CALLE AMBIENTE  RANCHO SANTA FE 92067,33.0404,-117.15933,,,,,,,
394,GARAGE-BUSCH RESIDENCE,1806 FOOTHILL VIEW PL  ESCONDIDO 92026,33.16051,-117.12799,,,,,,,
395,ESCONDIDO FIRE STATION #3,1808 N NUTMEG ST  ESCONDIDO 92026,33.14935,-117.10621,,,,,,,
396,SAN MIGUEL FIRE AND RESCUE #18,1811 SUNCREST BLVD  EL CAJON 92021,32.80703,-116.86384,,,,,,,
397,GARAGE-FISH RESIDENCE,1814 RUBENSTEIN DR  CARDIFF BY THE SEA 92007,33.02624,-117.28228,,,,,,,
398,FALLBROOK LAND CONSERVANCY-PALOMARES HSE,1815 S STAGE COACH LN  FALLBROOK 92028,33.35749,-117.23176,,,,,,,
399,BEARDSLEY MITCHELL FUNERAL HOME-HALL,1818 SUNSET CLIFFS BLVD  SAN DIEGO 92107,32.74339,-117.24906,,,,,,,
400,GARAGE-KREITZER RESIDENCE,18184 VERANO DR  SAN DIEGO 92128,33.0418,-117.06785,,,,,,,
401,GARAGE-SHOQUIST RESIDENCE,1820 CENTENNIAL WAY  ESCONDIDO 92026,33.15568,-117.07249,,,,,,,
402,CROWN HILLS COMMUNITY CLUB HOUSE,1821 VICTORIA PARK TER POLL  ALPINE 91901,32.84474,-116.77716,,,,,,,
403,SKYLINE RANCH COUNTRY CLUB BALL RM,18218 PARADISE MOUNTAIN RD  VALLEY CENTER 92082,33.2073,-116.94934,,,,,,,
404,GARAGE-HILL RESIDENCE,1832 VIKING WAY  LA JOLLA 92037,32.8501,-117.26231,,,,,,,
405,COMMUNITY COVENANT CHURCH-MPR,1835 GRANITE HILLS DR  EL CAJON 92019,32.79482,-116.92075,,,,,,,
406,WILLIAM H FRAZIER ELEM SCHOOL-MPR,1835 GUM TREE LN  FALLBROOK 92028,33.38702,-117.22476,,,,,,,
407,FALLBROOK UNITED METHODIST CHR-FIRESIDE,1844 WINTER HAVEN RD  FALLBROOK 92028,33.34798,-117.21869,,,,,,,
408,GARAGE-ELLIOTT RESIDENCE,1845 MILLS CT  SAN MARCOS 92069,33.13991,-117.11951,,,,,,,
409,JULIAN BRANCH LIBRARY,1850 HY 78  JULIAN 92036,33.07699,-116.59651,,,,,,,
410,ST PETKA SERBIAN ORTHODOX CHR-MPR,1854 KNOB HILL RD  SAN MARCOS 92069,33.13989,-117.11842,,,,,,,
411,VIEW TERRACE - CLUBHOUSE,1860 CATHEDRAL GLN  ESCONDIDO 92029,33.1052,-117.10752,,,,,,,
412,GARAGE-HOWARD RESIDENCE,1860 THELBORN WAY  SAN DIEGO 92154,32.56681,-117.09405,,,,,,,
413,ESCONDIDO CHARTER HIGH SCHOOL-THEATER,1868 E VALLEY PKWY  ESCONDIDO 92027,33.13703,-117.05477,,,,,,,
414,PARADISE SENIOR CENTER,1880 LOGAN AVE  SAN DIEGO 92113,32.70209,-117.14474,,,,,,,
415,GARAGE-LAVER RESIDENCE,1881 SHERIDAN RD  ENCINITAS 92024,33.08171,-117.30258,,,,,,,
416,ROBERT EGGER REC CTR-MTG RM,1885 CORONADO AVE  SAN DIEGO 92154,32.57646,-117.09328,,,,,,,
417,GARAGE-HOLDEN RESIDENCE,1887 GALWAY PL  EL CAJON 92020,32.80323,-116.98832,,,,,,,
418,GARAGE-TERRAZAS RESIDENCE,191 E RENETTE AVE  EL CAJON 92020,32.78388,-116.9602,,,,,,,
419,GARAGE-DE LEON RESIDENCE,1910 EMERYVILLE CT  CHULA VISTA 91913,32.63724,-116.97855,,,,,,,
420,LIVING STREAM CHRISTIAN CHURCH-SUITE 102,1910 SHADOWRIDGE DR 102  VISTA 92081,33.15789,-117.24901,,,,,,,
421,GARAGE-CRIQUI RESIDENCE,1918 COLTRANE PL  ESCONDIDO 92027,33.12246,-117.04219,,,,,,,
422,MCLEOD MORTUARY-CHAPEL,1919 E VALLEY PKWY  ESCONDIDO 92027,33.13647,-117.05316,,,,,,,
423,RINCON DEL DIABLO MUNI WATER DIST,1920 N IRIS LN  ESCONDIDO 92026,33.15165,-117.09536,,,,,,,
424,BETHEL CHRISTIAN ASSEMBLY,1929 ARNOLD WAY  ALPINE 91901,32.83525,-116.77428,,,,,,,
425,CAMDEN OLD CREEK BUSINESS CENTER,1935 NORTH STAR WAY  SAN MARCOS 92078,33.09852,-117.21879,,,,,,,
426,7TH DAY ADVENTIST CHURCH - GYM,1943 CALIFORNIA ST  OCEANSIDE 92054,33.18971,-117.34875,,,,,,,
427,VISTA ELKS LODGE #1968,1947 E VISTA WAY  VISTA 92084,33.22947,-117.22522,,,,,,,
428,LA COSTA GLEN,1950 SILVERLEAF CIR  CARLSBAD 92009,33.07505,-117.26671,,,,,,,
429,WALNUT GROVE PARK RED BARN,1950 SYCAMORE DR  SAN MARCOS 92069,33.18173,-117.15293,,,,,,,
430,WOLF CANYON ELEM SCHOOL-YMCA ROOM,1950 WOLF CANYON LOOP  CHULA VISTA 91913,32.61127,-116.97457,,,,,,,
431,LA COSTA PALOMA-COMMUNITY ROOM,1953 DOVE LN  CARLSBAD 92009,33.10345,-117.2643,,,,,,,
432,KEARNY HIGH SCHOOL-AUDITORIUM FOYER,1954 KOMET WAY SCHL  SAN DIEGO 92111,32.80017,-117.16054,,,,,,,
433,EASTLAKE ELEM SCHOOL-RM 302,1955 HILLSIDE DR  CHULA VISTA 91913,32.65536,-116.98428,,,,,,,
434,ATHENAEUM ART CENTER AT BREAD AND SALT,1955 JULIAN AVE  SAN DIEGO 92113,32.70203,-117.14172,,,,,,,
435,GARAGE-SHOBU-CLIFFORD RESIDENCE,1955 PIZARRO LN  ESCONDIDO 92026,33.15189,-117.11335,,,,,,,
436,GARAGE-HEGG RESIDENCE,1957 WHITE BIRCH DR  VISTA 92081,33.15693,-117.25303,,,,,,,
437,LEUCADIA WASTEWATER DISTRICT-BOARD ROOM,1960 LA COSTA AVE  CARLSBAD 92009,33.08653,-117.26598,,,,,,,
438,CHURCH OF ST LUKE-ATRIUM 2,1980 HILLSDALE RD  EL CAJON 92019,32.76232,-116.91169,,,,,,,
439,WATERS EDGE FAITH COMMUNITY-COMMUNITY RM,1984 SUNSET CLIFFS BLVD  SAN DIEGO 92107,32.74637,-117.24673,,,,,,,
440,DOG DAYZ OF CALIFORNIA,1995 PEACOCK BLVD  OCEANSIDE 92056,33.21499,-117.26904,,,,,,,
441,SAN MARCOS BRANCH LIBRARY,2 CIVIC CENTER DR  SAN MARCOS 92069,33.14124,-117.16053,,,,,,,
442,CITY OF EL CAJON - FIRST FLOOR LOBBY,200 CIVIC CENTER WAY  EL CAJON 92020,32.79651,-116.9599,,,,,,,
443,LINCOLN MIDDLE SCHOOL-STAFF LOUNGE,2000 CALIFORNIA ST  OCEANSIDE 92054,33.18896,-117.3521,,,,,,,
444,EL TOYON ELEM SCHOOL-AUDITORIUM,2000 E DIVISION ST  NATIONAL CITY 91950,32.68818,-117.0886,,,,,,,
445,LIVING WATERS CHRISTIAN FLWSHP-LOBBY,2000 RECHE RD  FALLBROOK 92028,33.3697,-117.21564,,,,,,,
446,VISTA KNOLL SPECIALIZED CARE,2000 WESTWOOD RD  VISTA 92083,33.1912,-117.28635,,,,,,,
447,1ST PRESBYTERIAN CHURCH-GREAT HALL,2001 EL CAMINO REAL  OCEANSIDE 92054,33.19225,-117.32923,,,,,,,
448,PALA MESA RESORT-CYPRESS ROOM,2001 OLD HY 395  FALLBROOK 92028,33.35626,-117.16039,,,,,,,
449,EL TOYON RECREATION CTR-CLASSRM,2005 E 4TH ST  NATIONAL CITY 91950,32.68542,-117.08764,,,,,,,
450,EL CAJON BRANCH LIBRARY,201 E DOUGLAS AVE  EL CAJON 92020,32.7931,-116.96068,,,,,,,
451,DISCIPLES CENTER - MEETING ROOM,201 FIR ST  SAN DIEGO 92101,32.7249,-117.16262,,,,,,,
452,ENCINITAS FIRE STATION #4,2011 VILLAGE PARK WAY  ENCINITAS 92024,33.05355,-117.24534,,,,,,,
453,MOOSE LODGE #1325,2017 S COAST HWY  OCEANSIDE 92054,33.17125,-117.35924,,,,,,,
454,GRANGER JR HIGH SCHOOL-SEMINAR RM,2020 VAN NESS AVE  NATIONAL CITY 91950,32.6735,-117.07256,,,,,,,
455,RANCHO SANTA FE FIRE STATION #6,20223 ELFIN FOREST RD  ESCONDIDO 92029,33.07916,-117.17586,,,,,,,
456,GARAGE-BARON RESIDENCE,2029 SONORA CT  VISTA 92081,33.1658,-117.23314,,,,,,,
457,MASONIC LODGE #317 - MEMORIAL DINING RM,203 ROCKY CREST RD  FALLBROOK 92028,33.3623,-117.25112,,,,,,,
458,SAN MARCOS FIRE STATION #4,204 SAN ELIJO RD  SAN MARCOS 92078,33.10793,-117.17146,,,,,,,
459,SUNGARDEN TERRACE - COMMUNITY RM,2045 SKYLINE DR  LEMON GROVE 91945,32.72773,-117.0255,,,,,,,
460,GARAGE-BENN RESIDENCE,205 6TH ST  CORONADO 92118,32.69609,-117.18663,,,,,,,
461,BETHANY LUTHERAN CHURCH,2051 SUNSET CLIFFS BLVD  SAN DIEGO 92107,32.74726,-117.24498,,,,,,,
462,GARAGE-STEVENS RESIDENCE,206 FOWLES ST  OCEANSIDE 92054,33.20675,-117.34496,,,,,,,
463,GARAGE-MURDOCK RESIDENCE,2060 RIDGELINE AVE  VISTA 92081,33.15006,-117.23893,,,,,,,
464,TEMPLE BETH SHOLOM SOCIAL HALL,208 MADRONA ST  CHULA VISTA 91910,32.63942,-117.0752,,,,,,,
465,EDUCATIONAL SUPPORT SERVICES-ANNEX,2080 MISSION AVE SCHL  OCEANSIDE 92058,33.20603,-117.36325,,,,,,,
466,CARDIFF BY THE SEA BRANCH LIBRARY,2081 NEWCASTLE AVE  CARDIFF BY THE SEA 92007,33.02203,-117.28144,,,,,,,
467,VILLAGE PARK RECREATION AREA #4,2083 PARK DALE LN  ENCINITAS 92024,33.04563,-117.24186,,,,,,,
468,COMM CONGREGATIONAL CHR OF PAC BEACH,2088 BERYL ST  SAN DIEGO 92109,32.80866,-117.23378,,,,,,,
469,GARAGE-DURRETT RESIDENCE,2098 VALLEY LAKE DR  EL CAJON 92020,32.81847,-116.99295,,,,,,,
470,PARK AVENUE COMMUNITY CENTER-MAPLE RM,210 E PARK AVE  ESCONDIDO 92025,33.12939,-117.08378,,,,,,,
471,BAY VIEW BAPTIST CHURCH,210 JAMUL AVE  CHULA VISTA 91911,32.62161,-117.04897,,,,,,,
472,S E PRESBYTERIAN CHURCH HALL,210 S EUCLID AVE  SAN DIEGO 92114,32.70295,-117.08543,,,,,,,
473,PARKWOOD VILLAGE APARTMENTS-COMMUNITY RM,2101 L AVE  NATIONAL CITY 91950,32.66813,-117.08939,,,,,,,
474,1ST UNITED METHODIST CHR-SANCTUARY FOYER,2111 CAMINO DEL RIO S  SAN DIEGO 92108,32.76783,-117.14258,,,,,,,
475,OCEANSIDE UNIFIED SCH DIST-CONF RM 1 AND 2,2111 MISSION AVE SCHL  OCEANSIDE 92058,33.20627,-117.36187,,,,,,,
476,LEMON GROVE FOURSQUARE CHURCH,2115 LEMON GROVE AVE  LEMON GROVE 91945,32.72836,-117.03537,,,,,,,
477,ST MADELEINE SOPHIES CENTER,2119 E MADISON AVE  EL CAJON 92019,32.80187,-116.90139,,,,,,,
478,THE PALMS,212 S 2ND ST  EL CAJON 92019,32.79358,-116.93851,,,,,,,
479,CASA FAMILIAR CIVIC AND REC CENTER,212 W PARK AVE  SAN YSIDRO 92173,32.55492,-117.04433,,,,,,,
480,MISSION VALLEY BRANCH LIBRARY-COMM RM,2123 FENTON PKWY  SAN DIEGO 92108,32.77926,-117.12689,,,,,,,
481,GARAGE-MANRIQUE RESIDENCE,2123 WATERSIDE DR  CHULA VISTA 91913,32.65226,-116.97533,,,,,,,
482,PT LOMA PRESBYTERIAN CHR-LIBRARY,2128 CHATSWORTH BLVD  SAN DIEGO 92107,32.73912,-117.22967,,,,,,,
483,JULIAN TOWN HALL - UPSTAIRS,2129 MAIN ST  JULIAN 92036,33.07831,-116.60244,,,,,,,
484,GREEN VALLEY MHP REC ROOM,2130 SUNSET DR  VISTA 92081,33.18369,-117.27956,,,,,,,
485,LINDA VISTA PRESBYTERIAN CHURCH - HALL,2130 ULRIC ST  SAN DIEGO 92111,32.78265,-117.17011,,,,,,,
486,SAN MIGUEL FIRE AND RESCUE #23,2140 DEHESA RD  EL CAJON 92019,32.78807,-116.90488,,,,,,,
487,LUTHER BURBANK SCHOOL-AUDITORIUM,2146 JULIAN AVE  SAN DIEGO 92113,32.70037,-117.13819,,,,,,,
488,GARAGE-HOFFMAN RESIDENCE,2152 WARWOOD CT  EL CAJON 92019,32.74972,-116.92572,,,,,,,
489,OCEAN BEACH WOMENS CLUB,2160 BACON ST  SAN DIEGO 92107,32.75142,-117.24747,,,,,,,
490,RAINBOW VALLEY GRANGE HALL,2160 RAINBOW VALLEY BLVD  FALLBROOK 92028,33.412,-117.14805,,,,,,,
491,LINDA VISTA BRANCH PUBLIC LIBRARY,2160 ULRIC ST  SAN DIEGO 92111,32.78329,-117.17002,,,,,,,
492,SOUTH BAY SDA CHURCH,2161 AVENIDA DEL MEXICO  SAN DIEGO 92154,32.58167,-117.08773,,,,,,,
493,GARAGE-JUYBARI RESIDENCE,2164 DICKINSON DR  CARLSBAD 92008,33.14243,-117.30084,,,,,,,
494,GARAGE-STILLINGER RESIDENCE,2171 CAMBRIDGE AVE  CARDIFF BY THE SEA 92007,33.022,-117.27751,,,,,,,
495,LIBERTY ELEMENTARY SCHOOL-MPR,2175 PROCTOR VALLEY RD  CHULA VISTA 91914,32.66473,-116.97825,,,,,,,
496,GARAGE-MALLARI RESIDENCE,2192 JOHNSTON RD  ESCONDIDO 92029,33.09864,-117.11796,,,,,,,
497,VERONA HILLS - CLUBHOUSE,2192 SAVONA CT  VISTA 92084,33.17687,-117.20399,,,,,,,
498,ESCONDIDO ADULT SCHL/ROP-RM 111,220 W CREST ST  ESCONDIDO 92025,33.13122,-117.08846,,,,,,,
499,ORANGE GLEN HIGH SCH-CONFERENCE RM 1,2200 GLENRIDGE RD  ESCONDIDO 92027,33.12889,-117.0406,,,,,,,
500,LINCOLN ACRES ELEM SCHOOL - AUD STAGE,2200 S LANOITAN AVE SCHL  NATIONAL CITY 91950,32.67017,-117.0761,,,,,,,
501,NESTOR UNITED METHODIST CHR-FELLOWSHIP,2205 FLOWER AVE  SAN DIEGO 92154,32.57594,-117.08543,,,,,,,
502,NEW HOPE BAPTIST CHURCH HALL,2205 HARRISON AVE  SAN DIEGO 92113,32.701,-117.13617,,,,,,,
503,MONTE VISTA VILLAGE-AUDITORIUM,2211 MASSACHUSETTS AVE  LEMON GROVE 91945,32.73011,-117.04245,,,,,,,
504,GARAGE-VOGEL RESIDENCE,2217 VIA PEDRERA  LA JOLLA 92037,32.83126,-117.24699,,,,,,,
505,SAN DIEGO YOUTH SERVICES (GHYC),2220 BROADWAY  SAN DIEGO 92102,32.71612,-117.14341,,,,,,,
506,MORLEY FIELD SPORTS COMPLEX-SR CLUBHOUSE,2221 MORLEY FIELD DR  SAN DIEGO 92104,32.74006,-117.1412,,,,,,,
507,LAFAYETTE HOTEL - BATON ROUGE ROOM,2223 EL CAJON BLVD BUS.  SAN DIEGO 92104,32.75485,-117.14071,,,,,,,
508,GARAGE-GIBSON RESIDENCE,2227 CAMINO ROBLEDO  CARLSBAD 92009,33.07749,-117.25845,,,,,,,
509,SEA COLONY CLUBHOUSE,2230 SEA COLONY CT  SAN DIEGO 92107,32.74259,-117.23219,,,,,,,
510,EAST VALLEY COMMUNITY CENTER,2245 E VALLEY PKWY  ESCONDIDO 92027,33.13856,-117.04612,,,,,,,
511,RAMONA VFW #3783,2247 KELLY AVE  RAMONA 92065,33.02852,-116.88797,,,,,,,
512,MONTE VISTA FIRE STATION #20-APP BAY,2249 JAMACHA RD  EL CAJON 92019,32.74827,-116.92526,,,,,,,
513,GARAGE-RICE RESIDENCE,2249 SEASIDE ST  SAN DIEGO 92107,32.74797,-117.23815,,,,,,,
514,SHERMAN HEIGHTS COMM CTR-BALLRM-FLOOR 2,2258 ISLAND AVE BUS  SAN DIEGO 92102,32.71065,-117.14317,,,,,,,
515,WILLOW ELEMENTARY SCHOOL-LIBRARY,226 WILLOW RD SCHL  SAN YSIDRO 92173,32.54801,-117.04196,,,,,,,
516,GARAGE-ROSA-CLARK RESIDENCE,2266 WESTLAND AVE  SAN DIEGO 92104,32.72958,-117.12016,,,,,,,
517,DEL RIO APARTMENTS - YOGA ROOM,2288 FENTON PKWY  SAN DIEGO 92108,32.77974,-117.13162,,,,,,,
518,ROLLING HILLS GARDENS-MEETING RM,2290 MACKENZIE CREEK RD  CHULA VISTA 91914,32.65843,-116.96869,,,,,,,
519,SOUTHWEST BAPTIST CHURCH,2295 LEON AVE  SAN DIEGO 92154,32.56613,-117.08488,,,,,,,
520,NEW SEASONS CHURCH - FELLOWSHIP HALL,2300 BANCROFT DR  SPRING VALLEY 91977,32.73053,-117.00773,,,,,,,
521,SCOUT HUT,231 E HAWTHORNE ST  FALLBROOK 92028,33.38267,-117.24962,,,,,,,
522,VISTA HISTORICAL MUSEUM,2317 OLD FOOTHILL DR  VISTA 92084,33.20536,-117.20384,,,,,,,
523,WESTMONT AT SAN MIGUEL RANCH,2325 PROCTOR VALLEY RD  CHULA VISTA 91914,32.66285,-116.97043,,,,,,,
524,GARAGE-FLEMING RESIDENCE,2327 POD DR  VISTA 92084,33.18774,-117.20002,,,,,,,
525,GARAGE-HANSEN RESIDENCE,2329 MARISA CT  ENCINITAS 92024,33.05363,-117.23282,,,,,,,
526,GARAGE-ARAKELIAN RESIDENCE,2331 CORDERO RD  DEL MAR 92014,32.94696,-117.25344,,,,,,,
527,ST PAUL'S SENIOR HOMES AND SERVICES,2340 4TH AVE  SAN DIEGO 92101,32.72997,-117.16145,,,,,,,
528,6TH CHURCH OF CHRIST SCIENTIST,2340 CHATSWORTH BLVD  SAN DIEGO 92106,32.74089,-117.22588,,,,,,,
529,PRESIDIO AT LA COSTA GREEN-CLUBHOUSE,2341 LAPIS RD  CARLSBAD 92009,33.10911,-117.25519,,,,,,,
530,GARAGE-MUNSELL RESIDENCE,23440 JARDIN DEL SOL  RAMONA 92065,33.01687,-116.8203,,,,,,,
531,GARAGE-ROOKEY RESIDENCE,2348 RIPPEY CT  EL CAJON 92020,32.8118,-116.99741,,,,,,,
532,GARAGE-ADAMS RESIDENCE,2365 GUAJOME LAKE RD  VISTA 92084,33.23768,-117.25443,,,,,,,
533,DEERHORN VALLEY FIRE STATION #37,2383 HONEY SPRINGS RD  JAMUL 91935,32.68274,-116.75367,,,,,,,
534,ESCONDIDO PUBLIC LIBRARY - TURPENTINE RM,239 S KALMIA ST  ESCONDIDO 92025,33.12082,-117.07987,,,,,,,
535,WESLEY PALMS AUDITORIUM,2404 LORING ST  SAN DIEGO 92109,32.81299,-117.22912,,,,,,,
536,EASTLAKE II COMMUNITY ASSOCIATION,2405 CLUBHOUSE DR CHULA VISTA 91915,32.64,-116.95696,,,,,,,
537,NORTH COAST CHURCH - 5TH GRADE ROOM,2405 N SANTA FE AVE  VISTA 92084,33.23624,-117.25659,,,,,,,
538,GARAGE-SMITH RESIDENCE,2409 WAGON WHEEL CT  SPRING VALLEY 91978,32.72855,-116.95638,,,,,,,
539,PENTECOSTAL MISSIONARY CHURCH OF CHRIST,2410 E 8TH ST  NATIONAL CITY 91950,32.68271,-117.08138,,,,,,,
540,GOLDEN HILL HOUSE,2410 E ST  SAN DIEGO 92102,32.71503,-117.1422,,,,,,,
541,ESCONDIDO SPANISH 7TH DAY CHURCH,2410 E WASHINGTON AVE  ESCONDIDO 92027,33.14742,-117.04773,,,,,,,
542,GARAGE-JOHNSON RESIDENCE,24121 MAJELLA DR  RAMONA 92065,33.0146,-116.80993,,,,,,,
543,GARAGE-GUTHRIE RESIDENCE,2414 ARABIAN TRL  FALLBROOK 92028,33.33336,-117.24219,,,,,,,
544,WINDING TRAILS-CLUBHOUSE,2420 EVENING STAR ST  CHULA VISTA 91915,32.62654,-116.95105,,,,,,,
545,INSTRUCTIONAL MEDIA CENTER-LOBBY,2441 CARDINAL LN  SAN DIEGO 92123,32.7878,-117.15942,,,,,,,
546,OLD TOWN COMMUNITY CHURCH,2444 CONGRESS ST  SAN DIEGO 92110,32.75133,-117.19414,,,,,,,
547,BARNARD ELEM SCHOOL-AUDITORIUM,2445 FOGG ST  SAN DIEGO 92109,32.80218,-117.2248,,,,,,,
548,DESCANSO TOWN HALL,24536 VIEJAS GRADE RD  DESCANSO 91916,32.85367,-116.61961,,,,,,,
549,OCEAN VIEW CHURCH-LOBBY,2460 PALM AVE  SAN DIEGO 92154,32.58552,-117.07948,,,,,,,
550,ASTOR HEALTHCARE CENTER,247 E BOBIER DR  VISTA 92084,33.22043,-117.24184,,,,,,,
551,MISSION BAY HIGH SCHOOL-FOYER,2475 GRAND AVE  SAN DIEGO 92109,32.80122,-117.2235,,,,,,,
552,GARAGE-WAYNE RESIDENCE,2480 DUNSTAN ST  OCEANSIDE 92054,33.19449,-117.34257,,,,,,,
553,POTRERO BRANCH LIBRARY,24883 POTRERO VALLEY RD  POTRERO 91963,32.61123,-116.61263,,,,,,,
554,ARROYO VISTA CHARTER SCHL-AUDITORIUM,2491 SCHOOL HOUSE RD  CHULA VISTA 91915,32.6391,-116.95323,,,,,,,
555,CASTLE PARK ELEM SCHOOL-MPR,25 EMERSON ST SCHL  CHULA VISTA 91911,32.6148,-117.05652,,,,,,,
556,AUTUMN TERRACE APT,251 AUTUMN DR 101  SAN MARCOS 92069,33.14293,-117.16795,,,,,,,
557,CSU SAN MARCOS-UNION COWORK,251 N CITY DR 128  SAN MARCOS 92078,33.13467,-117.15942,,,,,,,
558,GARAGE-NORDHOFF RESIDENCE,251 OCEAN VIEW AVE  DEL MAR 92014,32.94452,-117.25932,,,,,,,
559,GARAGE-LOPEZ RESIDENCE,2514 COYOTE RIDGE TER  CHULA VISTA 91915,32.64163,-116.95247,,,,,,,
560,NORTH PARK APOSTOLIC CHURCH-ROOM 17,2515 LEMON GROVE AVE  LEMON GROVE 91945,32.73277,-117.03256,,,,,,,
561,THE SHOPPES AT CARLSBAD-EAST OF JCPENNEY,2525 EL CAMINO REAL  CARLSBAD 92008,33.17819,-117.33245,,,,,,,
562,SOUTHERN HIGHLANDS,2525 HIGHLAND AVE  NATIONAL CITY 91950,32.66324,-117.09219,,,,,,,
563,GARAGE-WATKINS RESIDENCE,25266 HEREFORD DR  RAMONA 92065,33.00316,-116.78532,,,,,,,
564,CARLSBAD FIRE STATION #5,2540 ORION WAY CARLSBAD 92010,33.13691,-117.26701,,,,,,,
565,GARAGE-CRUZ RESIDENCE,25480 JESMOND DENE RD  ESCONDIDO 92026,33.17437,-117.10703,,,,,,,
566,GARAGE-DOUGLAS RESIDENCE,255 DEL MESA CT  OCEANSIDE 92058,33.24263,-117.32898,,,,,,,
567,PIONEER OCEAN VIEW UCC-FELLOWSHIP HALL,2550 FAIRFIELD ST  SAN DIEGO 92110,32.78717,-117.19441,,,,,,,
568,PENN ATHLETIC FIELD-MEETING RM,2555 DUSK DR POLL  SAN DIEGO 92139,32.67826,-117.04773,,,,,,,
569,PARQ WEST,2557 3RD AVE  SAN DIEGO 92103,32.73217,-117.16181,,,,,,,
570,GARAGE-GARCIA RESIDENCE,2568 FELINDA WAY  OCEANSIDE 92056,33.20335,-117.2832,,,,,,,
571,QUEEN OF ANGELS CATHOLIC CHURCH,2569 W VICTORIA DR  ALPINE 91901,32.84498,-116.76719,,,,,,,
572,LEMON GROVE MASONIC LODGE #736-HALL,2590 MAIN ST  LEMON GROVE 91945,32.73333,-117.03366,,,,,,,
573,COURTYARD BY MARRIOTT - FIRESIDE TERRACE,2592 LANING RD  SAN DIEGO 92106,32.7308,-117.21571,,,,,,,
574,AZALEA PARK RECREATION CTR-MEETING RM,2596 VIOLET ST  SAN DIEGO 92105,32.73322,-117.10685,,,,,,,
575,ANCHOR DOWN MHP - REC ROOM,260 E BRADLEY AVE  EL CAJON 92021,32.82023,-116.95773,,,,,,,
576,GOLDEN HILL RECREATION CTR-GYM,2600 GOLF COURSE DR  SAN DIEGO 92102,32.72499,-117.13764,,,,,,,
577,ST TIMOTHY LUTHERAN CHURCH-FOYER,2602 REO DR  SAN DIEGO 92139,32.67182,-117.06219,,,,,,,
578,HIGHLAND AVE BAPTIST CHURCH-RM 108,2605 HIGHLAND AVE  NATIONAL CITY 91950,32.66244,-117.09224,,,,,,,
579,OAK PARK ELEM SCHOOL-AUDITORIUM,2606 54TH ST  SAN DIEGO 92105,32.7329,-117.08056,,,,,,,
580,GARAGE-SHAULES RESIDENCE,2608 SANTA BARBARA CT  CHULA VISTA 91914,32.6649,-116.95956,,,,,,,
581,ST PAULS MANOR - SHATTUCK LOUNGE,2635 2ND AVE  SAN DIEGO 92103,32.73297,-117.16274,,,,,,,
582,M B MONTESSORI ACADEMY AUDITORIUM,2640 SODERBLOM AVE  SAN DIEGO 92122,32.84359,-117.22829,,,,,,,
583,SERRA MESA CHRIST FELLOWSHIP,2649 MURRAY RIDGE RD  SAN DIEGO 92123,32.79334,-117.14417,,,,,,,
584,POINT LOMA TENNIS CLUB,2650 WORDEN ST  SAN DIEGO 92110,32.74843,-117.22759,,,,,,,
585,ZAMORANO ELEM SCH-PROF DEV CTR CLASSROOM,2655 CASEY ST SCHL  SAN DIEGO 92139,32.68023,-117.03854,,,,,,,
586,GARAGE-AADLAND RESIDENCE,2657 SAUSALITO AVE  CARLSBAD 92010,33.16258,-117.31112,,,,,,,
587,GARAGE-AGUINAGA RESIDENCE,26776 SAINT ANDREWS LN  VALLEY CENTER 92082,33.20598,-117.00748,,,,,,,
588,CIVITA REC CENTER,2684 COMMUNITY LN  SAN DIEGO 92108,32.78157,-117.14663,,,,,,,
589,EMMANUEL PRESBYTERIAN CHURCH-RM 6,2691 B ST  SAN DIEGO 92102,32.71768,-117.13633,,,,,,,
590,GETHSEMANE LUTHERAN CHURCH - GARDEN ROOM,2696 MELBOURNE DR  SAN DIEGO 92123,32.7938,-117.12567,,,,,,,
591,SOUTH BAY PIONEERS,270 C ST  CHULA VISTA 91910,32.65145,-117.08368,,,,,,,
592,PARADISE VILLAGE COMMUNITY,2700 E 4TH ST  NATIONAL CITY 91950,32.68583,-117.07904,,,,,,,
593,HIDDEN VALLEY MID SCHOOL-LITTLE THEATER,2700 REED RD  ESCONDIDO 92027,33.13485,-117.03343,,,,,,,
594,GARAGE-BOSS RESIDENCE,2707 CITA AVE  ESCONDIDO 92029,33.08241,-117.08151,,,,,,,
595,CANYON RIM-CLUBHOUSE,2710 ARIANE DR  SAN DIEGO 92117,32.82899,-117.22832,,,,,,,
596,GARAGE-ORTENZO RESIDENCE,2711 CHESTNUT AVE  CARLSBAD 92010,33.16602,-117.3131,,,,,,,
597,GARAGE-TWEED RESIDENCE,2717 OBELISCO CT  CARLSBAD 92009,33.10212,-117.24416,,,,,,,
598,PLYMOUTH CHURCH HALL,2717 UNIVERSITY AVE  SAN DIEGO 92104,32.74819,-117.13429,,,,,,,
599,NORTH PARK ADULT CENTER,2719 HOWARD AVE  SAN DIEGO 92104,32.75381,-117.13452,,,,,,,
600,WESTFIELD NORTH COUNTY - COMMUNITY ROOM,272 E VIA RANCHO PKWY  ESCONDIDO 92025,33.07084,-117.06597,,,,,,,
601,NEW HOPE COMMUNITY CHURCH-GYM,2720 OLYMPIC PKWY  CHULA VISTA 91915,32.63166,-116.93957,,,,,,,
602,LINCOLN ACRES LIBRARY AND COMMUNITY ROOM,2725 GRANGER AVE  NATIONAL CITY 91950,32.66661,-117.07141,,,,,,,
603,CAL FIRE STATION #87,27330 HY 78  RAMONA 92065,33.06901,-116.74203,,,,,,,
604,JONES ELEMENTARY SCHOOL-MPR,2751 GREYLING DR  SAN DIEGO 92123,32.79555,-117.14081,,,,,,,
605,GARAGE-PATTERSON RESIDENCE,2768 DUNDEE CT  CARLSBAD 92010,33.16253,-117.30139,,,,,,,
606,LINDA VISTA ELEM SCHOOL-AUDITORIUM,2772 ULRIC ST  SAN DIEGO 92111,32.79322,-117.17335,,,,,,,
607,PENN ELEMENTARY SCHOOL-RM 27,2797 UTICA DR  SAN DIEGO 92139,32.67388,-117.04727,,,,,,,
608,GARAGE-LA HAISE RESIDENCE,2803 SOMBROSA ST  CARLSBAD 92009,33.06921,-117.25128,,,,,,,
609,1ST BAPT CHR LEMON GROVE -SONSHINE HOUSE,2810 MAIN ST  LEMON GROVE 91945,32.73617,-117.03201,,,,,,,
610,MEADOWS COMMUNITY CENTER,28208 MEADOW GLEN WAY W  ESCONDIDO 92026,33.21529,-117.11551,,,,,,,
611,VALLEY CENTER PARKS AND REC DIST COMM HALL,28246 LILAC RD  VALLEY CENTER 92082,33.2202,-117.03858,,,,,,,
612,LIGHT OF THE VALLEY LUTHERAN CHURCH,28330 LILAC RD  VALLEY CENTER 92082,33.22355,-117.04286,,,,,,,
613,SAN MIGUEL FIRE AND RESCUE #15 - APP BAY,2850 VIA ORANGE WAY BUS.  SPRING VALLEY 91978,32.73016,-116.9698,,,,,,,
614,CARLSBAD BY THE SEA - ROCHAMBEAU RM,2855 CARLSBAD BLVD  CARLSBAD 92008,33.15917,-117.35274,,,,,,,
615,KRUEGER REALTY,28732 VALLEY CENTER RD  VALLEY CENTER 92082,33.23118,-117.03415,,,,,,,
616,VALLEY CENTER PAUMA ALT ED CTR-LOUNGE,28751 COLE GRADE RD  VALLEY CENTER 92082,33.23544,-117.02294,,,,,,,
617,CONGREGATIONAL TOWER,288 F ST  CHULA VISTA 91910,32.64107,-117.07902,,,,,,,
618,COMPASS BEACH HOMES,2888 MISSION BLVD  SAN DIEGO 92109,32.76543,-117.2515,,,,,,,
619,PINE VALLEY COMMUNITY CLUBHOUSE,28890 OLD HY 80  PINE VALLEY 91962,32.82159,-116.52838,,,,,,,
620,VISTA ASSEMBLY CHURCH,290 N MELROSE DR  VISTA 92083,33.19968,-117.25682,,,,,,,
621,GARAGE-CRAMER RESIDENCE,2903 CACATUA ST  CARLSBAD 92009,33.1118,-117.24074,,,,,,,
622,SPRINGDALE ESTATES,2907 S SANTA FE AVE  SAN MARCOS 92069,33.15814,-117.2033,,,,,,,
623,GARAGE-CHAVEZ RESIDENCE,2916 WINDING FENCE WAY  CHULA VISTA 91914,32.66514,-116.94445,,,,,,,
624,GARAGE-SPURLOCK RESIDENCE,2918 VIEJAS VIEW PL  ALPINE 91901,32.83011,-116.75031,,,,,,,
625,VALLEY CENTER BRANCH LIBRARY - ROOM 103,29200 COLE GRADE RD  VALLEY CENTER 92082,33.24255,-117.02446,,,,,,,
626,FILIPINO-AMERICAN VETERANS ASSN-HALL,2926 MARKET ST  SAN DIEGO 92102,32.71198,-117.13148,,,,,,,
627,BUDDHIST TEMPLE OF SD-SANGHA HALL,2929 MARKET ST  SAN DIEGO 92102,32.71126,-117.13139,,,,,,,
628,NEW SHILOH MISSIONARY BAPTIST CHURCH,2950 K ST  SAN DIEGO 92102,32.70878,-117.13084,,,,,,,
629,COMMUNITY ACTORS THEATRE,2957 54TH ST  SAN DIEGO 92105,32.73609,-117.0792,,,,,,,
630,GARAGE-AWBREY RESIDENCE,2958 DYE RD  RAMONA 92065,33.008,-116.90049,,,,,,,
631,GARAGE-KENNEDY RESIDENCE,2961 EDELL PL  SAN DIEGO 92117,32.83745,-117.22032,,,,,,,
632,JAMACHA ELEM SCHOOL-AUDITORIUM,2962 JAMUL DR SCHL  EL CAJON 92019,32.73958,-116.91189,,,,,,,
633,BROKEN ROCK RANCH,29701 MAC TAN RD  VALLEY CENTER 92082,33.25457,-116.986,,,,,,,
634,LAKE MORENA COMMUNITY CHR-SANCTUARY,29765 OAK DR  CAMPO 91906,32.67883,-116.50578,,,,,,,
635,CORONADO RETIREMENT VILLAGE,299 PROSPECT PL  CORONADO 92118,32.69381,-117.1677,,,,,,,
636,KING OF KINGS LUTHERAN CHR- FELLOW HALL,2993 MAC DONALD ST  OCEANSIDE 92054,33.19943,-117.3482,,,,,,,
637,CALAVERA COMMUNITY PARK - MEETING ROOM 2,2997 GLASGOW DR  CARLSBAD 92010,33.16604,-117.2992,,,,,,,
638,SYCUAN TRIBAL HALL - BUILDING 3,3 KWAAYPAAY CT  EL CAJON 92019,32.79001,-116.82838,,,,,,,
639,HILLTOP DRIVE ELEM SCHOOL-AUDITORIUM,30 MURRAY ST  CHULA VISTA 91910,32.63204,-117.0641,,,,,,,
640,PALOMAR ELEM SCHOOL-MULTIPURPOSE ROOM,300 E PALOMAR ST SCHL  CHULA VISTA 91911,32.61323,-117.04351,,,,,,,
641,OCEANSIDE CIVIC CTR-COMMUNITY ROOMS,300 N COAST HWY  OCEANSIDE 92054,33.19795,-117.37953,,,,,,,
642,LEMON GROVE LIBRARY-COMMUNITY RM,3001 SCHOOL LN  LEMON GROVE 91945,32.73866,-117.02936,,,,,,,
643,BEAR VALLEY MID SCHOOL-STAFF LOUNGE,3003 BEAR VALLEY PKWY  ESCONDIDO 92025,33.08425,-117.05771,,,,,,,
644,CAPTIVATE CHURCH,3010 N EVERGREEN ST  SAN DIEGO 92110,32.74782,-117.20941,,,,,,,
645,HOPE ELEM SCHOOL-MEDIA CTR,3010 TAMARACK AVE SCHL  CARLSBAD 92010,33.17073,-117.30476,,,,,,,
646,OAKMONT OF ESCONDIDO HILLS,3012 BEAR VALLEY PKWY  ESCONDIDO 92025,33.08301,-117.05532,,,,,,,
647,LOGAN TEMPLE AME ZION CHURCH,302 S 32ND ST  SAN DIEGO 92113,32.70301,-117.12554,,,,,,,
648,MONTGOMERY WALLER REC CTR-MEETING RM,3020 CORONADO AVE  SAN DIEGO 92154,32.57906,-117.06884,,,,,,,
649,ST GEORGES SERBIAN ORTHODOX CHR-HALL,3025 DENVER ST  SAN DIEGO 92117,32.7946,-117.20197,,,,,,,
650,CHRIST UNITED PRESBYTERIAN CHR-CHAPEL,3025 FIR ST  SAN DIEGO 92102,32.72514,-117.12965,,,,,,,
651,GARAGE-KIRSCHENMANN RESIDENCE,3027 AZAHAR CT  CARLSBAD 92009,33.08406,-117.2404,,,,,,,
652,FOODLAND GROCERY STORE-CORNER ENTRANCE,303 HIGHLAND AVE  NATIONAL CITY 91950,32.68273,-117.09973,,,,,,,
653,S D INDOOR SPORTS CLUB BOARD-CONF RM,3030 FRONT ST  SAN DIEGO 92103,32.73705,-117.1654,,,,,,,
654,TRINITY UNITED METHODIST CHURCH HALL,3030 THORN ST  SAN DIEGO 92104,32.73951,-117.12852,,,,,,,
655,MC KINLEY ELEM SCHOOL-AUDITORIUM,3045 FELTON ST  SAN DIEGO 92104,32.73684,-117.12096,,,,,,,
656,BONITA VIEW CLUBHOUSE,3045 PLAZA ANITA  BONITA 91902,32.67864,-117.02804,,,,,,,
657,GIRL SCOUTS ESCONDIDO CENTER,3050 LAS PALMAS AVE  ESCONDIDO 92025,33.08475,-117.06171,,,,,,,
658,CABRILLO RECREATION CTR-MPR,3051 CANON ST  SAN DIEGO 92106,32.72174,-117.23273,,,,,,,
659,GARAGE-DALTON RESIDENCE,3054 COLUMBIA ST  SAN DIEGO 92103,32.73573,-117.17378,,,,,,,
660,CALVARY LUTHERAN CHURCH-AUDITORIUM,3060 54TH ST  SAN DIEGO 92105,32.73715,-117.08106,,,,,,,
661,GARAGE-MILLER RESIDENCE,3075 CURLEW ST  SAN DIEGO 92103,32.73754,-117.1674,,,,,,,
662,BETHEL MEMORIAL A.M.E. CHR-FELLOWSHIP HL,3085 K ST  SAN DIEGO 92102,32.70817,-117.12774,,,,,,,
663,SOLANA BEACH SCHL DIST OFFICE-BOARD ROOM,309 N RIOS AVE  SOLANA BEACH 92075,32.99559,-117.27062,,,,,,,
664,MISSIONGATHERING CHRISTIAN CHR-SANCTUARY,3090 POLK AVE  SAN DIEGO 92104,32.75252,-117.12806,,,,,,,
665,ST PAULS UNITED METHODIST CHR-FLLWSHP HL,3094 L ST  SAN DIEGO 92102,32.70791,-117.12797,,,,,,,
666,WARNER SPRINGS COMMUNITY RESOURCE CENTER,30950 HY 79 SCHL  WARNER SPRINGS 92086,33.27377,-116.64246,,,,,,,
667,GARAGE-CAMERON RESIDENCE,3104 VIA LOMA VISTA  ESCONDIDO 92029,33.07622,-117.09492,,,,,,,
668,STONECREST VLG MASTER ASSOC-BANQUET RM,3110 WEST CANYON AVE  SAN DIEGO 92123,32.8012,-117.11901,,,,,,,
669,NEW CREATION CHURCH,3115 ALTADENA AVE POLL  SAN DIEGO 92105,32.73765,-117.08861,,,,,,,
670,TIBURON TANGLEWOOD CLUBHOUSE,3115 AVENIDA DE ANITA  CARLSBAD 92010,33.17242,-117.32041,,,,,,,
671,LOMA RIVIERA CLUBHOUSE,3115 LOMA RIVIERA DR  SAN DIEGO 92110,32.75504,-117.2249,,,,,,,
672,GARAGE-BALM RESIDENCE,3118 THUNDER DR  OCEANSIDE 92056,33.18958,-117.28798,,,,,,,
673,LIVING ROOM-PARRA RESIDENCE,3127 KALMIA ST  SAN DIEGO 92104,32.73031,-117.12682,,,,,,,
674,OUR MOTHER OF CONFIDENCE CHURCH,3131 GOVERNOR DR BUS  SAN DIEGO 92122,32.85056,-117.21806,,,,,,,
675,ART PRODUCE,3139 UNIVERSITY AVE  SAN DIEGO 92104,32.74828,-117.12634,,,,,,,
676,GARAGE-GALINDO RESIDENCE,3144 POCITOS WAY  SAN YSIDRO 92173,32.56526,-117.06334,,,,,,,
677,FOOTHILLS CHRISTIAN CHURCH-MPR,315 W BRADLEY AVE  EL CAJON 92020,32.81812,-116.96445,,,,,,,
678,BONSALL COMMUNITY CTR-MAIN RM,31505 OLD RIVER RD SCHL  BONSALL 92003,33.2871,-117.21892,,,,,,,
679,SAN DIEGO UNIFIED PORT DISTRICT,3165 PACIFIC HWY  SAN DIEGO 92101,32.73531,-117.17707,,,,,,,
680,KEARNY MESA REC CTR-GAME ROOM,3170 ARMSTRONG ST POLL  SAN DIEGO 92111,32.80187,-117.16519,,,,,,,
681,1ST CHRISTIAN CHURCH,318 W FIG ST  FALLBROOK 92028,33.38089,-117.25392,,,,,,,
682,GARAGE-BLOOM RESIDENCE,319 VIA ANDALUSIA  ENCINITAS 92024,33.0517,-117.26607,,,,,,,
683,STEELE CANYON GOLF CLUB,3199 STONEFIELD DR  JAMUL 91935,32.74363,-116.89435,,,,,,,
684,WAY OF LIFE CHURCH,3200 STAR ACRES DR  SPRING VALLEY 91978,32.72781,-116.92013,,,,,,,
685,GARAGE-CALLENDER RESIDENCE,3204 FOSCA ST  CARLSBAD 92009,33.09241,-117.23516,,,,,,,
686,LEMON GROVE UNITED METHODIST CHR,3205 WASHINGTON ST  LEMON GROVE 91945,32.74141,-117.02281,,,,,,,
687,GARAGE-MENDOZA RESIDENCE,3207 MEADOW SIDE PL  ESCONDIDO 92027,33.14797,-117.02484,,,,,,,
688,FALLBROOK UN ELEM OFFCE-RM 6 PROF DEV RM,321 IOWA ST SCHL  FALLBROOK 92028,33.38403,-117.2471,,,,,,,
689,1ST BAPTIST CHR OF CLAIREMONT-FOYER,3219 CLAIREMONT MESA BLVD  SAN DIEGO 92117,32.83073,-117.21621,,,,,,,
690,NC-LGBTQ RESOURCE CENTER,3220 MISSION AVE 2  OCEANSIDE 92058,33.21434,-117.34766,,,,,,,
691,MONTE VISTA HIGH SCHOOL-COMMUNITY RM,3230 SWEETWATER SPRINGS BLVD SCHL  SPRING VALLEY 91977,32.73658,-116.97352,,,,,,,
692,IRA HARBISON ELEM SCHOOL-AUDITORIUM,3235 E 8TH ST  NATIONAL CITY 91950,32.68589,-117.07316,,,,,,,
693,MT MIGUEL COVENANT VILLAGE-BAILEY CENTER,325 KEMPTON ST POLL  SPRING VALLEY 91977,32.70266,-117.00069,,,,,,,
694,MONTGOMERY HIGH SCHOOL-LIBRARY,3250 PALM AVE  SAN DIEGO 92154,32.58394,-117.06266,,,,,,,
695,GARAGE-SCHMITT RESIDENCE,3253 AVENIDA DE SUENO  CARLSBAD 92009,33.06337,-117.23861,,,,,,,
696,7TH DAY ADVENTIST N COAST CHRISTIAN CHR,3254 EUREKA PL  CARLSBAD 92008,33.1605,-117.33881,,,,,,,
697,SAN MIGUEL FIRE AND RESCUE #14,3255 HELIX ST  SPRING VALLEY 91977,32.74171,-116.99826,,,,,,,
698,FATHER RAYMOND MOORE HALL,3256 MADISON ST  CARLSBAD 92008,33.15797,-117.344,,,,,,,
699,ST AUGUSTINE HIGH SCHOOL-RM 101,3266 NUTMEG ST  SAN DIEGO 92104,32.73473,-117.12408,,,,,,,
700,GARAGE-WARNER RESIDENCE,3285 GALLOWAY DR  SAN DIEGO 92122,32.85702,-117.21334,,,,,,,
701,CHRIST UNITED METHODIST CHURCH - HALL,3295 MEADE AVE  SAN DIEGO 92116,32.7569,-117.12266,,,,,,,
702,EL CORAZON SENIOR CENTER - MPR,3302 SENIOR CENTER DR  OCEANSIDE 92056,33.2061,-117.31486,,,,,,,
703,GARAGE-BUSH RESIDENCE,331 LA PURISMA WAY  OCEANSIDE 92057,33.23351,-117.29964,,,,,,,
704,WOMANS CLUB OF CARLSBAD-MAIN HALL,3320 MONROE ST  CARLSBAD 92008,33.16663,-117.32928,,,,,,,
705,BUDDHIST TEMPLE,3322 CENTRAL AVE  SAN DIEGO 92105,32.7408,-117.10869,,,,,,,
706,ST COLUMBA CATHOLIC CHURCH HALL,3327 GLENCOLUM DR  SAN DIEGO 92123,32.80445,-117.13346,,,,,,,
707,ST PETERS EPISCOPAL-PARISH HALL,334 14TH ST  DEL MAR 92014,32.95915,-117.26435,,,,,,,
708,LOMA PORTAL ELEM SCH-ROOM 10,3341 BROWNING ST  SAN DIEGO 92106,32.73989,-117.22186,,,,,,,
709,TOLER ELEM SCHOOL-AUDITORIUM,3350 BAKER ST  SAN DIEGO 92117,32.80141,-117.21015,,,,,,,
710,GARAGE-STELL RESIDENCE,3374 SOL VISTA  FALLBROOK 92028,33.38695,-117.1889,,,,,,,
711,GARAGE-LAGEDER RESIDENCE,3388 SOYLA DR  OCEANSIDE 92058,33.22448,-117.3484,,,,,,,
712,RAMONA UNITED METHODIST CHURCH,3394 CHAPEL LN  RAMONA 92065,33.01093,-116.90921,,,,,,,
713,EL CAMINO MEMORIAL,340 MELROSE AVE  ENCINITAS 92024,33.05509,-117.29815,,,,,,,
714,PIAZZA D ORO - CLUBHOUSE,3402 PIAZZA DE ORO WAY  OCEANSIDE 92056,33.18218,-117.31353,,,,,,,
715,FALLBROOK COMMUNITY CTR-EUCALYPTUS RM,341 HEALD LN  FALLBROOK 92028,33.37771,-117.23593,,,,,,,
716,1ST UNITED METHODIST CHR-SOCIAL HALL,341 S KALMIA ST  ESCONDIDO 92025,33.11979,-117.07872,,,,,,,
717,GARAGE-SMITH RESIDENCE,3410 AVOCADO VISTA LN  FALLBROOK 92028,33.32744,-117.1481,,,,,,,
718,GARAGE-GRAHAM RESIDENCE,3411 AVENIDA SIERRA  ESCONDIDO 92029,33.06523,-117.07762,,,,,,,
719,SAN MARCOS LUTH CHURCH-FELLOWSHIP HALL,3419 GRAND AVE  SAN MARCOS 92078,33.14761,-117.20675,,,,,,,
720,EMMANUEL BIBLE CHURCH-MEETING HALL,342 EUCALYPTUS AVE  VISTA 92084,33.2016,-117.23942,,,,,,,
721,SAN DIEGO CHINESE MANDARIN CHURCH,3441 CLAIREMONT MESA BLVD  SAN DIEGO 92117,32.82786,-117.21219,,,,,,,
722,CENTERPOINTE CHURCH,3441 MAIN ST 106  CHULA VISTA 91911,32.59442,-117.05954,,,,,,,
723,GRACE BRETHREN CHURCH - FELLOWSHIP HALL,3455 ATLAS ST  SAN DIEGO 92111,32.80695,-117.15781,,,,,,,
724,GREEK ORTHODOX CHURCH,3459 MANCHESTER AVE  CARDIFF BY THE SEA 92007,33.01864,-117.25696,,,,,,,
725,HILLTOP TABERNACLE,346 L ST  CHULA VISTA 91911,32.61981,-117.07311,,,,,,,
726,CARLSBAD FIRE STATION #3,3465 TRAILBLAZER WAY FIRE  CARLSBAD 92010,33.15253,-117.2962,,,,,,,
727,GARAGE-MURILLO RESIDENCE,3469 DORCHESTER DR  SAN DIEGO 92123,32.8067,-117.12443,,,,,,,
728,ADAMS RECREATION CENTER-CRAFT RM,3491 ADAMS AVE  SAN DIEGO 92116,32.76317,-117.11754,,,,,,,
729,EMERALD LAKE VILLAGE CLUBHOUSE,3499 AMBER LN  OCEANSIDE 92056,33.17955,-117.27414,,,,,,,
730,AMERICAN LEGION POST 255 - MEETING ROOM,35 E 18TH ST  NATIONAL CITY 91950,32.66768,-117.10287,,,,,,,
731,ST MARKS METHODIST CHURCH-SOCIAL HALL,3502 CLAIREMONT DR  SAN DIEGO 92117,32.80414,-117.20023,,,,,,,
732,WARNER SPRINGS ESTATES,35109 HY 79  WARNER SPRINGS 92086,33.35003,-116.73581,,,,,,,
733,GARAGE-WILSON RESIDENCE,3512 LANDSFORD WAY  CARLSBAD 92010,33.17414,-117.29846,,,,,,,
734,BALBOA NURSING AND REHAB CENTER,3520 4TH AVE  SAN DIEGO 92103,32.74197,-117.16181,,,,,,,
735,BROOKDALE OCEANSIDE,3524 LAKE BLVD  OCEANSIDE 92056,33.18073,-117.28975,,,,,,,
736,GARAGE-WICK RESIDENCE,3545 VISTA CORONA  FALLBROOK 92028,33.32602,-117.21272,,,,,,,
737,GROVE CHRISTIAN FELLOWSHIP CHR-STUDY 2,3552 COLLEGE AVE  SAN DIEGO 92115,32.74496,-117.05712,,,,,,,
738,GREATER GOSPEL CTR FELLOWSHIP HALL,3570 WEBSTER AVE  SAN DIEGO 92113,32.70472,-117.11742,,,,,,,
739,COMMUNITY LUTHERAN CHURCH,3575 E VALLEY PKWY  ESCONDIDO 92027,33.1598,-117.02976,,,,,,,
740,PACIFICA CLUBHOUSE,3578 TWILIGHT LN  OCEANSIDE 92056,33.17857,-117.28119,,,,,,,
741,"ST PATRICKS CATHOLIC PARISH, REAR HALL",3585 30TH ST  SAN DIEGO 92104,32.7439,-117.12981,,,,,,,
742,STANDLEY PARK AND REC CTR-GAME RM,3585 GOVERNOR DR POLL  SAN DIEGO 92122,32.85117,-117.21028,,,,,,,
743,PALA TRIBAL COMMUNITY HALL-OLD HALL,35955 PALA TEMECULA RD  PALA 92059,33.36657,-117.07566,,,,,,,
744,SOUTH CLAIREMONT REC CTR-AUDITORIUM,3605 CLAIREMONT DR  SAN DIEGO 92117,32.80636,-117.2005,,,,,,,
745,ENCINITAS COUNTRY DAY SCHOOL-LIBRARY,3616 MANCHESTER AVE  ENCINITAS 92024,33.02169,-117.25338,,,,,,,
746,CORAL TREE PLAZA CLUBHOUSE,3634 7TH AVE  SAN DIEGO 92103,32.74368,-117.15869,,,,,,,
747,GARAGE-GOLYNSKIY RESIDENCE,3637 TAVARA CIR  SAN DIEGO 92117,32.82314,-117.20962,,,,,,,
748,EMBASSY HOTEL-LOBBY,3645 PARK BLVD  SAN DIEGO 92103,32.7442,-117.14702,,,,,,,
749,CHULA VISTA CIVIC CENTER LIBRARY-CONF RM,365 F ST  CHULA VISTA 91910,32.64094,-117.08336,,,,,,,
750,MERKLEY MITCHELL MORTUARY,3655 5TH AVE  SAN DIEGO 92103,32.7444,-117.16016,,,,,,,
751,CAL FIRE STATION #10,3660 E MISSION RD  FALLBROOK 92028,33.39099,-117.18435,,,,,,,
752,TERRA MAR HOA CLUBHOUSE,3667 VIA DEL SUR  OCEANSIDE 92056,33.16969,-117.2562,,,,,,,
753,BEACONS BIBLE CHURCH-STEPHEN HALL,367 LA VETA AVE  ENCINITAS 92024,33.05556,-117.2985,,,,,,,
754,GARAGE-WARD RESIDENCE,3671 BYRD ST  SAN DIEGO 92154,32.58434,-117.05462,,,,,,,
755,GARAGE-KOSSIVAS RESIDENCE,3681 NETTLE PL  FALLBROOK 92028,33.32563,-117.19933,,,,,,,
756,GARAGE-DICK RESIDENCE,3686 LANDFAIR CT  SAN DIEGO 92130,32.95988,-117.23771,,,,,,,
757,GARAGE-GILBERT RESIDENCE,3694 LELAND ST  SAN DIEGO 92106,32.74962,-117.21959,,,,,,,
758,NORTH PARK COMMUNITY CHURCH,3702 29TH ST  SAN DIEGO 92104,32.74549,-117.1313,,,,,,,
759,GARAGE-SLAGHT RESIDENCE,3709 SOUTHERNWOOD WAY  SAN DIEGO 92106,32.72027,-117.24364,,,,,,,
760,APOSTOLIC CHURCH SD #3,3714 TEAK ST  SAN DIEGO 92113,32.70103,-117.11423,,,,,,,
761,CALVARY CHAPEL OCEANSIDE,3715 OCEANIC WAY  OCEANSIDE 92056,33.20482,-117.30812,,,,,,,
762,GARAGE-MINUTELLI RESIDENCE,3723 LYNDA PL  NATIONAL CITY 91950,32.66109,-117.0593,,,,,,,
763,VALLEY VISTA ELEM SCHOOL-AUDITORIUM,3724 VALLEY VISTA WAY  BONITA 91902,32.6597,-117.04847,,,,,,,
764,SILVER WING ELEM SCHOOL-YMCA RM 603,3730 AREY DR  SAN DIEGO 92154,32.57957,-117.05318,,,,,,,
765,CHEROKEE POINT ELEM SCHOOL-AUDITORIUM,3735 38TH ST  SAN DIEGO 92105,32.74738,-117.11121,,,,,,,
766,SILVER WING PARK AND REC CTR-ACTIVITY RM,3737 AREY DR  SAN DIEGO 92154,32.57757,-117.05283,,,,,,,
767,PHILS EVENT CENTER,3740 SPORTS ARENA BLVD 10  SAN DIEGO 92110,32.75539,-117.21525,,,,,,,
768,BETHANIA CHURCH SOCIAL HALL,3745 ACACIA ST  SAN DIEGO 92113,32.68942,-117.11372,,,,,,,
769,NORMAL HEIGHTS ELEM SCHOOL-MPR,3750 WARD RD  SAN DIEGO 92116,32.76094,-117.11286,,,,,,,
770,ST JUDES COMMUNITY CENTER - ROOM A,3751 BOSTON AVE  SAN DIEGO 92113,32.69367,-117.11301,,,,,,,
771,UNITY SAN DIEGO,3770 ALTADENA AVE CHR  SAN DIEGO 92105,32.74632,-117.08568,,,,,,,
772,CARMEL VALLEY REC CENTER - MPR 2,3777 TOWNSGATE DR  SAN DIEGO 92130,32.94846,-117.23417,,,,,,,
773,LA MESA HEALTHCARE CENTER-SPARE RM,3780 MASSACHUSETTS AVE  LA MESA 91941,32.74585,-117.04331,,,,,,,
774,NEW SONG CARLSBAD-FELLOWSHIP HL,3780 PIO PICO DR CHR  CARLSBAD 92008,33.15457,-117.337,,,,,,,
775,GARAGE-ADAME RESIDENCE,3786 CORAL SHORES CT  SAN YSIDRO 92173,32.54448,-117.04918,,,,,,,
776,NORTH PARK LIBRARY,3795 31ST ST  SAN DIEGO 92104,32.7472,-117.1268,,,,,,,
777,CITY HEIGHTS/WEINGART LIBRARY,3795 FAIRMOUNT AVE  SAN DIEGO 92105,32.74745,-117.10037,,,,,,,
778,MC DANIEL TAX,3802 ADAMS AVE  SAN DIEGO 92116,32.76339,-117.112,,,,,,,
779,MAKERS CHURCH-LOBBY,3810 BANCROFT ST  SAN DIEGO 92104,32.74772,-117.12422,,,,,,,
780,GARAGE-GOODWIN RESIDENCE,3814 KELTON DR  OCEANSIDE 92056,33.20033,-117.30263,,,,,,,
781,WILSON MIDDLE SCHOOL-AUDITORIUM,3838 ORANGE AVE  SAN DIEGO 92105,32.75397,-117.11122,,,,,,,
782,GARAGE-DAUDET RESIDENCE,3842 TIARA ST  SAN DIEGO 92111,32.81414,-117.16312,,,,,,,
783,SHADOW MOUNTAIN,3844 GEORGIA ST  SAN DIEGO 92103,32.74814,-117.14525,,,,,,,
784,AVOCADO ELEM SCHOOL-AUDITORIUM,3845 AVOCADO SCHOOL RD SCHL  LA MESA 91941,32.75056,-116.9602,,,,,,,
785,LA SCALA APARTMENTS,3845 NOBEL DR APT  SAN DIEGO 92122,32.86804,-117.2237,,,,,,,
786,SAN DIEGO CHURCH OF BRETHREN-SANCTUARY,3850 WESTGATE PL  SAN DIEGO 92105,32.72756,-117.1111,,,,,,,
787,SWEETWATER WOMANS CLUB,3855 SWEETWATER RD  BONITA 91902,32.6607,-117.04426,,,,,,,
788,SPRECKELS MASONIC TEMPLE - DINING HALL,3858 FRONT ST  SAN DIEGO 92103,32.74791,-117.1654,,,,,,,
789,MISSION BRANCH LIBRARY-COMMUNITY RM,3861 MISSION AVE B  OCEANSIDE 92058,33.22597,-117.3285,,,,,,,
790,DIOCESAN PASTORAL CENTER-LOBBY,3888 PADUCAH DR  SAN DIEGO 92117,32.81203,-117.21356,,,,,,,
791,SOUTH CHULA VISTA LIBRARY-CONF A,389 ORANGE AVE  CHULA VISTA 91911,32.60191,-117.06855,,,,,,,
792,1ST CHURCH OF THE NAZARENE - BOWES CONF,3901 LOMALAND DR  SAN DIEGO 92106,32.71921,-117.24975,,,,,,,
793,SOLANA PACIFIC SCHOOL-THEATRE,3901 TOWNSGATE DR SCHL  SAN DIEGO 92130,32.95154,-117.23128,,,,,,,
794,TRINITY PRESBYTERIAN CHR-SANCTUARY FOYER,3902 KENWOOD DR  SPRING VALLEY 91977,32.74958,-117.00764,,,,,,,
795,GARAGE-FORBES RESIDENCE,3907 HAWK ST  SAN DIEGO 92103,32.74839,-117.17199,,,,,,,
796,SAN DIEGO LGBT COMMUNITY CENTER,3909 CENTRE ST  SAN DIEGO 92103,32.74894,-117.14766,,,,,,,
797,FLORENCE ELEM SCHOOL-AUDITORIUM,3914 1ST AVE SCHL  SAN DIEGO 92103,32.7489,-117.1643,,,,,,,
798,GARAGE-HERRERA RESIDENCE,3914 BIDDLE ST  SAN DIEGO 92111,32.81532,-117.16779,,,,,,,
799,CARMEL VALLEY BRANCH LIBRARY-COMM. RM,3919 TOWNSGATE DR  SAN DIEGO 92130,32.95224,-117.23069,,,,,,,
800,GARAGE-REICHERT RESIDENCE,3932 HUGHES CT  SAN DIEGO 92115,32.74635,-117.07275,,,,,,,
801,GARAGE-SHINKLE RESIDENCE,3935 CENTRALOMA DR  SAN DIEGO 92107,32.73719,-117.23332,,,,,,,
802,GARAGE-YODER RESIDENCE,3935 SANTA NELLA PL  SAN DIEGO 92130,32.94167,-117.22313,,,,,,,
803,GARAGE-SULZMANN RESIDENCE,3937 ARISTA WAY  OCEANSIDE 92058,33.23741,-117.32568,,,,,,,
804,DOYLE ELEM SCHOOL-LOUNGE,3950 BERINO CT SCHL  SAN DIEGO 92122,32.86315,-117.22058,,,,,,,
805,"FINNEY, MYRTLE S ELEM SCHOOL-AUDITORIUM",3950 BYRD ST  SAN DIEGO 92154,32.58505,-117.04934,,,,,,,
806,GARAGE-TEAL-KUZMACK RESIDENCE,3970 GARFIELD ST  CARLSBAD 92008,33.14756,-117.34296,,,,,,,
807,GARAGE-BEATTY RESIDENCE,3974 BROWN ST  OCEANSIDE 92056,33.18792,-117.29713,,,,,,,
808,NEW SONG COMMUNITY CHURCH-HALL,3985 MISSION AVE  OCEANSIDE 92058,33.22849,-117.32116,,,,,,,
809,CHURCH OF THE GOOD SHEPHERD,3990 BONITA RD  BONITA 91902,32.65708,-117.04012,,,,,,,
810,OCEANSIDE FIRE STATION #4,3990 LAKE BLVD  OCEANSIDE 92056,33.18058,-117.28828,,,,,,,
811,LANTERN CREST SENIOR LIVING-LOBBY,400 LANTERN CREST WAY  SANTEE 92071,32.83205,-116.9589,,,,,,,
812,NEW VENTURE CHRISTIAN FELLOWSHIP-LOBBY,4000 MYSTRA DR  OCEANSIDE 92056,33.16513,-117.27018,,,,,,,
813,BOULEVARD FIRE STATION #47,40080 RIBBONWOOD RD  BOULEVARD 91905,32.67233,-116.29084,,,,,,,
814,GARAGE-PETREE RESIDENCE,401 SANTA DOMINGA  SOLANA BEACH 92075,33.00249,-117.25583,,,,,,,
815,ATRIA LA JOLLA - LIVING ROOM,4025 PULITZER PL  SAN DIEGO 92122,32.86551,-117.21704,,,,,,,
816,FOOTHILLS UNITED METHODIST-CHOIR RM,4031 AVOCADO BLVD  LA MESA 91941,32.75238,-116.96137,,,,,,,
817,CROWN POINT SCHOOL-AUDITORIUM,4033 INGRAHAM ST  SAN DIEGO 92109,32.79335,-117.23863,,,,,,,
818,JACOBS CENTER - COMMUNITY ROOM,404 EUCLID AVE  SAN DIEGO 92114,32.70907,-117.08782,,,,,,,
819,THE ORCHARD APTS - BILLIARD ROOM,4040 HANCOCK ST  SAN DIEGO 92110,32.75569,-117.21717,,,,,,,
820,GREEN MANOR APTS-LAUNDRY ROOM,4041 IBIS ST  SAN DIEGO 92103,32.75047,-117.17293,,,,,,,
821,ALBA COMMUNITY DAY SCHOOL-STAFF LOUNGE,4041 OREGON ST  SAN DIEGO 92104,32.75092,-117.13492,,,,,,,
822,NORTH PARK RECREATION CENTER,4044 IDAHO ST  SAN DIEGO 92104,32.75095,-117.13415,,,,,,,
823,MISSION HILLS UNTD METHODIST-THE PARLOR,4044 LARK ST  SAN DIEGO 92103,32.7506,-117.17624,,,,,,,
824,WHITMAN ELEM SCHOOL-AUDITORIUM,4050 APPLETON ST SCHL  SAN DIEGO 92117,32.83651,-117.20419,,,,,,,
825,GARAGE-NICE RESIDENCE,4067 CALGARY AVE  SAN DIEGO 92122,32.857,-117.20282,,,,,,,
826,KNIGHTS OF COLUMBUS-HALL/SAN LUIS REY,4070 MISSION AVE  OCEANSIDE 92057,33.23262,-117.31721,,,,,,,
827,EDISON ELEMENTARY SCHOOL-COMPUTER LAB,4077 35TH ST SCHL  SAN DIEGO 92104,32.75109,-117.11779,,,,,,,
828,GARAGE-OWEN RESIDENCE,409 GRAPE ST  OCEANSIDE 92058,33.23536,-117.33048,,,,,,,
829,EDUCATION CENTER-CONFERENCE RM,4100 NORMAL ST  SAN DIEGO 92103,32.75401,-117.14817,,,,,,,
830,EDUCATION CENTER-HR RECEPTION AREA,4100 NORMAL ST  SAN DIEGO 92103,32.75401,-117.14817,,,,,,,
831,TRUE FAITH MISSIONARY BAPTIST CHR,4100 POPLAR ST  SAN DIEGO 92105,32.7337,-117.10701,,,,,,,
832,CHURCH OF JESUS CHRIST - MEETING HALL,4101 48TH ST  SAN DIEGO 92105,32.75157,-117.09087,,,,,,,
833,GARAGE-DIPAOLO RESIDENCE,4113 HILLDALE RD  SAN DIEGO 92116,32.76995,-117.10738,,,,,,,
834,GARAGE-FRANZ/GIARDINA RESIDENCE,4117 SHERWIN PL  LA MESA 91941,32.7521,-116.97685,,,,,,,
835,LAWRENCE FAMILY JCC - REHEARSAL ROOM,4126 EXECUTIVE DR  LA JOLLA 92037,32.87574,-117.21461,,,,,,,
836,LINDBERGH SCHWEITZER SCHOOL-WEST AUDIT,4133 MT ALBERTINE AVE SCHL  SAN DIEGO 92111,32.81943,-117.1712,,,,,,,
837,31ST ST SDA CHURCH - GYM,414 S 31ST ST  SAN DIEGO 92113,32.70201,-117.12762,,,,,,,
838,MT SINAI BAPTIST CHURCH,4142 BROADWAY  SAN DIEGO 92102,32.71623,-117.10577,,,,,,,
839,SOUTHCREST REC CTR-MEETING RM,4149 NEWTON AVE  SAN DIEGO 92113,32.6931,-117.10588,,,,,,,
840,CLAIREMONT HIGH SCHOOL-AUDITORIUM FOYER,4150 UTE DR  SAN DIEGO 92117,32.80927,-117.20234,,,,,,,
841,UNIVERSITY COMMUNITY BRANCH LIBRARY,4155 GOVERNOR DR  SAN DIEGO 92122,32.85403,-117.20096,,,,,,,
842,RANCH VIEW BAPTIST CHURCH,416 RANCHO SANTA FE RD  ENCINITAS 92024,33.04419,-117.23569,,,,,,,
843,EUCLID ELEM SCHOOL-AUDITORIUM,4166 EUCLID AVE  SAN DIEGO 92105,32.75249,-117.09301,,,,,,,
844,OUR LADY OF SACRED HEART PARISH,4177 MARLBOROUGH AVE  SAN DIEGO 92105,32.75302,-117.10549,,,,,,,
845,CHABAD OF DOWNTOWN,419 W G ST  SAN DIEGO 92101,32.7124,-117.1669,,,,,,,
846,CRAWFORD HIGH SCHOOL-AUDITORIUM,4191 COLTS WAY SCHL  SAN DIEGO 92115,32.75342,-117.07635,,,,,,,
847,NEW PARADISE BAPTIST CHURCH,420 68TH ST  SAN DIEGO 92114,32.70929,-117.0513,,,,,,,
848,CHURCH OF THE LOVING GOD-FELLOWSHIP HALL,4202 DELTA ST  SAN DIEGO 92113,32.68906,-117.10363,,,,,,,
849,VISTA LA MESA CHRISTIAN CHR HALL,4210 MASSACHUSETTS AVE  LA MESA 91941,32.75404,-117.04369,,,,,,,
850,LIBBY ELEMENTARY SCHOOL-CAFETERIA,423 W REDONDO DR  OCEANSIDE 92057,33.25176,-117.30534,,,,,,,
851,SAN YSIDRO LIBRARY-COMMUNITY ROOM,4235 BEYER BLVD  SAN YSIDRO 92173,32.55781,-117.04309,,,,,,,
852,NEW LIFE ASSEMBLY OF GOD CHURCH,424 LETTON ST  RAMONA 92065,33.03168,-116.88259,,,,,,,
853,CALVARY LUTHERAN CHURCH-FELLOWSHIP HALL,424 VIA DE LA VALLE  SOLANA BEACH 92075,32.98086,-117.26169,,,,,,,
854,NICHOLS ELEMENTARY SCHOOL-ROOM N-1,4250 OLD GROVE RD  OCEANSIDE 92057,33.23799,-117.31647,,,,,,,
855,CLAIREMONT MORTUARY CHAPEL,4266 MT ABERNATHY AVE  SAN DIEGO 92117,32.82221,-117.17597,,,,,,,
856,JOYNER ELEMENTARY SCHOOL - MPR,4271 MYRTLE AVE  SAN DIEGO 92105,32.74161,-117.10331,,,,,,,
857,EARL AND BIRDIE TAYLOR LIBRARY,4275 CASS ST  SAN DIEGO 92109,32.79421,-117.24993,,,,,,,
858,GARAGE-SCOTT RESIDENCE,4275 HERMOSA WAY  SAN DIEGO 92103,32.75328,-117.18024,,,,,,,
859,WHELAN RANCH CONDOS-REC RM,4275 HUMBOLDT BAY WAY  OCEANSIDE 92058,33.24667,-117.3277,,,,,,,
860,IVEY RANCH SCHOOL-MPR,4275 VIA RANCHO RD SCHL  OCEANSIDE 92057,33.22056,-117.30661,,,,,,,
861,CADMAN RECREATION CENTER-MEETING ROOM,4280 AVATI DR  SAN DIEGO 92117,32.82028,-117.21481,,,,,,,
862,GARAGE-KATZ RESIDENCE,4284 ADAMS AVE  SAN DIEGO 92116,32.76345,-117.10182,,,,,,,
863,CANYON VIEW CHURCH OF CHRIST HALL,4292 BALBOA AVE  SAN DIEGO 92117,32.81337,-117.19774,,,,,,,
864,ALLEN ELEMENTARY SCHOOL-RM 401,4300 ALLEN SCHOOL LN SCHL  BONITA 91902,32.65646,-117.03326,,,,,,,
865,ST MARGARETS CHURCH,4300 OCEANSIDE BLVD CHR  OCEANSIDE 92056,33.21022,-117.27909,,,,,,,
866,MID CITY COMMUNITY-GYMNASIUM LOBBY,4302 LANDIS ST  SAN DIEGO 92105,32.74673,-117.10163,,,,,,,
867,CORREIA MIDDLE SCHOOL-AUDITORIUM FOYER,4302 VALETA ST  SAN DIEGO 92107,32.747,-117.23123,,,,,,,
868,GARAGE-OCONNOR RESIDENCE,4312 RIDGEWAY  SAN DIEGO 92116,32.77469,-117.10347,,,,,,,
869,GOOD SAMARITAN EPISCOPAL CHURCH-HALL,4321 EASTGATE MALL  SAN DIEGO 92121,32.87716,-117.21344,,,,,,,
870,NORTHMINSTER PRESBYTERIAN CHURCH,4324 CLAIREMONT MESA BLVD  SAN DIEGO 92117,32.83454,-117.20032,,,,,,,
871,PHAT DA BUDDHIST CONGREGATION,4333 30TH ST  SAN DIEGO 92104,32.75615,-117.12974,,,,,,,
872,RAMONA COMM CTR-MULTI PURPOSE RM,434 AQUA LN  RAMONA 92065,33.04902,-116.8608,,,,,,,
873,EDUCATIONAL CULTURAL COMPLEX-2ND FLOOR,4343 OCEAN VIEW BLVD  SAN DIEGO 92113,32.69917,-117.10156,,,,,,,
874,MILLER ELEM SCHOOL-TEACHERS LOUNGE,4343 SHIELDS ST  SAN DIEGO 92124,32.81815,-117.10552,,,,,,,
875,BIRNEY ELEM SCHOOL-LIBRARY,4345 CAMPUS AVE SCHL  SAN DIEGO 92103,32.75621,-117.14845,,,,,,,
876,SAN YSIDRO MIDDLE SCHOOL - MCC,4345 OTAY MESA RD SCHL  SAN YSIDRO 92173,32.55998,-117.0391,,,,,,,
877,THE STUDIOS LUXURY MICRO APARTMENTS,435 13TH ST  SAN DIEGO 92101,32.70975,-117.15251,,,,,,,
878,BONITA MUSEUM,4355 BONITA RD  BONITA 91902,32.66099,-117.03459,,,,,,,
879,CADMAN ELEM SCHOOL-AUDITORIUM,4370 KAMLOOP AVE  SAN DIEGO 92117,32.82187,-117.21612,,,,,,,
880,LA MESA DALE ELEMENTARY SCHOOL-STAGE,4370 PARKS AVE  LA MESA 91941,32.75744,-117.03256,,,,,,,
881,GARAGE-HOSCH RESIDENCE,4371 MT EVEREST BLVD  SAN DIEGO 92117,32.82057,-117.18587,,,,,,,
882,NORTH COUNTY FIRE PROT DIST - STATION #4,4375 PALA MESA DR  FALLBROOK 92028,33.3408,-117.16071,,,,,,,
883,CCBA SENIOR GARDENS APTS-COMMUNITY RM,438 3RD AVE  SAN DIEGO 92101,32.71008,-117.16218,,,,,,,
884,CITY HEIGHTS RECREATION CTR-PRE-TEEN RM,4380 LANDIS ST  SAN DIEGO 92105,32.74614,-117.10014,,,,,,,
885,NORTH CLAIREMONT REC CTR-RM 2,4421 BANNOCK AVE  SAN DIEGO 92117,32.83237,-117.19738,,,,,,,
886,SAN DIEGO TAIWANESE PRESBYTERIAN CHURCH,4426 HARBINSON AVE  LA MESA 91942,32.7597,-117.04302,,,,,,,
887,JOHN MUIR SCHOOL-AUDITORIUM,4431 MT HERBERT AVE  SAN DIEGO 92117,32.82336,-117.19382,,,,,,,
888,PARK ENCINITAS RECREATION ROOM,444 N EL CAMINO REAL  ENCINITAS 92024,33.05726,-117.26343,,,,,,,
889,GARAGE-TAMAYO RESIDENCE,444 PAPAYA ST  VISTA 92083,33.20028,-117.27021,,,,,,,
890,SOLSTICE SR LIVING EL CAJON-ACTIVITY RM,444 PRESCOTT AVE  EL CAJON 92020,32.79139,-116.96082,,,,,,,
891,LAUREL BIBLE CHAPEL,4445 LAUREL ST  SAN DIEGO 92105,32.73115,-117.09894,,,,,,,
892,FIRST BAPTIST CHURCH CORONADO,445 C AVE  CORONADO 92118,32.69309,-117.1737,,,,,,,
893,GARAGE-PHOENIX RESIDENCE,4451 MUIR AVE  SAN DIEGO 92107,32.74542,-117.23773,,,,,,,
894,JACUMBA BRANCH LIBRARY,44605 OLD HY 80  JACUMBA 91934,32.61733,-116.18713,,,,,,,
895,HOOVER HIGH SCHOOL-800 BLDG JROTC RM,4474 EL CAJON BLVD BUS.  SAN DIEGO 92115,32.75759,-117.0978,,,,,,,
896,GARAGE-LURIE RESIDENCE,4485 OCEAN VALLEY LN  SAN DIEGO 92130,32.94989,-117.21888,,,,,,,
897,GARFIELD ELEM SCHOOL-COMMUNITY RM,4487 OREGON ST  SAN DIEGO 92116,32.7583,-117.13477,,,,,,,
898,FAIRWINDS IVEY RANCH-MULTIPURPOSE ROOM,4490 MESA DR  OCEANSIDE 92056,33.21963,-117.2999,,,,,,,
899,CORPUS CHRISTI CATHOLIC CHR-AQUINAS CTR,450 CORRAL CANYON RD  BONITA 91902,32.6587,-116.99706,,,,,,,
900,BLESSED SACRAMENT CHURCH-PARISH HALL,4510 EL CERRITO DR  SAN DIEGO 92115,32.75885,-117.07431,,,,,,,
901,ATLAS STORAGE CENTERS,4511 RIVIERA SHORES ST  SAN DIEGO 92154,32.57286,-117.03803,,,,,,,
902,GARAGE-HARGROVE RESIDENCE,4520 DICKEY DR  LA MESA 91941,32.76178,-116.96779,,,,,,,
903,SAN DIEGO BUDDHIST ASSOCIATION-TEA ROOM,4538 PARK BLVD  SAN DIEGO 92116,32.75998,-117.14656,,,,,,,
904,DIVERSIONARY THEATRE,4545 PARK BLVD  SAN DIEGO 92116,32.75996,-117.14591,,,,,,,
905,FLETCHER HILLS PRESBYTERIAN CHR-NARTHEX,455 CHURCH WAY  EL CAJON 92020,32.7998,-117.00038,,,,,,,
906,CESAR CHAVEZ COMMUNITY CTR-GYM,455 SYCAMORE RD POLL  SAN YSIDRO 92173,32.5467,-117.04537,,,,,,,
907,CLEAR VIEW ELEMENTARY SCHOOL-AUDITORIUM,455 WINDROSE WAY SCHL  CHULA VISTA 91910,32.64578,-117.04594,,,,,,,
908,GARAGE-HERNANDEZ RESIDENCE,4562 PASEO DE LA VISTA  BONITA 91902,32.673,-117.03624,,,,,,,
909,REYNOLDS ELEMENTARY SCHOOL-MPR,4575 DOUGLAS DR SCHL  OCEANSIDE 92057,33.25648,-117.31268,,,,,,,
910,BOOMERANGS GOURMET BURGER JOINT,4577 CLAIREMONT DR  SAN DIEGO 92117,32.82707,-117.20573,,,,,,,
911,STAX UP STORAGE,458 E MISSION RD  SAN MARCOS 92069,33.14593,-117.15373,,,,,,,
912,GARAGE-CHRISTENSEN RESIDENCE,4599 VIA PALABRA  SAN DIEGO 92124,32.82395,-117.08322,,,,,,,
913,GARAGE-WATTS RESIDENCE,4605 ORTEN ST  SAN DIEGO 92110,32.78161,-117.20108,,,,,,,
914,GARAGE-CAMANA RESIDENCE,4622 GRANDVIEW TER  LA MESA 91941,32.76162,-116.98391,,,,,,,
915,GARAGE-THOMAS RESIDENCE,4625 YERBA SANTA DR  SAN DIEGO 92115,32.77546,-117.09591,,,,,,,
916,GRACE CHURCH OF SAN DIEGO - COTTAGE,4645 OREGON ST  SAN DIEGO 92116,32.76189,-117.13477,,,,,,,
917,NORMAL HEIGHTS COMMUNITY CENTER-HALL,4649 HAWLEY BLVD  SAN DIEGO 92116,32.76202,-117.11926,,,,,,,
918,RANCHO MONSERATE MHP - POKER ROOM,4650 DULIN RD POLL  FALLBROOK 92028,33.31758,-117.16391,,,,,,,
919,GARAGE-KNOBBE RESIDENCE,4650 JERI WAY  EL CAJON 92020,32.76362,-116.94484,,,,,,,
920,NORMAL HEIGHTS UNITED METHODIST CHR-HALL,4650 MANSFIELD ST  SAN DIEGO 92116,32.76266,-117.11862,,,,,,,
921,GRACE ASSEMBLY CHURCH - ED BLDG,4660 ZION AVE  SAN DIEGO 92120,32.7933,-117.09499,,,,,,,
922,REFORMATION LUTHERAN CHURCH,4670 MT ABERNATHY AVE  SAN DIEGO 92117,32.82788,-117.17229,,,,,,,
923,TECOLOTE RECREATION CENTER-GAME ROOM,4675 TECOLOTE RD  SAN DIEGO 92110,32.77485,-117.20016,,,,,,,
924,ALCOTT ELEM SCHOOL-AUDITORIUM,4680 HIDALGO AVE  SAN DIEGO 92117,32.83266,-117.22104,,,,,,,
925,SEQUOIA ELEM SCHOOL-AUDITORIUM,4690 LIMERICK AVE  SAN DIEGO 92117,32.82845,-117.18015,,,,,,,
926,LA MESA 1ST UNITED METHODIST CHR HALL,4690 PALM AVE  LA MESA 91941,32.76379,-117.01858,,,,,,,
927,AMERICAN LEGION POST #434,47 5TH AVE  CHULA VISTA 91910,32.64884,-117.09141,,,,,,,
928,LIGHTHOUSE CHRISTIAN CHURCH,4700 MESA DR  OCEANSIDE 92056,33.2265,-117.29108,,,,,,,
929,OCEAN HILLS CNTRY CLUB-CLUBHOUSE,4701 LEISURE VILLAGE WAY  OCEANSIDE 92056,33.15437,-117.26486,,,,,,,
930,MOTTINO FAMILY YMCA- MULTI PURPOSE A,4701 MESA DR  OCEANSIDE 92056,33.2249,-117.29099,,,,,,,
931,ROWLAND REALTY,4725 VOLTAIRE ST  SAN DIEGO 92107,32.74903,-117.24202,,,,,,,
932,OCEAN BEACH REC CTR-CRAFT ROOM,4726 SANTA MONICA AVE  SAN DIEGO 92107,32.74512,-117.24546,,,,,,,
933,GARAGE-TAPIA RESIDENCE,473 SMOKY CIR  CHULA VISTA 91910,32.64338,-117.04684,,,,,,,
934,GARAGE-WEISS RESIDENCE,473 WILLIS CT  EL CAJON 92020,32.79919,-116.99099,,,,,,,
935,1ST BAPTIST CHURCH OF PACIFIC BEACH,4747 SOLEDAD MOUNTAIN RD  SAN DIEGO 92109,32.80785,-117.22519,,,,,,,
936,HALECREST ELEM SCHOOL-MPR,475 E J ST SCHL  CHULA VISTA 91910,32.63489,-117.04428,,,,,,,
937,HAWTHORNE ELEM SCHOOL-AUDITORIUM,4750 LEHRER DR SCHL  SAN DIEGO 92117,32.8389,-117.18929,,,,,,,
938,CHRIST LUTHERAN CHURCH HALL,4761 CASS ST  SAN DIEGO 92109,32.80159,-117.25297,,,,,,,
939,OCEAN AIR RECREATION CENTER-ACTIVITY RM,4770 FAIRPORT WAY  SAN DIEGO 92130,32.92798,-117.21699,,,,,,,
940,GARAGE-ABEYTA RESIDENCE,4771 MT SAINT HELENS DR  SAN DIEGO 92117,32.83109,-117.18867,,,,,,,
941,ST DIDACUS PARISH HALL,4772 FELTON ST  SAN DIEGO 92116,32.76512,-117.12213,,,,,,,
942,KENSINGTON CHURCH HALL,4773 MARLBOROUGH DR  SAN DIEGO 92116,32.76476,-117.106,,,,,,,
943,VISION,4780 MISSION GORGE PL H  SAN DIEGO 92120,32.78127,-117.09076,,,,,,,
944,CAPELLA AT RANCHO DEL ORO-LEASING OFFICE,4795 FRAZEE RD  OCEANSIDE 92057,33.23654,-117.29517,,,,,,,
945,PALOMAR HIGH SCHOOL-RM 8,480 PALOMAR ST  CHULA VISTA 91911,32.6051,-117.07362,,,,,,,
946,OCEAN BEACH BRANCH LIBRARY,4801 SANTA MONICA AVE  SAN DIEGO 92107,32.74548,-117.24722,,,,,,,
947,GARAGE-BALINGER RESIDENCE,4815 51ST ST  SAN DIEGO 92115,32.76536,-117.08518,,,,,,,
948,ST ANDREWS EPISCOPAL CHURCH HALL,4816 GLEN ST  LA MESA 91941,32.76711,-117.00957,,,,,,,
949,GARAGE-WOTZKA RESIDENCE,482 LAWN VIEW DR  CHULA VISTA 91910,32.64197,-117.04288,,,,,,,
950,MADISON HIGH SCHL-AUDITORIUM FOYER,4833 DOLIVA DR  SAN DIEGO 92117,32.83113,-117.17427,,,,,,,
951,OCEANSIDE FIRE STATION #5,4841 NORTH RIVER RD OCEANSIDE 92057,33.24873,-117.30109,,,,,,,
952,CALVARY IMPERIAL BEACH CHR-KIDS CHAPEL,485 IMPERIAL BEACH BLVD  IMPERIAL BEACH 91932,32.57632,-117.12289,,,,,,,
953,"PALACIO DEL MAR, 19TH HOLE BLDG",4853 CAMINITO EXQUISITO  SAN DIEGO 92130,32.94248,-117.21132,,,,,,,
954,UNITED DOMESTIC WORKERS-COMMUNITY HALL,4855 SEMINOLE DR  SAN DIEGO 92115,32.76563,-117.05886,,,,,,,
955,GARAGE-APARICIO RESIDENCE,4861 ROYAL ISLAND WAY  SAN DIEGO 92154,32.58815,-117.02651,,,,,,,
956,GARAGE-POURCIAU RESIDENCE,4867 GLENHAVEN DR  OCEANSIDE 92056,33.22114,-117.26612,,,,,,,
957,JEAN FARB MIDDLE SCHOOL-STAFF LOUNGE,4880 LA CUENTA DR  SAN DIEGO 92124,32.82,-117.10037,,,,,,,
958,MISSION TRAILS CHURCH-FELLOWSHIP HALL,4880 ZION AVE  SAN DIEGO 92120,32.79386,-117.08699,,,,,,,
959,VISTA DEL MAR MIDDLE SCHOOL-MPR,4885 DEL SOL BLVD  SAN DIEGO 92154,32.5707,-117.02828,,,,,,,
960,UNITED METHODIST CHURCH OF VISTA,490 S MELROSE DR  VISTA 92081,33.18847,-117.25305,,,,,,,
961,GARAGE-MC NALL RESIDENCE,4905 AVILA AVE  CARLSBAD 92008,33.14835,-117.31379,,,,,,,
962,MT OLIVE CHURCH-ANNEX,4907 A ST  SAN DIEGO 92102,32.71834,-117.09012,,,,,,,
963,REFINERY CHURCH-YOUTH CENTER,494 E ST  CHULA VISTA 91910,32.64228,-117.08902,,,,,,,
964,THE CLIFFS CLUBHOUSE,4950 OLD CLIFFS RD  SAN DIEGO 92120,32.80047,-117.0875,,,,,,,
965,CLAIREMONT CHR OF GOD AUDITORIUM,4955 CONRAD AVE  SAN DIEGO 92117,32.8356,-117.18323,,,,,,,
966,GARAGE-OLMSCHEID RESIDENCE,4959 MANSFIELD ST  SAN DIEGO 92116,32.76836,-117.11804,,,,,,,
967,GARAGE-DOUGLAS RESIDENCE,4960 WESTOVER PL  SAN DIEGO 92102,32.72498,-117.08754,,,,,,,
968,RIVERVIEW EVANGELICAL FREE CHURCH,4980 SWEETGRASS LN  BONSALL 92003,33.30105,-117.21814,,,,,,,
969,JOHNSON AVENUE ELEM SCHOOL-AUDITORIUM,500 W MADISON AVE SCHL  EL CAJON 92020,32.80118,-116.96893,,,,,,,
970,GARAGE-DU BOIS RESIDENCE,501 SHANAS LN  ENCINITAS 92024,33.05663,-117.25645,,,,,,,
971,CITY OF HOPE INTERNATIONAL-GARAGE,5011 HOLLY DR  SAN DIEGO 92113,32.70277,-117.0863,,,,,,,
972,GARAGE-RYAN RESIDENCE,5032 PARK RIM DR  SAN DIEGO 92117,32.83708,-117.21376,,,,,,,
973,MAR VISTA HIGH SCHOOL-GYM FOYER,505 ELM AVE SCHL  IMPERIAL BEACH 91932,32.57923,-117.12183,,,,,,,
974,CORONADO CAYS HOA - GRAND CARIBE RM,505 GRAND CARIBE CSWY  CORONADO 92118,32.6248,-117.1305,,,,,,,
975,ST DAVID EPISCOPAL CHURCH LIBRARY,5050 MILTON ST  SAN DIEGO 92110,32.78335,-117.18977,,,,,,,
976,ST DAVID EPISCOPAL CHURCH MISSION CENTER,5050 MILTON ST  SAN DIEGO 92110,32.78335,-117.18977,,,,,,,
977,GARAGE-BONNER RESIDENCE,5052 CAMINO PLAYA ACAPULCO  SAN DIEGO 92124,32.83535,-117.09322,,,,,,,
978,GARAGE-NIELSEN RESIDENCE,5062 OVERLOOK DR  OCEANSIDE 92057,33.23385,-117.28293,,,,,,,
979,FAITH PRESBYTERIAN CHURCH HALL,5075 CAMPANILE DR  SAN DIEGO 92115,32.77008,-117.07164,,,,,,,
980,TRINIDAD CLUBHOUSE,51 PORT OF SPAIN RD  CORONADO 92118,32.6205,-117.13284,,,,,,,
981,TOBY WELLS YMCA-COMM MEETING RM,5105 OVERLAND AVE  SAN DIEGO 92123,32.8298,-117.13006,,,,,,,
982,PROJECT NEW VILLAGE,5106 FEDERAL BLVD 103  SAN DIEGO 92105,32.72188,-117.0846,,,,,,,
983,OCEANSIDE MASONIC CENTER,511 EUCALYPTUS ST  OCEANSIDE 92054,33.1852,-117.36986,,,,,,,
984,BONITA PRESBYTERIAN CHURCH-AUDITORIUM,5111 CENTRAL AVE  BONITA 91902,32.66997,-117.02042,,,,,,,
985,GARAGE-HERZER RESIDENCE,5135 BAYWOOD CIR  OCEANSIDE 92056,33.23421,-117.27797,,,,,,,
986,GARAGE-KARLEEN RESIDENCE,5137 MENDIP ST  OCEANSIDE 92057,33.27324,-117.29877,,,,,,,
987,VALENCIA PARK / MALCOLM X LIBRARY,5148 MARKET ST  SAN DIEGO 92114,32.71076,-117.08391,,,,,,,
988,ST MARYS STAR OF THE SEA SCHOOL-ART ROOM,515 WISCONSIN AVE  OCEANSIDE 92054,33.18875,-117.37234,,,,,,,
989,ST LUKES LUTHERAN CHR-NARTHEX,5150 WILSON ST  LA MESA 91942,32.77293,-117.00699,,,,,,,
990,ALLIED GARDENS REC CENTER-GARDEN ROOM,5155 GREENBRIER AVE  SAN DIEGO 92120,32.79599,-117.08065,,,,,,,
991,GARAGE-GUERRA RESIDENCE,517 SEA ISLE DR  SAN DIEGO 92154,32.58637,-117.02872,,,,,,,
992,KEHILAT ARIEL MESSIANIC SYNAGOGUE-FOYER,5185 ACUNA ST  SAN DIEGO 92117,32.83248,-117.17932,,,,,,,
993,RANCHO CARLSBAD - PING PONG PALACE,5200 EL CAMINO REAL  CARLSBAD 92010,33.14981,-117.28966,,,,,,,
994,DEL RIO ELEMENTARY SCHOOL-MPR,5200 NORTH RIVER RD SCHL  OCEANSIDE 92057,33.2567,-117.29597,,,,,,,
995,SAN YSIDRO SPANISH SDA CHURCH,521 BLACKSHAW LN  SAN YSIDRO 92173,32.55972,-117.05536,,,,,,,
996,GARAGE-FRENCH RESIDENCE,521 CHINQUAPIN AVE  CARLSBAD 92008,33.14846,-117.3384,,,,,,,
997,ORANGE TREE MHP,521 ORANGE AVE  CHULA VISTA 91911,32.60218,-117.07316,,,,,,,
998,JOHNSON AVE CHURCH OF CHRIST,523 S JOHNSON AVE  EL CAJON 92020,32.79003,-116.97057,,,,,,,
999,POTIKER FAMILY SENIOR RESIDENCE,525 14TH ST  SAN DIEGO 92101,32.7108,-117.15181,,,,,,,
1000,ST FRANCIS OF ASSISI,525 W VISTA WAY  VISTA 92083,33.19685,-117.25246,,,,,,,
1001,CLAIREMONT COVENANT CHURCH,5255 MT ARARAT DR  SAN DIEGO 92111,32.81018,-117.18364,,,,,,,
1002,VILLA MONTEREY HOA CLUBHOUSE,5275 RIMPARK LN POLL  SAN DIEGO 92124,32.82868,-117.11306,,,,,,,
1003,SAGE CANYON SCHOOL-LIBRARY,5290 HARVEST RUN DR  SAN DIEGO 92130,32.92606,-117.20381,,,,,,,
1004,GARAGE-RANGUS RESIDENCE,530 REISLING TER  CHULA VISTA 91913,32.65966,-116.98336,,,,,,,
1005,GARAGE-NICHOLS/STRATTON RESIDENCE,5303 ADAMS AVE  SAN DIEGO 92115,32.76179,-117.08122,,,,,,,
1006,SWEETWATER COMMUNITY CHR-FELLOWSHIP HALL,5305 SWEETWATER RD  BONITA 91902,32.67796,-117.01927,,,,,,,
1007,ATRIA COLLWOOD,5308 MONROE AVE  SAN DIEGO 92115,32.7599,-117.08138,,,,,,,
1008,COLINA DEL SOL REC CENTER-MTG RM,5319 ORANGE AVE  SAN DIEGO 92115,32.75277,-117.08014,,,,,,,
1009,PACIFIC BLUFFS CLUBHOUSE-REC ROOM,5326 MT ALIFAN DR  SAN DIEGO 92111,32.81689,-117.18268,,,,,,,
1010,NEW LIFE PRESBYTERIAN CHURCH-RM 201,5333 LAKE MURRAY BLVD  LA MESA 91942,32.77589,-117.04401,,,,,,,
1011,SYCAMORE RIDGE SCHOOL-ASP1,5333 OLD CARMEL VALLEY RD  SAN DIEGO 92130,32.95439,-117.19917,,,,,,,
1012,SAN YSIDRO HIGH SCHL-PERF ARTS CTR FOYER,5353 AIRWAY RD  SAN DIEGO 92154,32.56416,-117.01835,,,,,,,
1013,WESLEY UNITED METHODIST CHR-WESLEY HALL,5380 EL CAJON BLVD BUS.  SAN DIEGO 92115,32.75829,-117.07994,,,,,,,
1014,ARRIVE MISSION VALLEY,5395 NAPA ST  SAN DIEGO 92110,32.76413,-117.19655,,,,,,,
1015,ENCINITAS BRANCH LIBRARY-COMMUNITY ROOM,540 CORNISH DR  ENCINITAS 92024,33.04561,-117.29088,,,,,,,
1016,VISTA SQUARE ELEM SCHL-AUDITORIUM,540 G ST  CHULA VISTA 91910,32.6345,-117.0875,,,,,,,
1017,MARYLAND AVENUE ELEM SCHOOL-AUDITORIUM,5400 MARYLAND AVE  LA MESA 91942,32.77633,-117.03907,,,,,,,
1018,OLIVEWOOD CLUB HOUSE,541 E 24TH ST  NATIONAL CITY 91950,32.66393,-117.09573,,,,,,,
1019,GARAGE-ZORN RESIDENCE,5425 CHAPARAJOS CT  SAN DIEGO 92120,32.80575,-117.07631,,,,,,,
1020,SUNNYSIDE ELEMENTARY SCHOOL-MPR,5430 SAN MIGUEL RD SCHL  BONITA 91902,32.67346,-117.01417,,,,,,,
1021,GARAGE-STARLING RESIDENCE,5436 FAIRGREEN WAY  BONSALL 92003,33.29178,-117.21486,,,,,,,
1022,GARAGE-GUZMAN RESIDENCE,5448 VISTA SAN BENITO  SAN DIEGO 92154,32.58259,-117.01304,,,,,,,
1023,PARK HILL UNITED METHODIST CHURCH,545 E NAPLES ST  CHULA VISTA 91911,32.62344,-117.03553,,,,,,,
1024,TIERRASANTA ELEM SCHOOL-LIBRARY,5450 LA CUENTA DR  SAN DIEGO 92124,32.8294,-117.09678,,,,,,,
1025,NEW COVENANT TABERNACLE,547 4TH AVE  CHULA VISTA 91910,32.63188,-117.08028,,,,,,,
1026,GARAGE-BORING RESIDENCE,5479 PANORAMIC LN  SAN DIEGO 92121,32.91222,-117.19671,,,,,,,
1027,GARAGE-KATZ RESIDENCE,548 GOLF GLEN DR  SAN MARCOS 92069,33.15663,-117.15949,,,,,,,
1028,LAKE MURRAY ASSEMBLY OF GOD-FELLOWSHP HL,5480 LAKE MURRAY BLVD  LA MESA 91942,32.78039,-117.03686,,,,,,,
1029,GROSSMONT GARDENS RET COMM-AUDITORIUM,5480 MARENGO AVE  LA MESA 91942,32.77754,-117.02461,,,,,,,
1030,ALPHA SQUARE,550 14TH ST  SAN DIEGO 92101,32.71122,-117.15211,,,,,,,
1031,OCEANA CLUBHOUSE AUDITORIUM,550 VISTA BELLA  OCEANSIDE 92057,33.21692,-117.33013,,,,,,,
1032,SAN DIEGO HUMANE SOCIETY-LOOMIS ROOM,5500 GAINES ST  SAN DIEGO 92110,32.76567,-117.19416,,,,,,,
1033,HARBISON CANYON FIRE STATION #24,551 HARBISON CANYON RD  EL CAJON 92019,32.81864,-116.83183,,,,,,,
1034,COLDWELL BANKER,5530 LA JOLLA BLVD 1B  LA JOLLA 92037,32.81283,-117.26901,,,,,,,
1035,GARAGE-SHUMATE RESIDENCE,5545 RED RIVER DR  SAN DIEGO 92120,32.80488,-117.07428,,,,,,,
1036,HILLTOP HIGH SCHOOL-CAFETERIA,555 CLAIRE AVE  CHULA VISTA 91910,32.63701,-117.05941,,,,,,,
1037,COASTLINE BAPTIST CHURCH-RM 205,557 VISTA BELLA  OCEANSIDE 92057,33.21685,-117.33084,,,,,,,
1038,SLRV UNITED METHODIST CHR - MUSIC RM,5570 OLD RANCH RD  OCEANSIDE 92057,33.24768,-117.26442,,,,,,,
1039,SLRV UNITED METHODIST CHR - FOYER,5570 OLD RANCH RD  OCEANSIDE 92057,33.24768,-117.26442,,,,,,,
1040,YMCA CAMP SURF-WALTERS REEF,560 SILVER STRAND BLVD  IMPERIAL BEACH 91932,32.58627,-117.12982,,,,,,,
1041,VISTA GRANDE ELEM SCHOOL-STAFF LOUNGE,5606 ANTIGUA BLVD SCHL  SAN DIEGO 92124,32.83417,-117.10835,,,,,,,
1042,ST STEPHENS RETIREMENT CENTER,5625 IMPERIAL AVE  SAN DIEGO 92114,32.70794,-117.0744,,,,,,,
1043,PRESIDIO PLACE CONDOS,5645 FRIARS RD  SAN DIEGO 92110,32.7644,-117.18998,,,,,,,
1044,THE CHAPEL AT GROSSMONT-FELLOWSHIP HALL,5651 WATER ST  LA MESA 91942,32.78201,-116.99101,,,,,,,
1045,GEORGE L STEVENS SENIOR CENTER,570 S 65TH ST  SAN DIEGO 92114,32.69847,-117.05872,,,,,,,
1046,LAKE PARK CONDO RECREATION RM,5700 BALTIMORE DR  LA MESA 91942,32.78415,-117.03431,,,,,,,
1047,PARKVIEW ELEM SCHOOL-RM 202,575 JUNIPER ST  CHULA VISTA 91911,32.61369,-117.03196,,,,,,,
1048,LAKE MURRAY VILLA APTS - REC ROOM,5757 LAKE MURRAY BLVD  LA MESA 91942,32.78291,-117.02681,,,,,,,
1049,ST MARKS LUTHERAN CHURCH-LOWER LEVEL,580 HILLTOP DR  CHULA VISTA 91910,32.63485,-117.06415,,,,,,,
1050,GARAGE-GILMAN RESIDENCE,5808 WHIRLYBIRD WAY  BONITA 91902,32.67174,-117.00527,,,,,,,
1051,UNITED CHR OF CHRIST OF P H-SOCIAL HALL,5810 ALLEGHANY ST  SAN DIEGO 92139,32.67958,-117.06778,,,,,,,
1052,ST STEPHENS CHURCH-LOWER FELLOWSHIP HALL,5825 IMPERIAL AVE  SAN DIEGO 92114,32.70849,-117.07274,,,,,,,
1053,GARAGE-KU RESIDENCE,5837 SOLEDAD MOUNTAIN RD  LA JOLLA 92037,32.82622,-117.23927,,,,,,,
1054,VILLA ANTIGUA CLUBHOUSE,5844 MENORCA DR  SAN DIEGO 92124,32.83741,-117.09736,,,,,,,
1055,WEST VIEW BIBLE CHURCH,587 DELAWARE ST  IMPERIAL BEACH 91932,32.58589,-117.11648,,,,,,,
1056,CALIFORNIA CREMATION AND BURIAL,5880 EL CAJON BLVD  SAN DIEGO 92115,32.75973,-117.07111,,,,,,,
1057,RANCHO MISSION VILLAS REC RM,5900 RANCHO MISSION RD  SAN DIEGO 92108,32.7829,-117.11089,,,,,,,
1058,UNITED CHURCH OF CHRIST OF LA MESA-HALL,5940 KELTON AVE  LA MESA 91942,32.78645,-117.01838,,,,,,,
1059,PACIFIC TRAILS MIDDLE SCHOOL-MPR,5975 VILLAGE CENTER LOOP RD  SAN DIEGO 92130,32.95823,-117.18643,,,,,,,
1060,USD- DEGHERI ALUMNI CTR RM 113,5998 ALCALA PARK POLL  SAN DIEGO 92110,32.77399,-117.1841,,,,,,,
1061,VISTA LITERACY CENTER-RM F,600 N SANTA FE AVE  VISTA 92083,33.2081,-117.24575,,,,,,,
1062,GARAGE-MISRA RESIDENCE,6004 RANCHO BRAVADO  CARLSBAD 92009,33.12842,-117.23196,,,,,,,
1063,ENCANTO SOUTHERN BAPTIST CHURCH,6020 AKINS AVE  SAN DIEGO 92114,32.70982,-117.06777,,,,,,,
1064,DARNALL CAMPUS SCHOOL-AUDITORIUM,6020 HUGHES ST  SAN DIEGO 92115,32.74669,-117.06716,,,,,,,
1065,ST THERESE CATHOLIC CHR-SOCIAL HALL,6026 CAMINO RICO  SAN DIEGO 92120,32.79354,-117.0652,,,,,,,
1066,PARADISE HILLS SO BAPTIST CHURCH,6038 CUMBERLAND ST  SAN DIEGO 92139,32.67677,-117.06088,,,,,,,
1067,CHAVEZ RESOURCE CENTER-MTG RM,605 SAN DIEGO ST  OCEANSIDE 92058,33.2041,-117.37099,,,,,,,
1068,REO VISTA HEALTHCARE CENTER-LOBBY,6061 BANBURY ST  SAN DIEGO 92139,32.67061,-117.05959,,,,,,,
1069,61ST AND DIVISION CHURCH OF CHRIST,6070 DIVISION ST  SAN DIEGO 92114,32.69494,-117.06773,,,,,,,
1070,SDSU AZTEC STUDENT UNION-MONTEZUMA HALL,6075 AZTEC CIRCLE DR POLL  SAN DIEGO 92182,32.7738,-117.06968,,,,,,,
1071,RISING STAR MISSION BAPTIST CHURCH,610 N REDONDO DR K  OCEANSIDE 92057,33.25587,-117.30055,,,,,,,
1072,ENCINITAS BOXING AND FITNESS-COURT 3,613 WESTLAKE ST  ENCINITAS 92024,33.04525,-117.2785,,,,,,,
1073,BAYVIEW BAPTIST CHURCH-AUDITORIUM,6134 PASTOR TIMOTHY J WINTERS ST  SAN DIEGO 92114,32.70564,-117.06516,,,,,,,
1074,IMMACULATE HEART OF MARY CHR-SOCIAL CTR,615 E ST  RAMONA 92065,33.04363,-116.86154,,,,,,,
1075,GARAGE-HERSANT RESIDENCE,6153 PASEO PALERO  CARLSBAD 92009,33.12412,-117.23618,,,,,,,
1076,1ST CHURCH OF CHRIST SCIENTIST-SCHL RM,6165 LA FLECHA  RANCHO SANTA FE 92067,33.02081,-117.2005,,,,,,,
1077,BELL MIDDLE SCHOOL-RM 1400,620 BRIARWOOD RD SCHL  SAN DIEGO 92139,32.68851,-117.03932,,,,,,,
1078,GARAGE-ALESSIO RESIDENCE,621 VIA DEL NORTE  LA JOLLA 92037,32.82323,-117.27289,,,,,,,
1079,VILLA LAS PALMAS HEALTH CARE,622 S ANZA ST  EL CAJON 92020,32.78929,-116.94893,,,,,,,
1080,CARLSBAD UNIFIED SCHOOL DISTRICT OFFICE,6225 EL CAMINO REAL  CARLSBAD 92009,33.12288,-117.26749,,,,,,,
1081,THE VILLAGE CHURCH-LOUNGE,6225 PASEO DELICIAS  RANCHO SANTA FE 92067,33.02335,-117.19816,,,,,,,
1082,HEARST ELEM SCHOOL-AUDITORIUM,6230 DEL CERRO BLVD  SAN DIEGO 92120,32.78375,-117.06396,,,,,,,
1083,RISEN SAVIOR LUTHERAN CHURCH,625 OTAY LAKES RD  CHULA VISTA 91913,32.64959,-117.00497,,,,,,,
1084,GARAGE-HOHENSTEIN RESIDENCE,627 DELL ST  SOLANA BEACH 92075,32.99798,-117.26135,,,,,,,
1085,LA JOLLA CHRISTIAN FELLOWSHIP,627 GENTER ST  LA JOLLA 92037,32.83625,-117.27567,,,,,,,
1086,GARAGE-MULLALLY RESIDENCE,629 POLARIS DR  ENCINITAS 92024,33.06043,-117.28382,,,,,,,
1087,PALISADES PRESBYTERIAN CHURCH-YOUTH HALL,6301 BIRCHWOOD ST  SAN DIEGO 92120,32.78726,-117.08327,,,,,,,
1088,CHURCH OF THE NATIVITY - LIBRARY,6309 EL APAJO  RANCHO SANTA FE 92067,32.99749,-117.19745,,,,,,,
1089,UNITED PENTECOSTAL CHURCH,631 12TH ST  IMPERIAL BEACH 91932,32.58476,-117.10766,,,,,,,
1090,FEATHERINGILL MORTUARY,6322 EL CAJON BLVD  SAN DIEGO 92115,32.76426,-117.06263,,,,,,,
1091,COMMUNITY UNITED METHODIST CHR,633 DIAMOND BAR RD  BORREGO SPRINGS 92004,33.25073,-116.3787,,,,,,,
1092,GARAGE-BOND RESIDENCE,6340 OAKRIDGE RD  SAN DIEGO 92120,32.80324,-117.05746,,,,,,,
1093,GARAGE-WESSON RESIDENCE,6344 TOOLEY ST  SAN DIEGO 92114,32.72568,-117.06127,,,,,,,
1094,GARAGE-ZATKIN RESIDENCE,6346 VIA MARIA  LA JOLLA 92037,32.8245,-117.27763,,,,,,,
1095,FIRST BAPTIST CHURCH-MEETING HALL,635 E 7TH ST  NATIONAL CITY 91950,32.67877,-117.10037,,,,,,,
1096,SOLANA BEACH CITY COUNCIL CHAMBERS,635 S HY 101  SOLANA BEACH 92075,32.98357,-117.27023,,,,,,,
1097,GARAGE-HANSEN RESIDENCE,638 MARGARITA AVE  CORONADO 92118,32.68819,-117.17126,,,,,,,
1098,EMMANUEL FAITH COM CHR-CHAPEL DOWN RM 3,639 E 17TH AVE  ESCONDIDO 92025,33.10669,-117.06042,,,,,,,
1099,ST VINCENT DE PAUL VILLAGE,640 16TH ST  SAN DIEGO 92101,32.71189,-117.14966,,,,,,,
1100,GRACE LUTHERAN CHURCH-NARTHEX ROOM,643 W 13TH AVE  ESCONDIDO 92025,33.10663,-117.08106,,,,,,,
1101,GARAGE-COOPER RESIDENCE,644 CEDAR AVE  CHULA VISTA 91910,32.62659,-117.08522,,,,,,,
1102,SAN CARLOS REC CENTER-SAN CARLOS ROOM,6445 LAKE BADIN AVE  SAN DIEGO 92119,32.79821,-117.02175,,,,,,,
1103,PARK DEL MAR CLUBHOUSE,645 E SOLANA CIR  SOLANA BEACH 92075,32.98458,-117.26531,,,,,,,
1104,HOWARD GARDNER COMMUNITY SCHOOL,647 E ST  CHULA VISTA 91910,32.64103,-117.09533,,,,,,,
1105,KUMEYAAY ELEM SCHOOL-MPR,6475 ANTIGUA BLVD SCHL  SAN DIEGO 92124,32.83616,-117.0902,,,,,,,
1106,GARAGE-MURPHINE RESIDENCE,6486 SHIREHALL DR  SAN DIEGO 92111,32.81054,-117.17383,,,,,,,
1107,MAGNOLIA ELEM SCHOOL-AUDITORIUM,650 GREENFIELD DR  EL CAJON 92021,32.81425,-116.95507,,,,,,,
1108,GARAGE-LUMBO RESIDENCE,650 INDIGO CANYON RD  CHULA VISTA 91911,32.62469,-117.02996,,,,,,,
1109,BONITA VISTA MIDDLE SCHOOL-CAFETERIA,650 OTAY LAKES RD SCHL  CHULA VISTA 91910,32.64769,-117.00805,,,,,,,
1110,PALOMAR ESTATES EAST,650 S RANCHO SANTA FE RD  SAN MARCOS 92078,33.13501,-117.21029,,,,,,,
1111,ENCANTO RECREATION CTR-MTG RM,6508 WUNDERLIN AVE  SAN DIEGO 92114,32.71479,-117.05778,,,,,,,
1112,MERIDIAN ELEM SCHOOL-MPR,651 S 3RD ST SCHL  EL CAJON 92019,32.78814,-116.92526,,,,,,,
1113,JOLI ANN LEICHTAG ELEM SCHL-COMMUNITY RM,653 POINSETTIA AVE  VISTA 92081,33.15639,-117.21147,,,,,,,
1114,SAN CARLOS UNITED METHODIST- YOUTH BLDG,6554 COWLES MOUNTAIN BLVD  SAN DIEGO 92119,32.80244,-117.02681,,,,,,,
1115,ST DUNSTANS EPISCOPAL CHURCH,6556 PARK RIDGE BLVD  SAN DIEGO 92120,32.79601,-117.04966,,,,,,,
1116,GARAGE-BANCELLS RESIDENCE,656 CORTE LOREN  SAN MARCOS 92069,33.15918,-117.18982,,,,,,,
1117,ALGA NORTE COMMUNITY PARK-MEETING RM 301,6565 ALICANTE RD  CARLSBAD 92009,33.11598,-117.26357,,,,,,,
1118,PALOMA ELEMENTARY SCHOOL-MPR,660 CAMINO MAGNIFICO SCHL  SAN MARCOS 92069,33.15969,-117.18566,,,,,,,
1119,REDEEMER BY THE SEA LUTHERAN CHURCH,6600 BLACK RAIL RD  CARLSBAD 92011,33.1131,-117.28717,,,,,,,
1120,COLLEGE-ROLANDO LIBRARY-COMMUNITY ROOM,6600 MONTEZUMA RD  SAN DIEGO 92115,32.76937,-117.0561,,,,,,,
1121,ALL HALLOWS CHURCH-FIRESIDE ROOM,6602 LA JOLLA SCENIC DR S  LA JOLLA 92037,32.83467,-117.24933,,,,,,,
1122,PARADISE HILLS REC CENTER - ACTIVITY RM,6610 POTOMAC ST  SAN DIEGO 92139,32.6852,-117.05085,,,,,,,
1123,ROLANDO PARK ELEM SCHOOL-AUDITORIUM,6620 MARLOWE DR SCHL  SAN DIEGO 92115,32.74628,-117.05461,,,,,,,
1124,GARAGE-KHALIL RESIDENCE,6658 DRAPER AVE  LA JOLLA 92037,32.82944,-117.27342,,,,,,,
1125,THE BRIDGES AT RANCHO SANTA FE,6670 AVENIDA DEL DUQUE  RANCHO SANTA FE 92067,33.05153,-117.18935,,,,,,,
1126,FEASTER CHARTER SCHOOL-MPR,670 FLOWER ST  CHULA VISTA 91910,32.64202,-117.09596,,,,,,,
1127,GARAGE-KIRCHNER RESIDENCE,6704 CLAREMORE AVE  SAN DIEGO 92120,32.79525,-117.05796,,,,,,,
1128,GARAGE-PETERSCHMIDT RESIDENCE,6719 KETCH WAY  CARLSBAD 92011,33.1121,-117.30782,,,,,,,
1129,BRIDGE CHURCH,6745 AMHERST ST  SAN DIEGO 92115,32.76735,-117.0526,,,,,,,
1130,PEACE LUTHERAN CHURCH HALL,6749 TAIT ST  SAN DIEGO 92111,32.78077,-117.17373,,,,,,,
1131,THE BRADLEY COURT - PATIO,675 E BRADLEY AVE  EL CAJON 92021,32.81827,-116.95236,,,,,,,
1132,PRINCE OF PEACE LUTHERAN CHR HALL,6801 EASTON CT  SAN DIEGO 92120,32.79317,-117.0735,,,,,,,
1133,GAGE ELEMENTARY SCHOOL-AUDITORIUM,6811 BISBY LAKE AVE  SAN DIEGO 92119,32.80692,-117.01479,,,,,,,
1134,GARAGE-STAPLES RESIDENCE,6818 XANA WAY  CARLSBAD 92009,33.10749,-117.23015,,,,,,,
1135,BETHUNE ELEMENTARY SCHOOL-AUDITORIUM,6835 BENJAMIN HOLT RD  SAN DIEGO 92114,32.68915,-117.04925,,,,,,,
1136,THE SALVATION ARMY KROC CTR-COMMUNITY RM,6845 UNIVERSITY AVE  SAN DIEGO 92115,32.75464,-117.04971,,,,,,,
1137,CANYON RIDGE BAPTIST CHR-SANCTUARY LOBBY,6866 LINDA VISTA RD  SAN DIEGO 92111,32.7825,-117.17275,,,,,,,
1138,TUBMAN VILLAGE SCHOOL-AUDITORIUM,6880 MOHAWK ST  SAN DIEGO 92115,32.77005,-117.04966,,,,,,,
1139,CARLSBAD FIRE STATION #4,6885 BATIQUITOS DR FIRE  CARLSBAD 92011,33.10559,-117.30544,,,,,,,
1140,MORSE HIGH SCHOOL-RM M101,6905 SKYLINE DR SCHL  SAN DIEGO 92114,32.70117,-117.04853,,,,,,,
1141,ROLANDO ELEM SCHOOL-AUDITORIUM,6925 TOWER ST  LA MESA 91942,32.76272,-117.04833,,,,,,,
1142,MISSION VALLEY COMM CHAPEL-MADER HALL,6964 MISSION GORGE RD  SAN DIEGO 92120,32.80025,-117.0917,,,,,,,
1143,CHRISTIAN CHURCH OF LEMON GROVE-AUD,6970 SAN MIGUEL AVE  LEMON GROVE 91945,32.73613,-117.04763,,,,,,,
1144,ST PAULS UNITED METHODIST CHR -  HALL,700 D AVE  CORONADO 92118,32.69064,-117.17893,,,,,,,
1145,VETERANS HOME-BUILDING F,700 E NAPLES CT  CHULA VISTA 91911,32.62123,-117.02363,,,,,,,
1146,VISTA LIBRARY - COMMUNITY ROOM,700 EUCALYPTUS AVE  VISTA 92084,33.20192,-117.23264,,,,,,,
1147,PARK ROW,701 KETTNER BLVD 223  SAN DIEGO 92101,32.71394,-117.16875,,,,,,,
1148,SOLANA HIGHLANDS,701 S NARDO AVE  SOLANA BEACH 92075,32.98505,-117.26137,,,,,,,
1149,VISION CHURCH SAN DIEGO,7015 ALAMITOS AVE  SAN DIEGO 92154,32.5942,-117.08589,,,,,,,
1150,SUNRISE ASSISTED LIVING,7020 MANZANITA ST  CARLSBAD 92011,33.10148,-117.26729,,,,,,,
1151,NEW ASSURANCE BAPTIST CHURCH,7024 AMHERST ST  SAN DIEGO 92115,32.76786,-117.04645,,,,,,,
1152,CITY SCENE HOA-FITNESS ROOM,7024 CAMINO DEGRAZIA  SAN DIEGO 92111,32.77142,-117.16735,,,,,,,
1153,GREEN ELEM SCHOOL-MUSIC ROOM,7030 WANDERMERE DR SCHL  SAN DIEGO 92119,32.79734,-117.04484,,,,,,,
1154,ISLAMIC CENTER OF SAN DIEGO - MPR,7050 ECKSTROM AVE  SAN DIEGO 92111,32.82058,-117.16549,,,,,,,
1155,LINDA VISTA RECREATION CTR-AUDITORIUM,7064 LEVANT ST  SAN DIEGO 92111,32.79223,-117.1699,,,,,,,
1156,CENTRAL CHURCH OF CHRIST,709 LEONARD AVE  OCEANSIDE 92054,33.18821,-117.37051,,,,,,,
1157,REDWOOD TERRACE RET HOME-DITTUS HALL,710 W 13TH AVE  ESCONDIDO 92025,33.10686,-117.08224,,,,,,,
1158,LA JOLLA LUTHERAN CHURCH,7111 LA JOLLA BLVD  LA JOLLA 92037,32.83417,-117.27714,,,,,,,
1159,"MUELLER CHARTER, R L, SCH-PERF ARTS CTR",715 I ST  CHULA VISTA 91910,32.62692,-117.09326,,,,,,,
1160,LA COLONIA COMMUNITY CENTER,715 VALLEY AVE  SOLANA BEACH 92075,32.98616,-117.25882,,,,,,,
1161,ST PAUL BAPTIST CHURCH HALL,7166 JAMACHA RD  SAN DIEGO 92114,32.71101,-117.04396,,,,,,,
1162,GARAGE-BRANCH RESIDENCE,7170 ROCK VALLEY CT  SAN DIEGO 92122,32.8597,-117.19198,,,,,,,
1163,GRANDVIEW TERRACE MOBILE ESTATES,718 SYCAMORE AVE  VISTA 92083,33.1636,-117.21675,,,,,,,
1164,CAJON VALLEY USD-TRANSPORTATION ROOM,721 E PARK AVE  EL CAJON 92020,32.79773,-116.95351,,,,,,,
1165,TRC GYMNASTICS,722 GENEVIEVE ST L  SOLANA BEACH 92075,32.98987,-117.25957,,,,,,,
1166,INFINITY DANCE SPORT CENTER,7243 ENGINEER RD B  SAN DIEGO 92111,32.8268,-117.1609,,,,,,,
1167,LOPEZ RIDGE COMMUNITY PARK-MEETING RM 2,7245 CALLE CRISTOBAL  SAN DIEGO 92126,32.92074,-117.16836,,,,,,,
1168,SAN CARLOS LIBRARY-COMMUNITY RM,7265 JACKSON DR  SAN DIEGO 92119,32.802,-117.04057,,,,,,,
1169,KEILLER LEADERSHIP ACADEMY - MPR,7270 LISBON ST  SAN DIEGO 92114,32.71332,-117.04226,,,,,,,
1170,CHURCH OF CHRIST HALL,7277 FULTON ST  SAN DIEGO 92111,32.78957,-117.16485,,,,,,,
1171,1ST ASSEMBLY CHURCH,728 PEPPER DR  EL CAJON 92021,32.82544,-116.95295,,,,,,,
1172,BONITA ROAD BAPTIST CHURCH,73 E BONITA RD  CHULA VISTA 91910,32.6486,-117.06566,,,,,,,
1173,GARAGE-KAPLAN RESIDENCE,7324 CIRCULO PAPAYO  CARLSBAD 92009,33.08781,-117.22834,,,,,,,
1174,BOONE ELEM SCHOOL-AUDITORIUM,7330 BROOKHAVEN RD SCHL  SAN DIEGO 92114,32.69515,-117.03692,,,,,,,
1175,HART LOUNGE,734 PARK BLVD  SAN DIEGO 92101,32.71304,-117.15398,,,,,,,
1176,GARAGE-OMAHEN RESIDENCE,736 BESTVIEW DR  EL CAJON 92021,32.82195,-116.95312,,,,,,,
1177,GARAGE-MARSHALL RESIDENCE,7385 VIA CRESTA RD  SAN DIEGO 92129,32.95867,-117.15988,,,,,,,
1178,HILLTOP BAPTIST CHURCH-FELLOWSHIP HALL,740 HILLTOP DR  CHULA VISTA 91910,32.62956,-117.06244,,,,,,,
1179,CARE CENTER CREMATION AND BURIAL,7403 PRINCESS VIEW DR E  SAN DIEGO 92120,32.80556,-117.07844,,,,,,,
1180,ELKS LODGE #168,7430 JACKSON DR  SAN DIEGO 92119,32.80327,-117.04582,,,,,,,
1181,GARAGE-KVALVIK RESIDENCE,7435 ANDASOL ST  SAN DIEGO 92126,32.92343,-117.16168,,,,,,,
1182,WHITE SANDS LA JOLLA-COMMUNITY RM,7450 OLIVETAS AVE  LA JOLLA 92037,32.83852,-117.28047,,,,,,,
1183,THE HILL CHURCH-FELLOWSHIP HALL,7485 ORIEN AVE  LA MESA 91941,32.75293,-117.03392,,,,,,,
1184,LATTER RAIN MINISTRIES,750 13TH ST A1  IMPERIAL BEACH 91932,32.58307,-117.10653,,,,,,,
1185,HUI-O-HAWAII MEETING ROOM HALL,752 GRAND AVE  SPRING VALLEY 91977,32.71116,-116.99777,,,,,,,
1186,CALVARY CHAPEL LA MESA,7525 EL CAJON BLVD POLL  LA MESA 91942,32.7677,-117.0355,,,,,,,
1187,GARAGE-ROTH RESIDENCE,7528 MAGELLAN ST  CARLSBAD 92011,33.09122,-117.30867,,,,,,,
1188,FUNERARIA DEL ANGEL CV-WINDSOR RM,753 BROADWAY  CHULA VISTA 91910,32.62231,-117.08561,,,,,,,
1189,GARAGE-MENTAL RESIDENCE,7555 BEAL ST  SAN DIEGO 92111,32.81248,-117.15879,,,,,,,
1190,LA JOLLA RIFORD LIBRARY-COMMUNITY RM 100,7555 DRAPER AVE  LA JOLLA 92037,32.84092,-117.27615,,,,,,,
1191,GARAGE-CANNING RESIDENCE,7605 NORCANYON WAY  SAN DIEGO 92126,32.93251,-117.15863,,,,,,,
1192,GARAGE-SMITH RESIDENCE,7620 MONA LN  SAN DIEGO 92130,32.96734,-117.16487,,,,,,,
1193,LA REGENCIA APARTMENTS - AEROBIC RM,7681 PALMILLA DR  SAN DIEGO 92122,32.8643,-117.22469,,,,,,,
1194,GARAGE-MARROQUIN RESIDENCE,7694 NEW SALEM ST  SAN DIEGO 92126,32.91644,-117.15678,,,,,,,
1195,GOOD SHEPARD MINISTRY CENTER,772 S JOHNSON AVE  EL CAJON 92020,32.78612,-116.9713,,,,,,,
1196,GARAGE-MITTERMILLER RESIDENCE,7740 LUDINGTON PL  LA JOLLA 92037,32.8466,-117.26463,,,,,,,
1197,GARAGE-HEBERT RESIDENCE,7770 LAKE TAHOE AVE  SAN DIEGO 92119,32.80027,-117.02932,,,,,,,
1198,GARAGE-BRAIDIC RESIDENCE,7776 FALDA PL  CARLSBAD 92009,33.07984,-117.26263,,,,,,,
1199,CHRIST PRESBYTERIAN CHURCH-HALL,7807 CENTELLA ST  CARLSBAD 92009,33.07952,-117.23948,,,,,,,
1200,SION CENTRO CRISTIANO,7830 CARLISLE DR  LEMON GROVE 91945,32.71898,-117.0273,,,,,,,
1201,EAST SAN DIEGO MASONIC LODGE #561,7849 TOMMY DR  SAN DIEGO 92119,32.80368,-117.02649,,,,,,,
1202,LEMON GROVE FIRE STATION,7853 CENTRAL AVE  LEMON GROVE 91945,32.73879,-117.03003,,,,,,,
1203,GARAGE-DICKENSON RESIDENCE,786 SETTLERS CT  SAN MARCOS 92069,33.15245,-117.14674,,,,,,,
1204,SKYLINE HILLS BRANCH LIBRARY-MPR,7900 PARADISE VALLEY RD  SAN DIEGO 92139,32.69715,-117.02661,,,,,,,
1205,GARAGE-SCHRAMM RESIDENCE,7913 CALLE MADRID  CARLSBAD 92009,33.0711,-117.24224,,,,,,,
1206,GARAGE-WARD RESIDENCE,7924 MISSION BONITA DR  SAN DIEGO 92120,32.81342,-117.0661,,,,,,,
1207,GARAGE-HARRISON RESIDENCE,7925 MICHELLE DR  LA MESA 91942,32.79078,-117.02679,,,,,,,
1208,PARK VILLAGE ELEM SCHOOL-MPR STAGE,7930 PARK VILLAGE RD SCHL  SAN DIEGO 92129,32.94084,-117.15079,,,,,,,
1209,HOUSE OF PRAYER-FELLOWSHIP HALL,795 N ROSE ST  ESCONDIDO 92027,33.13978,-117.0635,,,,,,,
1210,ST MICHAEL CHALDEAN CHR HALL,799 E WASHINGTON AVE  EL CAJON 92020,32.78728,-116.95231,,,,,,,
1211,SAN DIEGUITO HIGH SCH ACADEMY-CONF ROOM,800 SANTA FE DR SCHL  ENCINITAS 92024,33.03714,-117.27497,,,,,,,
1212,ENCINITAS FIRE STATION #3,801 ORPHEUS AVE  ENCINITAS 92024,33.06362,-117.29337,,,,,,,
1213,GARAGE-OLYNGER RESIDENCE,8056 CORTE SASAFRAS  CARLSBAD 92009,33.07459,-117.24754,,,,,,,
1214,THE SPRINGS APTS-COMMUNITY RM,8070 ORANGE AVE  LA MESA 91942,32.76474,-117.02327,,,,,,,
1215,LA MESA BRANCH LIBRARY-BOOKSTORE,8074 ALLISON AVE  LA MESA 91942,32.76623,-117.02328,,,,,,,
1216,MIRA MESA PRESBYTERIAN CHURCH-YOUTH RM,8081 MIRA MESA BLVD  SAN DIEGO 92126,32.91152,-117.14968,,,,,,,
1217,ST JOHNS CATHOLIC CHR AUDITORIUM,8086 BROADWAY  LEMON GROVE 91945,32.74427,-117.02333,,,,,,,
1218,IMPERIAL BEACH BRANCH LIBRARY,810 IMPERIAL BEACH BLVD  IMPERIAL BEACH 91932,32.57683,-117.11632,,,,,,,
1219,AUDUBON SCHOOL-AUDITORIUM,8111 SAN VICENTE ST SCHL  SAN DIEGO 92114,32.71067,-117.03063,,,,,,,
1220,FREESE ELEM SCHOOL-AUDITORIUM,8140 GREENLAWN DR  SAN DIEGO 92114,32.70415,-117.02799,,,,,,,
1221,SANTALUZ CLUB-HACIENDA GYM,8170 CAMINITO SANTALUZ E  SAN DIEGO 92127,32.99344,-117.14775,,,,,,,
1222,DOYLE RECREATION CENTER-GAME RM,8175 REGENTS RD POLL  SAN DIEGO 92122,32.8646,-117.22106,,,,,,,
1223,VCF CHURCH,820 WILLIAMSTON ST  VISTA 92084,33.21077,-117.22934,,,,,,,
1224,PRO KIDS THE FIRST TEE OF SAN DIEGO,821 DOUGLAS DR  OCEANSIDE 92058,33.25241,-117.32196,,,,,,,
1225,GARAGE-NGUYEN RESIDENCE,8228 TORREY GARDENS PL  SAN DIEGO 92129,32.96248,-117.15136,,,,,,,
1226,SKYLINE HILLS REC CTR-MEETING RM,8285 SKYLINE DR  SAN DIEGO 92114,32.70565,-117.02622,,,,,,,
1227,GARAGE-BELL RESIDENCE,829 SUNRICH LN  ENCINITAS 92024,33.07262,-117.28839,,,,,,,
1228,COUNCIL OF PHILIPPINE AMERICAN ORG,832 E AVE  NATIONAL CITY 91950,32.67663,-117.10182,,,,,,,
1229,TORREY PINES CHURCH-FOYER,8320 LA JOLLA SCENIC DR N  LA JOLLA 92037,32.85643,-117.24133,,,,,,,
1230,ST ANDREWS LUTHERAN CHURCH,8350 LAKE MURRAY BLVD  SAN DIEGO 92119,32.79261,-117.01975,,,,,,,
1231,SPRING VALLEY BRANCH LIBRARY,836 KEMPTON ST  SPRING VALLEY 91977,32.71231,-117.0024,,,,,,,
1232,VISTA INNOVATION CENTER-RM 301,836 OLIVE AVE  VISTA 92083,33.20424,-117.25985,,,,,,,
1233,MESA VERDE MID SCHOOL-LITTLE THEATER,8375 ENTREKEN WAY  SAN DIEGO 92129,32.9615,-117.14523,,,,,,,
1234,RAMONA SOUTHERN BAPTIST CHURCH,838 HANSON LN  RAMONA 92065,33.02534,-116.85602,,,,,,,
1235,CHULA VISTA ELEM SCHL DISTRICT-RM C,84 E J ST  CHULA VISTA 91910,32.63141,-117.05803,,,,,,,
1236,HILLSIDE COMMUNITY CENTER-MEETING RM,840 BUENA TER  EL CAJON 92020,32.80657,-116.98469,,,,,,,
1237,MISSION BEACH WOMENS CLUB,840 SANTA CLARA PL  SAN DIEGO 92109,32.78286,-117.2514,,,,,,,
1238,CITY VIEW CHURCH-FELLOWSHIP CENTER,8404 PHYLLIS PL  SAN DIEGO 92123,32.78487,-117.14743,,,,,,,
1239,MIRA MESA LIBRARY-COMMUNITY ROOM,8405 NEW SALEM ST  SAN DIEGO 92126,32.91522,-117.14266,,,,,,,
1240,SANTEE CHRISTIAN CHURCH,8410 FANITA DR  SANTEE 92071,32.82802,-117.00159,,,,,,,
1241,SENIORS ON BROADWAY,845 BROADWAY 105  CHULA VISTA 91911,32.61943,-117.0846,,,,,,,
1242,TRINITY EPISCOPAL CHURCH,845 CHESTNUT ST  ESCONDIDO 92025,33.11859,-117.06994,,,,,,,
1243,ANGIER ELEM SCHL-AUDITORIUM,8450 HURLBUT ST  SAN DIEGO 92123,32.8055,-117.14591,,,,,,,
1244,LA MESA ADULT ENRICHMENT CTR-CLUBHOUSE,8450 LA MESA BLVD  LA MESA 91942,32.76774,-117.01601,,,,,,,
1245,CASA DE MANANA RETIREMENT HOME,849 COAST BLVD  LA JOLLA 92037,32.84668,-117.27749,,,,,,,
1246,JUAREZ-LINCOLN ELEM SCHOOL-MPR,849 TWINING AVE  SAN DIEGO 92154,32.5807,-117.04447,,,,,,,
1247,CLOUD 9 WORSHIP CENTER-FELLOWSHIP HALL,8498 PASEO IGLESIA  SPRING VALLEY 91977,32.69794,-117.01529,,,,,,,
1248,CLOUD 9 WORSHIP CENTER-SANCTUARY,8498 PASEO IGLESIA SPRING VALLEY 91977,32.69794,-117.01529,,,,,,,
1249,GARAGE-ARDOLINO RESIDENCE,8506 SANDSTONE PL  SANTEE 92071,32.85015,-117.01437,,,,,,,
1250,PACIFIC SOTHEBYS INTERNATIONAL REALTY,851 S COAST HY 101  ENCINITAS 92024,33.04155,-117.29282,,,,,,,
1251,GARAGE-KENNEDY RESIDENCE,8510 BIG ROCK RD  SANTEE 92071,32.82959,-117.02031,,,,,,,
1252,GARAGE-NAYAK RESIDENCE,8524 FOUCAUD WAY  SAN DIEGO 92129,32.94263,-117.14003,,,,,,,
1253,MISSION GORGE VILLA - CLUBHOUSE,8545 MISSION GORGE RD  SANTEE 92071,32.83353,-117.01136,,,,,,,
1254,BETHEL BAPTIST CHURCH-LIBRARY RM,855 BROTHERTON RD  ESCONDIDO 92025,33.09534,-117.08153,,,,,,,
1255,GRACE SAN MARCOS-FOYER,855 E BARHAM DR  SAN MARCOS 92078,33.13758,-117.14063,,,,,,,
1256,GARAGE-KUHLMAN RESIDENCE,8568 FOXCROFT PL  SAN DIEGO 92129,32.94978,-117.14038,,,,,,,
1257,MIRA MESA REC CTR-GAME RM,8575 NEW SALEM ST  SAN DIEGO 92126,32.91518,-117.14031,,,,,,,
1258,MT MIGUEL HIGH SCHOOL-MULTICULTURAL CTR,8585 BLOSSOM LN SCHL  SPRING VALLEY 91977,32.72217,-117.0153,,,,,,,
1259,FIRST LUTHERAN CHURCH HALL,867 S LINCOLN AVE  EL CAJON 92020,32.78452,-116.95363,,,,,,,
1260,GARAGE-HAYAT RESIDENCE,8685 ENCINO AVE  SAN DIEGO 92123,32.78729,-117.14534,,,,,,,
1261,THE PROMENADE RIO VISTA-CLUB RM 2,8685 RIO SAN DIEGO DR  SAN DIEGO 92108,32.77462,-117.14325,,,,,,,
1262,ADOBE BLUFFS ELEM SCHOOL-MPR,8707 ADOBE BLUFFS DR SCHL  SAN DIEGO 92129,32.97339,-117.14131,,,,,,,
1263,DEER SPRINGS FIRE STATION #11,8709 CIRCLE R DR  ESCONDIDO 92026,33.25476,-117.15336,,,,,,,
1264,COSTA VERDE VILLAGE APTS,8720 COSTA VERDE BLVD  SAN DIEGO 92122,32.87034,-117.21674,,,,,,,
1265,HAZEL GOES COOK ELEM SCHOOL-AUDITORIUM,875 CUYAMACA AVE  CHULA VISTA 91911,32.62607,-117.05477,,,,,,,
1266,WEST HILLS HIGH SCHOOL - GYM FOYER,8756 MAST BLVD SCHL  SANTEE 92071,32.84795,-117.01569,,,,,,,
1267,GARAGE-BAUTISTA BUSINESS,8775 RAILROAD AVE  SANTEE 92071,32.83515,-116.97087,,,,,,,
1268,BANCROFT COMMUNITY SCHOOL-AUDITORIUM,8805 TYLER ST  SPRING VALLEY 91977,32.72956,-117.00782,,,,,,,
1269,NOBEL RECREATION CENTER-MEETING RM,8810 JUDICIAL DR  SAN DIEGO 92122,32.86695,-117.1994,,,,,,,
1270,NORTH UNIVERSITY COMMUNITY LIBRARY,8820 JUDICIAL DR  SAN DIEGO 92122,32.86762,-117.19917,,,,,,,
1271,GARAGE-PARKER RESIDENCE,8831 ARCTURUS WAY  SAN DIEGO 92126,32.92695,-117.13399,,,,,,,
1272,LA MESA FIRE STATION #12,8844 DALLAS ST  LA MESA 91942,32.79157,-117.00552,,,,,,,
1273,GARAGE-WICKLUND RESIDENCE,8848 BRIDLE RUN  ALPINE 91901,32.83387,-116.81609,,,,,,,
1274,MAR VISTA BAPTIST CHURCH,888 5TH ST  IMPERIAL BEACH 91932,32.58073,-117.12275,,,,,,,
1275,HONDA OF EL CAJON-SHOW ROOM,889 ARNELE AVE  EL CAJON 92020,32.80322,-116.97324,,,,,,,
1276,GARAGE-GUTIERREZ RESIDENCE,8897 DIAMONDBACK DR  SANTEE 92071,32.83945,-116.94755,,,,,,,
1277,GARAGE-BROWN RESIDENCE,8930 EMERALD GROVE AVE  LAKESIDE 92040,32.83915,-116.93895,,,,,,,
1278,GARAGE-KAY RESIDENCE,8939 ALPINE AVE  LA MESA 91941,32.76289,-117.00352,,,,,,,
1279,SUNDANCE ELEM SCHOOL-MPR,8944 TWIN TRAILS DR  SAN DIEGO 92129,32.9614,-117.13379,,,,,,,
1280,FRIENDS COMM CHURCH OF SPRING VALLEY,8955 KENWOOD DR  SPRING VALLEY 91977,32.744,-117.00424,,,,,,,
1281,CHAMPAGNE VILLAGE-THE VILLAGE HALL,8975 LAWRENCE WELK DR POLL  ESCONDIDO 92026,33.22544,-117.13972,,,,,,,
1282,GARAGE-TVERDOCH RESIDENCE,898 HYMETTUS AVE  ENCINITAS 92024,33.06515,-117.29661,,,,,,,
1283,EASTLAKE MIDDLE SCHOOL-LIBRARY,900 DUNCAN RANCH RD  CHULA VISTA 91914,32.65469,-116.94808,,,,,,,
1284,PASEO DEL REY CHURCH-ROOM 101,900 PASEO DEL REY  CHULA VISTA 91910,32.63247,-117.02742,,,,,,,
1285,SERRA MESA KEARNY MESA LIBRARY-CONF RM,9005 AERO DR  SAN DIEGO 92123,32.80919,-117.13367,,,,,,,
1286,PARKWAY MIDDLE SCHOOL-COMMUNITY ROOM,9009 PARK PLAZA DR SCHL  LA MESA 91942,32.79046,-117.0042,,,,,,,
1287,CHULA VISTA ELKS #2011,901 ELKS LN  CHULA VISTA 91911,32.62593,-117.0342,,,,,,,
1288,GARAGE-POON RESIDENCE,9010 ROTHERHAM AVE  SAN DIEGO 92129,32.97136,-117.13468,,,,,,,
1289,GARAGE-CARROLL RESIDENCE,9023 WILLOWGROVE PL  SANTEE 92071,32.84164,-116.99146,,,,,,,
1290,FOOTHILLS OF SAN MARCOS MHP,909 RICHLAND RD  SAN MARCOS 92069,33.15756,-117.13934,,,,,,,
1291,GARAGE-MILES RESIDENCE,911 PIOVANA CT  CARLSBAD 92011,33.095,-117.30164,,,,,,,
1292,GRACE COVENANT CHURCH-SANCTUARY FOYER,9140 AKARD ST  SPRING VALLEY 91977,32.7045,-117.00238,,,,,,,
1293,GARAGE-SAN MIGUEL RESIDENCE,917 GRETNA GREEN WAY  ESCONDIDO 92025,33.08654,-117.05024,,,,,,,
1294,SHEPHERD OF THE HILLS LUTHERAN CHR-MPR,9191 FLETCHER PKWY BUS.  LA MESA 91942,32.79415,-117.00161,,,,,,,
1295,TAFT MIDDLE SCHOOL-LIBRARY,9191 GRAMERCY DR  SAN DIEGO 92123,32.80105,-117.13125,,,,,,,
1296,SYCAMORE HILLS VILLAGE APT HOMES,920 SYCAMORE AVE  VISTA 92081,33.15741,-117.22021,,,,,,,
1297,LAKEVIEW ELEM SCHOOL-MULTI PURPOSE BLDG,9205 LAKEVIEW RD  LAKESIDE 92040,32.84369,-116.90399,,,,,,,
1298,CANYON VIEW ELEM SCHOOL-MPR,9225 ADOLPHIA ST SCHL  SAN DIEGO 92129,32.94556,-117.12887,,,,,,,
1299,SANTEE BRANCH LIBRARY-TEEN ROOM,9225 CARLTON HILLS BLVD 17  SANTEE 92071,32.84463,-116.99692,,,,,,,
1300,CARLTON OAKS BAPTIST CHURCH,9225 CARLTON OAKS DR  SANTEE 92071,32.84457,-117.00057,,,,,,,
1301,BETHLEHEM LUTHERAN CHURCH-CONFERENCE RM,925 BALOUR DR  ENCINITAS 92024,33.04067,-117.26835,,,,,,,
1302,NEW LIFE BAPTIST CHURCH-2,9255 LAMAR ST  SPRING VALLEY 91977,32.73924,-116.99835,,,,,,,
1303,ESCONDIDO CHRISTIAN CHURCH,927 IDAHO AVE  ESCONDIDO 92025,33.11451,-117.05923,,,,,,,
1304,GARAGE-BUSBY RESIDENCE,927 VAN NUYS ST  SAN DIEGO 92109,32.8117,-117.25767,,,,,,,
1305,GARAGE-SARDO RESIDENCE,9275 SHIRLEY DR  LA MESA 91941,32.77022,-116.99862,,,,,,,
1306,GARAGE-DOWNING RESIDENCE,928 SPRINGWOOD LN  ENCINITAS 92024,33.05854,-117.23994,,,,,,,
1307,SUNSET HILLS ELEM SCHOOL-MPR,9291 OVIEDO ST SCHL  SAN DIEGO 92129,32.96836,-117.12673,,,,,,,
1308,HEDENKAMP ELEM SCHOOL-LIBRARY,930 E PALOMAR ST  CHULA VISTA 91913,32.6163,-117.01504,,,,,,,
1309,PRIDE ACADEMY AT PROSPECT AVE-MEDIA CTR,9303 PROSPECT AVE  SANTEE 92071,32.83251,-116.99501,,,,,,,
1310,REMAX HOMETOWN REALTORS-CONFERENCE ROOM,9307 CARLTON HILLS BLVD  SANTEE 92071,32.84596,-116.99807,,,,,,,
1311,MISSION VILLAGE CHURCH-SANCTUARY,9320 SUCCESS AVE  SAN DIEGO 92123,32.806,-117.12811,,,,,,,
1312,RENETTE PARK COMMUNITY CTR-MEETING RM E,935 EMERALD AVE  EL CAJON 92020,32.78313,-116.96827,,,,,,,
1313,CARLTON HILLS SCHOOL-MPR,9353 PIKE RD  SANTEE 92071,32.84777,-116.99573,,,,,,,
1314,LA QUINTA DE GUADALUPE CATH CHR,938 18TH ST  SAN DIEGO 92154,32.57998,-117.09536,,,,,,,
1315,GARAGE-NORBRATEN RESIDENCE,9380 CHABOLA RD  SAN DIEGO 92129,32.93928,-117.12204,,,,,,,
1316,LAKEFRONT COMMUNITY-CLUBHOUSE,9395 HARRITT RD  LAKESIDE 92040,32.8515,-116.88441,,,,,,,
1317,CHULA VISTA PRESBYTERIAN CHURCH-HALL,940 HILLTOP DR  CHULA VISTA 91911,32.62234,-117.05941,,,,,,,
1318,FAITH CHAPEL-GYM,9400 CAMPO RD  SPRING VALLEY 91977,32.75073,-116.9937,,,,,,,
1319,NORTHMONT ELEM SCHOOL-MPR,9405 GREGORY ST  LA MESA 91942,32.78994,-116.9937,,,,,,,
1320,SEVEN CHURCH,9455 LOS COCHES RD  LAKESIDE 92040,32.84993,-116.91735,,,,,,,
1321,CALVARY LIGHTHOUSE MISSION,950 E OHIO AVE  ESCONDIDO 92025,33.12747,-117.06934,,,,,,,
1322,LIVING WORD COMMUNITY CHURCH,950 GARLAND DR  SAN DIEGO 92154,32.5797,-117.07454,,,,,,,
1323,UCSD PRICE CENTER-EAST BALLROOM,9500 GILMAN DR LA JOLLA 92093,32.88241,-117.23482,,,,,,,
1324,LAKE JENNINGS PARK ESTATES - CLUBHOUSE,9500 HARRITT RD  LAKESIDE 92040,32.85048,-116.88883,,,,,,,
1325,DESCANSO BRANCH LIBRARY,9545 RIVER DR  DESCANSO 91916,32.85925,-116.61478,,,,,,,
1326,VILLA MADEIRA CLUBHOUSE,955 HOWARD AVE  ESCONDIDO 92029,33.11336,-117.1114,,,,,,,
1327,MT CARMEL HIGH SCHOOL-RM Z3,9550 CARMEL MOUNTAIN RD SCHL  SAN DIEGO 92129,32.96722,-117.12093,,,,,,,
1328,GARAGE-HANSON RESIDENCE,9563 MAVIN DR  SANTEE 92071,32.8514,-116.96977,,,,,,,
1329,LAKESIDE COMMUNITY CHURCH-FOYER,9573 LOS COCHES RD  LAKESIDE 92040,32.85257,-116.91813,,,,,,,
1330,GARAGE-LOGAN RESIDENCE,9578 VIA PEREZA  SAN DIEGO 92129,32.96321,-117.1197,,,,,,,
1331,UNIVERSITY LUTHERAN CHURCH-NARTHAX,9595 LA JOLLA SHORES DR  LA JOLLA 92037,32.87443,-117.24433,,,,,,,
1332,SHADOW MTN COMM CHR-FIRESIDE RM,960 5TH AVE  CHULA VISTA 91911,32.6158,-117.08019,,,,,,,
1333,POTTERS HOUSE CHRISTIAN FELLOWSHIP,9655 APPLE ST  SPRING VALLEY 91977,32.7145,-116.98968,,,,,,,
1334,MIRA MESA 1ST ASSEMBLY OF GOD,9696 CANDIDA ST BUS.  SAN DIEGO 92126,32.89794,-117.12028,,,,,,,
1335,FLINN SPRINGS FIRE STATION #21,9711 FLINN SPRINGS RD  EL CAJON 92021,32.85652,-116.85721,,,,,,,
1336,GARAGE-URBIZTONDO RESIDENCE,972 SAINT GERMAIN RD  CHULA VISTA 91913,32.64616,-116.97515,,,,,,,
1337,CARLTON HILLS LUTHERAN CHURCH-SANCTUARY,9735 HALBERNS BLVD  SANTEE 92071,32.85461,-116.99321,,,,,,,
1338,HAGE ELEM SCHOOL-AUDITORIUM,9750 GALVIN AVE SCHL  SAN DIEGO 92126,32.92196,-117.12061,,,,,,,
1339,MOUNTAIN HEALTH COMMUNITY CENTER,976 SHERIDAN RD  CAMPO 91906,32.60825,-116.46987,,,,,,,
1340,PIONEER ELEMENTARY SCHOOL-MPR,980 N ASH ST SCHL  ESCONDIDO 92027,33.13875,-117.07235,,,,,,,
1341,CASA MIRA VIEW - CLUBHOUSE,9800 MIRA LEE WAY  SAN DIEGO 92126,32.92229,-117.11825,,,,,,,
1342,SANTA SOPHIA PARISH - DE MOOR ROOM,9800 SAN JUAN ST  SPRING VALLEY 91977,32.74903,-116.98501,,,,,,,
1343,GARAGE-VILLEDIEU RESIDENCE,9818 VIA LESLIE  SANTEE 92071,32.8565,-116.98246,,,,,,,
1344,GARAGE-ELY RESIDENCE,9824 SEBRING CT  SANTEE 92071,32.85588,-116.96296,,,,,,,
1345,GARAGE-TREPANIER RESIDENCE,9830 FOX VALLEY WAY  SAN DIEGO 92127,33.01275,-117.11896,,,,,,,
1346,LAKESIDE BRANCH LIBRARY,9839 VINE ST  LAKESIDE 92040,32.8588,-116.92055,,,,,,,
1347,LAKESIDE HISTORICAL SOCIETY,9906 MAINE AVE  LAKESIDE 92040,32.85884,-116.92197,,,,,,,
1348,LAKESIDE COMM PRESBYTERIAN CHURCH,9908 CHANNEL RD  LAKESIDE 92040,32.85858,-116.92655,,,,,,,
1349,GARAGE-ZEMAN RESIDENCE,991 IRON HORSE DR  SAN MARCOS 92078,33.12362,-117.17539,,,,,,,
1350,TEAM AUTO COLLISION,9945 PROSPECT AVE  SANTEE 92071,32.83106,-116.98021,,,,,,,
1351,THE VILLAGE-BUILDING 2 CONFERENCE RM C,999000 *NORTHPOINT/SCHOLARS  LA JOLLA 92093,32.88373,-117.24238,,,,,,,
1352,WARREN COLLEGE-COURTROOM,999000 CANYON VIEW RD  LA JOLLA 92093,32.88059,-117.23187,,,,,,,
1353,SIXTH COLLEGE-DOGG HOUSE,999000 RUSSELL LN  LA JOLLA 92093,32.87798,-117.23422,,,,,,,
1354,MARSHALL COLLEGE - ANGELAS SPACE,999000 SCHOLARS DR  LA JOLLA 92093,32.87577,-117.24306,,,,,,,
1355,ELEANOR ROOSEVELT COLLEGE - MIDDLE EARTH,999000 SCHOLARS DR N  LA JOLLA 92093,32.88373,-117.24238,,,,,,,
1356,REVELLE COLLEGE-CONFERENCE ROOM C,999000 SCHOLARS DR S  LA JOLLA 92093,32.87577,-117.24306,,,,,,,
1357,MUIR COLLEGE-MARIPOSA ROOM,999000 SCHOLARS LN  LA JOLLA 92037,32.87808,-117.24238,,,,,,,
1358,NORTH CLUBHOUSE #1/6449 CAM DEL PARQUE,999214 CAMINO DEL PARQUE POLL  CARLSBAD 92011,33.11516,-117.31389,,,,,,,
