Unnamed: 0,name,address,lat,lon,Unnamed: 0.1,State,Locality,Precincts (Or Locality-wide),Is Early Voting,Is Drop Off,manual
3811,SYCAMORE ROCKS ELEMENTARY SCHOOL,"23450 S Rd, Apple Valley, CA 92307, USA",34.55306,-117.15283,3812.0,CA,SAN BERNARDINO COUNTY,"C08S16A33E1B1AVUUNI0011, C08S16A33E1B1AVUUNI0012, C08S21A33E1B1AVUAP50298, C08S21A33E1B1AVUAP50305, C08S21A33E1B1AVUAP51996, C08S16A33E1B1AVUUNI1997, C08S21A33E1B1AVUAP32170, C08S21A33E1B1AVUAP32261",False,False,1.0
3812,SYCAMORE ROCKS ELEMENTARY SCHOOL,"23450 S Rd, Apple Valley, CA 92307, USA",34.55306,-117.15283,3813.0,CA,SAN BERNARDINO COUNTY,"C08S16A33E1B1AVUUNI0011, C08S16A33E1B1AVUUNI0012, C08S21A33E1B1AVUAP50298, C08S21A33E1B1AVUAP50305, C08S21A33E1B1AVUAP51996, C08S16A33E1B1AVUUNI1997, C08S21A33E1B1AVUAP32170, C08S21A33E1B1AVUAP32261",True,False,1.0
3813,SANDIA ACADEMY,"21331 Sandia Rd, Apple Valley, CA 92308, USA",34.46282,-117.19874,3814.0,CA,SAN BERNARDINO COUNTY,"C08S16A33E1B1AVUUNI0015, C08S16A33E1B1AVUUNI0018, C08S16A33E1B1AVUUNI0019, C08S16A33E1B1AVUUNI0013, C08S16A33E1B1AVUUNI0014, C08S21A33E1B1AVUAP40322, C08S21A33E1B1AVUAP40323, C08S16A33E1B1AVUUNI1608, C08S21A33E1B1AVUAP41609, C08S16A33E1B1AVUUNI1982, C08S16A33E1B1AVUUNI1983, C08S16A33E1B1AVUUNI1984, C08S16A33E1B1AVUUNI1979, C08S16A33E1B1AVUUNI1985, C08S21A33E1B1AVUAP41986, C08S21A33E1B1AVUAP41987, C08S21A33E1B1AVUAP52265",False,False,1.0
3814,SANDIA ACADEMY,"21331 Sandia Rd, Apple Valley, CA 92308, USA",34.46282,-117.19874,3815.0,CA,SAN BERNARDINO COUNTY,"C08S16A33E1B1AVUUNI0015, C08S16A33E1B1AVUUNI0018, C08S16A33E1B1AVUUNI0019, C08S16A33E1B1AVUUNI0013, C08S16A33E1B1AVUUNI0014, C08S21A33E1B1AVUAP40322, C08S21A33E1B1AVUAP40323, C08S16A33E1B1AVUUNI1608, C08S21A33E1B1AVUAP41609, C08S16A33E1B1AVUUNI1982, C08S16A33E1B1AVUUNI1983, C08S16A33E1B1AVUUNI1984, C08S16A33E1B1AVUUNI1979, C08S16A33E1B1AVUUNI1985, C08S21A33E1B1AVUAP41986, C08S21A33E1B1AVUAP41987, C08S21A33E1B1AVUAP52265",True,False,1.0
3815,MARIANA RANCHOS COUNTY WATER DISTRICT,"9600 Manzanita St, Apple Valley, CA 92308, USA",34.42587,-117.20558,3816.0,CA,SAN BERNARDINO COUNTY,"C08S16A33E1B1AVUUNI0016, C08S16A33E1B1AVUUNI0017, C08S16A33E1B1AVUUNI1980, C08S16A33E1B1AVUUNI1981, C08S16A33E1B1AVUUNI2191",False,False,1.0
3816,MARIANA RANCHOS COUNTY WATER DISTRICT,"9600 Manzanita St, Apple Valley, CA 92308, USA",34.42587,-117.20558,3817.0,CA,SAN BERNARDINO COUNTY,"C08S16A33E1B1AVUUNI0016, C08S16A33E1B1AVUUNI0017, C08S16A33E1B1AVUUNI1980, C08S16A33E1B1AVUUNI1981, C08S16A33E1B1AVUUNI2191",True,False,1.0
3817,HINKLEY SENIOR CENTER,"35997 Mountain View Rd, Hinkley, CA 92347, USA",34.90457,-117.17079,3818.0,CA,SAN BERNARDINO COUNTY,"C08S16A33E1B1BRUUNI0031, C08S16A33E1B1BRUUNI0042, C08S16A33E1B1BRUUNI2071",False,False,1.0
3818,HINKLEY SENIOR CENTER,"35997 Mountain View Rd, Hinkley, CA 92347, USA",34.90457,-117.17079,3819.0,CA,SAN BERNARDINO COUNTY,"C08S16A33E1B1BRUUNI0031, C08S16A33E1B1BRUUNI0042, C08S16A33E1B1BRUUNI2071",True,False,1.0
3819,FIRST UNITED METHODIST CHURCH (BARSTOW),"404 E Mountain View St, Barstow, CA 92311, USA",34.89279,-117.02342,3820.0,CA,SAN BERNARDINO COUNTY,"C08S16A33E1B1BRUUNI0039, C08S16A33E1B1BRUUNI0040, C08S16A33E1B3BRUBA40132, C08S16A33E1B3BRUBA40133, C08S16A33E1B3BRUBA40134, C08S16A33E1B3BRUBA20137, C08S16A33E1B3BRUUNI0148, C08S16A33E1B3BRUUNI0149, C08S16A33E1B3BRUBA11861, C08S16A33E1B3BRUBA41862, C08S16A33E1B3BRUBA42073, C08S16A33E1B3BRUBA42074, C08S16A33E1B3BRUUNI2075, C08S16A33E1B3BRUBA42076, C08S16A33E1B3BRUBA12077, C08S16A33E1B3BRUBA42093, C08S16A33E1B3BRUBA42094, C08S16A33E1B3BRUBA42279, C08S16A33E1B3BRUUNI2280, C08S16A33E1B3BRUBA42285",False,False,1.0
3820,FIRST UNITED METHODIST CHURCH (BARSTOW),"404 E Mountain View St, Barstow, CA 92311, USA",34.89279,-117.02342,3821.0,CA,SAN BERNARDINO COUNTY,"C08S16A33E1B1BRUUNI0039, C08S16A33E1B1BRUUNI0040, C08S16A33E1B3BRUBA40132, C08S16A33E1B3BRUBA40133, C08S16A33E1B3BRUBA40134, C08S16A33E1B3BRUBA20137, C08S16A33E1B3BRUUNI0148, C08S16A33E1B3BRUUNI0149, C08S16A33E1B3BRUBA11861, C08S16A33E1B3BRUBA41862, C08S16A33E1B3BRUBA42073, C08S16A33E1B3BRUBA42074, C08S16A33E1B3BRUUNI2075, C08S16A33E1B3BRUBA42076, C08S16A33E1B3BRUBA12077, C08S16A33E1B3BRUBA42093, C08S16A33E1B3BRUBA42094, C08S16A33E1B3BRUBA42279, C08S16A33E1B3BRUUNI2280, C08S16A33E1B3BRUBA42285",True,False,1.0
3821,HI-DESERT WORD CENTER,"30918 Soapmine Rd, Barstow, CA 92311, USA",34.91174,-116.9875,3822.0,CA,SAN BERNARDINO COUNTY,"C08S16A33E1B1BRUUNI0043, C08S16A33E1B1BRUUNI0044, C08S16A33E1B3BRUBA40135, C08S16A33E1B3BRUBA11863, C08S16A33E1B3BRUBA41868, C08S16A33E1B3BRUBA12078, C08S16A33E1B1BRUUNI2089, C08S16A33E1B1BRUUNI2090, C08S16A33E1B3BRUBA42091, C08S16A33E1B3BRUBA42092, C08S16A33E1B1BRUUNI2172",False,False,1.0
3822,HI-DESERT WORD CENTER,"30918 Soapmine Rd, Barstow, CA 92311, USA",34.91174,-116.9875,3823.0,CA,SAN BERNARDINO COUNTY,"C08S16A33E1B1BRUUNI0043, C08S16A33E1B1BRUUNI0044, C08S16A33E1B3BRUBA40135, C08S16A33E1B3BRUBA11863, C08S16A33E1B3BRUBA41868, C08S16A33E1B3BRUBA12078, C08S16A33E1B1BRUUNI2089, C08S16A33E1B1BRUUNI2090, C08S16A33E1B3BRUBA42091, C08S16A33E1B3BRUBA42092, C08S16A33E1B1BRUUNI2172",True,False,1.0
3823,ST ANN PARISH,"218 D St, Needles, CA 92363, USA",34.83758,-114.60465,3824.0,CA,SAN BERNARDINO COUNTY,"C08S16A33E1B1NDUNEE0060, C08S16A33E1B1NDUNEE0061",False,False,1.0
3824,ST ANN PARISH,"218 D St, Needles, CA 92363, USA",34.83758,-114.60465,3825.0,CA,SAN BERNARDINO COUNTY,"C08S16A33E1B1NDUNEE0060, C08S16A33E1B1NDUNEE0061",True,False,1.0
3825,BONNIE BAKER SENIOR CENTER,"149350 Ukiah Trail, Big River, CA 92242, USA",34.12883,-114.39326,3826.0,CA,SAN BERNARDINO COUNTY,C08S16A33E1B1NDUUNI0063,False,False,1.0
3826,BONNIE BAKER SENIOR CENTER,"149350 Ukiah Trail, Big River, CA 92242, USA",34.12883,-114.39326,3827.0,CA,SAN BERNARDINO COUNTY,C08S16A33E1B1NDUUNI0063,True,False,1.0
3827,YERMO COMMUNITY SERVICES,"38315 McCormick St, Yermo, CA 92398, USA",34.90426,-116.82447,3828.0,CA,SAN BERNARDINO COUNTY,"C08S16A33E1B1SVUUNI0089, C08S16A33E1B1SVUUNI0090",False,False,1.0
3828,YERMO COMMUNITY SERVICES,"38315 McCormick St, Yermo, CA 92398, USA",34.90426,-116.82447,3829.0,CA,SAN BERNARDINO COUNTY,"C08S16A33E1B1SVUUNI0089, C08S16A33E1B1SVUUNI0090",True,False,1.0
3829,SENIOR CITIZENS BUILDING,"33383 Newberry Rd, Newberry Springs, CA 92365, USA",34.85952,-116.66201,3830.0,CA,SAN BERNARDINO COUNTY,"C08S16A33E1B1SVUUNI0093, C08S16A33E1B1SVUUNI0097",False,False,1.0
3830,SENIOR CITIZENS BUILDING,"33383 Newberry Rd, Newberry Springs, CA 92365, USA",34.85952,-116.66201,3831.0,CA,SAN BERNARDINO COUNTY,"C08S16A33E1B1SVUUNI0093, C08S16A33E1B1SVUUNI0097",True,False,1.0
3831,TRONA COMMUNITY SENIOR CENTER,"13187 Market St, Trona, CA 93562, USA",35.75883,-117.37721,3832.0,CA,SAN BERNARDINO COUNTY,C08S16A33E1B1TJUUNI0109,False,False,1.0
3832,TRONA COMMUNITY SENIOR CENTER,"13187 Market St, Trona, CA 93562, USA",35.75883,-117.37721,3833.0,CA,SAN BERNARDINO COUNTY,C08S16A33E1B1TJUUNI0109,True,False,1.0
3833,SILVER LAKES CLUBHOUSE,"27801 Mountain Springs Rd, Helendale, CA 92342, USA",34.75607,-117.34742,3834.0,CA,SAN BERNARDINO COUNTY,"C08S16A33E1B1VUHUNI0120, C08S16A33E1B1VUHUNI0121",False,False,1.0
3834,SILVER LAKES CLUBHOUSE,"27801 Mountain Springs Rd, Helendale, CA 92342, USA",34.75607,-117.34742,3835.0,CA,SAN BERNARDINO COUNTY,"C08S16A33E1B1VUHUNI0120, C08S16A33E1B1VUHUNI0121",True,False,1.0
3835,CORA M HARPER FITNESS CENTER,"841 Barstow Rd, Barstow, CA 92311, USA",34.88915,-117.02231,3836.0,CA,SAN BERNARDINO COUNTY,"C08S16A33E1B3BRUBA10136, C08S16A33E1B3BRUBA20138, C08S16A33E1B3BRUBA20139, C08S16A33E1B3BRUBA30140, C08S16A33E1B3BRUBA41867, C08S16A33E1B3BRUBA31869, C08S16A33E1B3BRUBA21870, C08S16A33E1B3BRUBA31857, C08S16A33E1B3BRUBA11858, C08S16A33E1B3BRUBA21871, C08S16A33E1B3BRUBA11859, C08S16A33E1B3BRUBA11860, C08S16A33E1B3BRUBA41864, C08S16A33E1B3BRUBA21865, C08S16A33E1B3BRUBA41866, C08S16A33E1B3BRUBA22087, C08S16A33E1B3BRUBA22079, C08S16A33E1B3BRUBA12080, C08S16A33E1B3BRUBA22081, C08S16A33E1B1BRUUNI2088, C08S16A33E1B3BRUBA32082, C08S16A33E1B3BRUBA32083, C08S16A33E1B3BRUBA22084, C08S16A33E1B3BRUBA22173, C08S16A33E1B3BRUBA22174",False,False,1.0
3836,CORA M HARPER FITNESS CENTER,"841 Barstow Rd, Barstow, CA 92311, USA",34.88915,-117.02231,3837.0,CA,SAN BERNARDINO COUNTY,"C08S16A33E1B3BRUBA10136, C08S16A33E1B3BRUBA20138, C08S16A33E1B3BRUBA20139, C08S16A33E1B3BRUBA30140, C08S16A33E1B3BRUBA41867, C08S16A33E1B3BRUBA31869, C08S16A33E1B3BRUBA21870, C08S16A33E1B3BRUBA31857, C08S16A33E1B3BRUBA11858, C08S16A33E1B3BRUBA21871, C08S16A33E1B3BRUBA11859, C08S16A33E1B3BRUBA11860, C08S16A33E1B3BRUBA41864, C08S16A33E1B3BRUBA21865, C08S16A33E1B3BRUBA41866, C08S16A33E1B3BRUBA22087, C08S16A33E1B3BRUBA22079, C08S16A33E1B3BRUBA12080, C08S16A33E1B3BRUBA22081, C08S16A33E1B1BRUUNI2088, C08S16A33E1B3BRUBA32082, C08S16A33E1B3BRUBA32083, C08S16A33E1B3BRUBA22084, C08S16A33E1B3BRUBA22173, C08S16A33E1B3BRUBA22174",True,False,1.0
3837,FIRE STATION #96 (FAWNSKIN),"39188 Rim of the World Dr, Fawnskin, CA 92333, USA",34.26986,-116.94709,3838.0,CA,SAN BERNARDINO COUNTY,"C08S16A33E1B3BVUUNI0152, C08S16A33E1B3BVUUNI0153, C08S16A33E1B3BVUUNI0154, C08S23A33E1B3BVUUNI0582",False,False,1.0
3838,FIRE STATION #96 (FAWNSKIN),"39188 Rim of the World Dr, Fawnskin, CA 92333, USA",34.26986,-116.94709,3839.0,CA,SAN BERNARDINO COUNTY,"C08S16A33E1B3BVUUNI0152, C08S16A33E1B3BVUUNI0153, C08S16A33E1B3BVUUNI0154, C08S23A33E1B3BVUUNI0582",True,False,1.0
3839,LUCERNE VALLEY COMMUNITY CENTER,"33187 Old Woman Springs Rd, Lucerne Valley, CA 92356, USA",34.4436,-116.93959,3840.0,CA,SAN BERNARDINO COUNTY,"C08S16A33E1B3LVUUNI0155, C08S16A33E1B3LVUUNI0157",False,False,1.0
3840,LUCERNE VALLEY COMMUNITY CENTER,"33187 Old Woman Springs Rd, Lucerne Valley, CA 92356, USA",34.4436,-116.93959,3841.0,CA,SAN BERNARDINO COUNTY,"C08S16A33E1B3LVUUNI0155, C08S16A33E1B3LVUUNI0157",True,False,1.0
3841,FIRE STATION #7 (LV),"10575 Dido Ave, Lucerne Valley, CA 92356, USA",34.44528,-116.84764,3842.0,CA,SAN BERNARDINO COUNTY,C08S16A33E1B3LVUUNI0158,False,False,1.0
3842,FIRE STATION #7 (LV),"10575 Dido Ave, Lucerne Valley, CA 92356, USA",34.44528,-116.84764,3843.0,CA,SAN BERNARDINO COUNTY,C08S16A33E1B3LVUUNI0158,True,False,1.0
3843,FLAMINGO HEIGHTS ASSOCIATION,"55977 Perris St, Yucca Valley, CA 92284, USA",34.23838,-116.44237,3844.0,CA,SAN BERNARDINO COUNTY,"C08S16A33E4B3MRUUNI0192, C08S16A42E4B3MRUUNI0264, C08S16A42E4B3MRUUNI0251, C08S16A42E4B3MRUUNI0252, C08S16A42E4B3MRUUNI0253, C08S16A42E4B3MRUUNI0245, C08S16A42E4B3MRUUNI0248, C08S16A42E4B3MRUUNI0249, C08S16A42E4B3MRUUNI0250, C08S16A42E4B3MRUUNI0262, C08S16A42E4B3MRUYV20268, C08S16A42E4B3MRUUNI0263, C08S16A42E4B3MRUUNI1733, C08S16A42E4B3MRUUNI1734, C08S16A42E4B3MRUUNI2136",False,False,1.0
3844,FLAMINGO HEIGHTS ASSOCIATION,"55977 Perris St, Yucca Valley, CA 92284, USA",34.23838,-116.44237,3845.0,CA,SAN BERNARDINO COUNTY,"C08S16A33E4B3MRUUNI0192, C08S16A42E4B3MRUUNI0264, C08S16A42E4B3MRUUNI0251, C08S16A42E4B3MRUUNI0252, C08S16A42E4B3MRUUNI0253, C08S16A42E4B3MRUUNI0245, C08S16A42E4B3MRUUNI0248, C08S16A42E4B3MRUUNI0249, C08S16A42E4B3MRUUNI0250, C08S16A42E4B3MRUUNI0262, C08S16A42E4B3MRUYV20268, C08S16A42E4B3MRUUNI0263, C08S16A42E4B3MRUUNI1733, C08S16A42E4B3MRUUNI1734, C08S16A42E4B3MRUUNI2136",True,False,1.0
3845,FIRST BAPTIST CHURCH (29 PALMS),"6414 Split Rock Ave, Twentynine Palms, CA 92277, USA",34.13694,-116.06064,3846.0,CA,SAN BERNARDINO COUNTY,"C08S16A42E1B3MRUUNI0200, C08S16A42E1B3MRUUNI0203, C08S16A42E4B3MRUTP50212, C08S16A42E4B3MRUTP10213, C08S16A42E4B3MRUTP41889, C08S16A42E4B3MRUTP41890, C08S16A42E4B3MRUTP41884, C08S16A42E4B3MRUTP41885, C08S16A42E4B3MRUTP41886, C08S16A42E4B3MRUTP31887, C08S16A42E4B3MRUTP31888, C08S16A42E1B3MRUUNI2108, C08S16A42E4B3MRUTP52109, C08S16A42E4B3MRUTP52110, C08S16A42E4B3MRUTP42111, C08S16A42E4B3MRUTP42112, C08S16A42E4B3MRUTP52181, C08S16A42E4B3MRUTP52183",False,False,1.0
3846,FIRST BAPTIST CHURCH (29 PALMS),"6414 Split Rock Ave, Twentynine Palms, CA 92277, USA",34.13694,-116.06064,3847.0,CA,SAN BERNARDINO COUNTY,"C08S16A42E1B3MRUUNI0200, C08S16A42E1B3MRUUNI0203, C08S16A42E4B3MRUTP50212, C08S16A42E4B3MRUTP10213, C08S16A42E4B3MRUTP41889, C08S16A42E4B3MRUTP41890, C08S16A42E4B3MRUTP41884, C08S16A42E4B3MRUTP41885, C08S16A42E4B3MRUTP41886, C08S16A42E4B3MRUTP31887, C08S16A42E4B3MRUTP31888, C08S16A42E1B3MRUUNI2108, C08S16A42E4B3MRUTP52109, C08S16A42E4B3MRUTP52110, C08S16A42E4B3MRUTP42111, C08S16A42E4B3MRUTP42112, C08S16A42E4B3MRUTP52181, C08S16A42E4B3MRUTP52183",True,False,1.0
3847,DESERT CONGREGATIONAL CHURCH,"5688 Sunrise Rd, Twentynine Palms, CA 92277, USA",34.15087,-116.10813,3848.0,CA,SAN BERNARDINO COUNTY,"C08S16A42E4B3MRUTP10210, C08S16A42E4B3MRUTP20211, C08S16A42E4B3MRUTP10214, C08S16A42E4B3MRUUNI0223, C08S16A42E4B3MRUUNI0224, C08S16A42E4B3MRUUNI0225, C08S16A42E4B3MRUUNI0239, C08S16A42E4B3MRUTP21880, C08S16A42E4B3MRUTP51881, C08S16A42E4B3MRUTP31882, C08S16A42E4B3MRUTP51883, C08S16A42E4B3MRUTP41879, C08S16A42E4B3MRUTP41891, C08S16A42E4B3MRUTP31892, C08S16A42E4B3MRUTP11893, C08S16A42E4B3MRUTP21894, C08S16A42E4B3MRUTP22113, C08S16A42E4B3MRUTP32114, C08S16A42E4B3MRUTP22115",False,False,1.0
3848,DESERT CONGREGATIONAL CHURCH,"5688 Sunrise Rd, Twentynine Palms, CA 92277, USA",34.15087,-116.10813,3849.0,CA,SAN BERNARDINO COUNTY,"C08S16A42E4B3MRUTP10210, C08S16A42E4B3MRUTP20211, C08S16A42E4B3MRUTP10214, C08S16A42E4B3MRUUNI0223, C08S16A42E4B3MRUUNI0224, C08S16A42E4B3MRUUNI0225, C08S16A42E4B3MRUUNI0239, C08S16A42E4B3MRUTP21880, C08S16A42E4B3MRUTP51881, C08S16A42E4B3MRUTP31882, C08S16A42E4B3MRUTP51883, C08S16A42E4B3MRUTP41879, C08S16A42E4B3MRUTP41891, C08S16A42E4B3MRUTP31892, C08S16A42E4B3MRUTP11893, C08S16A42E4B3MRUTP21894, C08S16A42E4B3MRUTP22113, C08S16A42E4B3MRUTP32114, C08S16A42E4B3MRUTP22115",True,False,1.0
3849,YUCCA MESA COMMUNITY CENTER,"3133 Balsa Ave, Yucca Valley, CA 92284, USA",34.19609,-116.3952,3850.0,CA,SAN BERNARDINO COUNTY,"C08S16A42E4B3MRUUNI0226, C08S16A42E4B3MRUUNI0254, C08S16A42E4B3MRUYV20272, C08S16A42E4B3MRUYV40273, C08S16A42E4B3MRUYV41903, C08S16A42E4B3MRUYV41904, C08S16A42E4B3MRUYV22130, C08S16A42E4B3MRUYV22131, C08S16A42E4B3MRUUNI2132, C08S16A42E4B3MRUUNI2133, C08S16A42E4B3MRUYV22186",False,False,1.0
3850,YUCCA MESA COMMUNITY CENTER,"3133 Balsa Ave, Yucca Valley, CA 92284, USA",34.19609,-116.3952,3851.0,CA,SAN BERNARDINO COUNTY,"C08S16A42E4B3MRUUNI0226, C08S16A42E4B3MRUUNI0254, C08S16A42E4B3MRUYV20272, C08S16A42E4B3MRUYV40273, C08S16A42E4B3MRUYV41903, C08S16A42E4B3MRUYV41904, C08S16A42E4B3MRUYV22130, C08S16A42E4B3MRUYV22131, C08S16A42E4B3MRUUNI2132, C08S16A42E4B3MRUUNI2133, C08S16A42E4B3MRUYV22186",True,False,1.0
3851,FIRE STATION #36 (JOSHUA TREE),"6715 Park Blvd, Joshua Tree, CA 92252, USA",34.1309,-116.31487,3852.0,CA,SAN BERNARDINO COUNTY,"C08S16A42E4B3MRUUNI0227, C08S16A42E4B3MRUUNI0229, C08S16A42E4B3MRUUNI0230, C08S16A42E4B3MRUUNI2117, C08S16A42E4B3MRUUNI2118, C08S16A42E4B3MRUUNI2119, C08S16A42E4B3MRUUNI2184, C08S16A42E4B3MRUUNI2238, C08S16A42E4B3MRUUNI2239",False,False,1.0
3852,FIRE STATION #36 (JOSHUA TREE),"6715 Park Blvd, Joshua Tree, CA 92252, USA",34.1309,-116.31487,3853.0,CA,SAN BERNARDINO COUNTY,"C08S16A42E4B3MRUUNI0227, C08S16A42E4B3MRUUNI0229, C08S16A42E4B3MRUUNI0230, C08S16A42E4B3MRUUNI2117, C08S16A42E4B3MRUUNI2118, C08S16A42E4B3MRUUNI2119, C08S16A42E4B3MRUUNI2184, C08S16A42E4B3MRUUNI2238, C08S16A42E4B3MRUUNI2239",True,False,1.0
3853,COVINGTON PARK COMMUNITY BUILDING,"11165 Vale Dr, Morongo Valley, CA 92256, USA",34.04981,-116.57301,3854.0,CA,SAN BERNARDINO COUNTY,C08S16A42E4B3MRUUNI0259,False,False,1.0
3854,COVINGTON PARK COMMUNITY BUILDING,"11165 Vale Dr, Morongo Valley, CA 92256, USA",34.04981,-116.57301,3855.0,CA,SAN BERNARDINO COUNTY,C08S16A42E4B3MRUUNI0259,True,False,1.0
3855,DESERT HILLS PRESBYTERIAN CHURCH,"56750 Mountain View Trail, Yucca Valley, CA 92284, USA",34.10882,-116.42598,3856.0,CA,SAN BERNARDINO COUNTY,"C08S16A42E4B3MRUYV10265, C08S16A42E4B3MRUYV30266, C08S16A42E4B3MRUYV50274, C08S16A42E4B3MRUYV40275, C08S16A42E4B3MRUYV30271, C08S16A42E4B3MRUYV51901, C08S16A42E4B3MRUYV21895, C08S16A42E4B3MRUYV31899, C08S16A42E4B3MRUYV11896, C08S16A42E4B3MRUYV11897, C08S16A42E4B3MRUVY11898, C08S16A42E4B3MRUYV51900, C08S16A42E4B3MRUYV41902, C08S16A42E4B3MRUYV12125, C08S16A42E4B3MRUYV22126, C08S16A42E4B3MRUYV42127, C08S16A42E4B3MRUYV52128, C08S16A42E4B3MRUYV42129, C08S16A42E4B3MRUYV32137, C08S16A42E4B3MRUYV32138",False,False,1.0
3856,DESERT HILLS PRESBYTERIAN CHURCH,"56750 Mountain View Trail, Yucca Valley, CA 92284, USA",34.10882,-116.42598,3857.0,CA,SAN BERNARDINO COUNTY,"C08S16A42E4B3MRUYV10265, C08S16A42E4B3MRUYV30266, C08S16A42E4B3MRUYV50274, C08S16A42E4B3MRUYV40275, C08S16A42E4B3MRUYV30271, C08S16A42E4B3MRUYV51901, C08S16A42E4B3MRUYV21895, C08S16A42E4B3MRUYV31899, C08S16A42E4B3MRUYV11896, C08S16A42E4B3MRUYV11897, C08S16A42E4B3MRUVY11898, C08S16A42E4B3MRUYV51900, C08S16A42E4B3MRUYV41902, C08S16A42E4B3MRUYV12125, C08S16A42E4B3MRUYV22126, C08S16A42E4B3MRUYV42127, C08S16A42E4B3MRUYV52128, C08S16A42E4B3MRUYV42129, C08S16A42E4B3MRUYV32137, C08S16A42E4B3MRUYV32138",True,False,1.0
3857,FIRE STATION #2 (DEVORE),"1511 Devore Rd, San Bernardino, CA 92407, USA",34.2277,-117.40347,3858.0,CA,SAN BERNARDINO COUNTY,"C08S20A47E1B2SBUUNI0292, C08S20A47E1B2SBUUNI0293, C08S23A40E1B2SBUUNI0701, C08S23A40E1B2SBUUNI0705, C08S23A40E1B5SBUUNI0715, C08S23A40E1B5SBUUNI0716",False,False,1.0
3858,FIRE STATION #2 (DEVORE),"1511 Devore Rd, San Bernardino, CA 92407, USA",34.2277,-117.40347,3859.0,CA,SAN BERNARDINO COUNTY,"C08S20A47E1B2SBUUNI0292, C08S20A47E1B2SBUUNI0293, C08S23A40E1B2SBUUNI0701, C08S23A40E1B2SBUUNI0705, C08S23A40E1B5SBUUNI0715, C08S23A40E1B5SBUUNI0716",True,False,1.0
3859,APPLE VALLEY CHAMBER OF COMMERCE,"16010 Apple Valley Rd, Apple Valley, CA 92307, USA",34.54146,-117.2746,3860.0,CA,SAN BERNARDINO COUNTY,"C08S21A33E1B1AVUAP10299, C08S21A33E1B1AVUAP10300, C08S21A33E1B1AVUAP10301, C08S21A33E1B1AVUAP10302, C08S21A33E1B1AVUAP12047, C08S21A33E1B1AVUAP22257",False,False,1.0
3860,APPLE VALLEY CHAMBER OF COMMERCE,"16010 Apple Valley Rd, Apple Valley, CA 92307, USA",34.54146,-117.2746,3861.0,CA,SAN BERNARDINO COUNTY,"C08S21A33E1B1AVUAP10299, C08S21A33E1B1AVUAP10300, C08S21A33E1B1AVUAP10301, C08S21A33E1B1AVUAP10302, C08S21A33E1B1AVUAP12047, C08S21A33E1B1AVUAP22257",True,False,1.0
3861,TOWN OF APPLE VALLEY CONFERENCE CENTER,"14975 Dale Evans Pkwy, Apple Valley, CA 92307, USA",34.52525,-117.21442,3862.0,CA,SAN BERNARDINO COUNTY,"C08S21A33E1B1AVUAP10303, C08S21A33E1B1AVUAP30304, C08S21A33E1B1AVUAP30309, C08S21A33E1B1AVUAP30311, C08S21A33E1B1AVUAP11993, C08S21A33E1B1AVUAP11994, C08S21A33E1B1AVUAP31995, C08S21A33E1B1AVUAP12258, C08S21A33E1B1AVUAP22259, C08S21A33E1B1AVUAP22260",False,False,1.0
3862,TOWN OF APPLE VALLEY CONFERENCE CENTER,"14975 Dale Evans Pkwy, Apple Valley, CA 92307, USA",34.52525,-117.21442,3863.0,CA,SAN BERNARDINO COUNTY,"C08S21A33E1B1AVUAP10303, C08S21A33E1B1AVUAP30304, C08S21A33E1B1AVUAP30309, C08S21A33E1B1AVUAP30311, C08S21A33E1B1AVUAP11993, C08S21A33E1B1AVUAP11994, C08S21A33E1B1AVUAP31995, C08S21A33E1B1AVUAP12258, C08S21A33E1B1AVUAP22259, C08S21A33E1B1AVUAP22260",True,False,1.0
3863,CHURCH FOR WHOSOEVER,"18628 Seneca Rd, Apple Valley, CA 92307, USA",34.51555,-117.25742,3864.0,CA,SAN BERNARDINO COUNTY,"C08S21A33E1B1AVUAP20307, C08S21A33E1B1AVUAP10308, C08S21A33E1B1AVUAP20310, C08S21A33E1B1AVUAP21991, C08S21A33E1B1AVUAP11992",False,False,1.0
3864,CHURCH FOR WHOSOEVER,"18628 Seneca Rd, Apple Valley, CA 92307, USA",34.51555,-117.25742,3865.0,CA,SAN BERNARDINO COUNTY,"C08S21A33E1B1AVUAP20307, C08S21A33E1B1AVUAP10308, C08S21A33E1B1AVUAP20310, C08S21A33E1B1AVUAP21991, C08S21A33E1B1AVUAP11992",True,False,1.0
3865,EQUESTRIAN CENTER,"12660 Indian River Dr, Apple Valley, CA 92308, USA",34.48187,-117.25167,3866.0,CA,SAN BERNARDINO COUNTY,"C08S21A33E1B1AVUAP20312, C08S21A33E1B1AVUAP20313, C08S21A33E1B1AVUAP40314, C08S21A33E1B1AVUAP41989, C08S21A33E1B1AVUAP22290",False,False,1.0
3866,EQUESTRIAN CENTER,"12660 Indian River Dr, Apple Valley, CA 92308, USA",34.48187,-117.25167,3867.0,CA,SAN BERNARDINO COUNTY,"C08S21A33E1B1AVUAP20312, C08S21A33E1B1AVUAP20313, C08S21A33E1B1AVUAP40314, C08S21A33E1B1AVUAP41989, C08S21A33E1B1AVUAP22290",True,False,1.0
3867,MARIPOSA LODGE,"19311 Jess Ranch Pkwy, Apple Valley, CA 92308, USA",34.45904,-117.24093,3868.0,CA,SAN BERNARDINO COUNTY,"C08S21A33E1B1AVUAP20320, C08S21A33E1B1AVUAP40321",False,False,1.0
3868,MARIPOSA LODGE,"19311 Jess Ranch Pkwy, Apple Valley, CA 92308, USA",34.45904,-117.24093,3869.0,CA,SAN BERNARDINO COUNTY,"C08S21A33E1B1AVUAP20320, C08S21A33E1B1AVUAP40321",True,False,1.0
3869,JAMES WOODY COMMUNITY CENTER,"13467 Navajo Rd, Apple Valley, CA 92308, USA",34.49602,-117.18975,3870.0,CA,SAN BERNARDINO COUNTY,"C08S21A33E1B1AVUAP30315, C08S21A33E1B1AVUAP30316, C08S21A33E1B1AVUAP50318, C08S21A33E1B1AVUAP31990",False,False,1.0
3870,JAMES WOODY COMMUNITY CENTER,"13467 Navajo Rd, Apple Valley, CA 92308, USA",34.49602,-117.18975,3871.0,CA,SAN BERNARDINO COUNTY,"C08S21A33E1B1AVUAP30315, C08S21A33E1B1AVUAP30316, C08S21A33E1B1AVUAP50318, C08S21A33E1B1AVUAP31990",True,False,1.0
3871,NEW HOPE COMMUNITY CHURCH,"12345 Navajo Rd, Apple Valley, CA 92308, USA",34.47555,-117.18984,3872.0,CA,SAN BERNARDINO COUNTY,"C08S21A33E1B1AVUAP30317, C08S21A33E1B1AVUAP41988, C08S21A33E1B1AVUAP42262, C08S21A33E1B1AVUAP42263, C08S21A33E1B1AVUAP42264",False,False,1.0
3872,NEW HOPE COMMUNITY CHURCH,"12345 Navajo Rd, Apple Valley, CA 92308, USA",34.47555,-117.18984,3873.0,CA,SAN BERNARDINO COUNTY,"C08S21A33E1B1AVUAP30317, C08S21A33E1B1AVUAP41988, C08S21A33E1B1AVUAP42262, C08S21A33E1B1AVUAP42263, C08S21A33E1B1AVUAP42264",True,False,1.0
3873,GRANITE HILLS HIGH SCHOOL,"22900 Esaws Ave, Apple Valley, CA 92307, USA",34.50995,-117.16691,3874.0,CA,SAN BERNARDINO COUNTY,C08S21A33E1B1AVUAP50306,False,False,1.0
3874,GRANITE HILLS HIGH SCHOOL,"22900 Esaws Ave, Apple Valley, CA 92307, USA",34.50995,-117.16691,3875.0,CA,SAN BERNARDINO COUNTY,C08S21A33E1B1AVUAP50306,True,False,1.0
3875,NAZARENE CHURCH,"12935 Central Rd, Apple Valley, CA 92308, USA",34.48712,-117.17215,3876.0,CA,SAN BERNARDINO COUNTY,C08S21A33E1B1AVUAP50319,False,False,1.0
3876,NAZARENE CHURCH,"12935 Central Rd, Apple Valley, CA 92308, USA",34.48712,-117.17215,3877.0,CA,SAN BERNARDINO COUNTY,C08S21A33E1B1AVUAP50319,True,False,1.0
3877,MAPLE ELEMENTARY SCHOOL (HESPERIA),"10616 Maple Ave, Hesperia, CA 92345, USA",34.44268,-117.34859,3878.0,CA,SAN BERNARDINO COUNTY,"C08S21A33E1B1HPUHE12014, C08S21A33E1B1HPUHE12015, C08S21A33E1B1HPUHE12016, C08S21A33E1B1HPUHE10329, C08S21A33E1B1HPUHE20330, C08S21A33E1B1HPUHE10333, C08S21A33E1B1HPUHE20336",False,False,1.0
3878,MAPLE ELEMENTARY SCHOOL (HESPERIA),"10616 Maple Ave, Hesperia, CA 92345, USA",34.44268,-117.34859,3879.0,CA,SAN BERNARDINO COUNTY,"C08S21A33E1B1HPUHE12014, C08S21A33E1B1HPUHE12015, C08S21A33E1B1HPUHE12016, C08S21A33E1B1HPUHE10329, C08S21A33E1B1HPUHE20330, C08S21A33E1B1HPUHE10333, C08S21A33E1B1HPUHE20336",True,False,1.0
3879,NOVACK COMMUNITY CENTER,"13558 Palm St, Hesperia, CA 92344, USA",34.40904,-117.36817,3880.0,CA,SAN BERNARDINO COUNTY,"C08S21A33E1B1HPUHE12018, C08S21A33E1B1HPUHE52019, C08S21A33E1B1HPUHE12020, C08S21A33E1B1HPUUNI2021, C08S21A33E1B1HPUUNI2022, C08S21A33E1B1HPUHE10341, C08S21A33E1B1HPUHE10342, C08S21A33E1B1HPUHE50344, C08S21A33E1B1HPUUNI0363, C08S21A33E1B1HPUUNI0364, C08S21A33E1B1HPUHE41606",False,False,1.0
3880,NOVACK COMMUNITY CENTER,"13558 Palm St, Hesperia, CA 92344, USA",34.40904,-117.36817,3881.0,CA,SAN BERNARDINO COUNTY,"C08S21A33E1B1HPUHE12018, C08S21A33E1B1HPUHE52019, C08S21A33E1B1HPUHE12020, C08S21A33E1B1HPUUNI2021, C08S21A33E1B1HPUUNI2022, C08S21A33E1B1HPUHE10341, C08S21A33E1B1HPUHE10342, C08S21A33E1B1HPUHE50344, C08S21A33E1B1HPUUNI0363, C08S21A33E1B1HPUUNI0364, C08S21A33E1B1HPUHE41606",True,False,1.0
3881,EPICENTER RECREATION CENTER,"17508 Hercules St, Hesperia, CA 92345, USA",34.43099,-117.28139,3882.0,CA,SAN BERNARDINO COUNTY,"C08S21A33E1B1HPUHE20338, C08S21A33E1B1HPUHE40350, C08S21A33E1B1HPUHE40351, C08S21A33E1B1HPUHE40354, C08S21A33E1B1HPUHE42031, C08S21A33E1B1HPUHE52032, C08S21A33E1B1HPUHE52058",False,False,1.0
3882,EPICENTER RECREATION CENTER,"17508 Hercules St, Hesperia, CA 92345, USA",34.43099,-117.28139,3883.0,CA,SAN BERNARDINO COUNTY,"C08S21A33E1B1HPUHE20338, C08S21A33E1B1HPUHE40350, C08S21A33E1B1HPUHE40351, C08S21A33E1B1HPUHE40354, C08S21A33E1B1HPUHE42031, C08S21A33E1B1HPUHE52032, C08S21A33E1B1HPUHE52058",True,False,1.0
3883,POWER PLAY CENTER,"10770 I Ave, Hesperia, CA 92345, USA",34.44685,-117.27781,3884.0,CA,SAN BERNARDINO COUNTY,"C08S21A33E1B1HPUHE22023, C08S21A33E1B1HPUHE30331, C08S21A33E1B1HPUHE30332, C08S21A33E1B1HPUHE30339",False,False,1.0
3884,POWER PLAY CENTER,"10770 I Ave, Hesperia, CA 92345, USA",34.44685,-117.27781,3885.0,CA,SAN BERNARDINO COUNTY,"C08S21A33E1B1HPUHE22023, C08S21A33E1B1HPUHE30331, C08S21A33E1B1HPUHE30332, C08S21A33E1B1HPUHE30339",True,False,1.0
3885,HESPERIA HIGH SCHOOL,"9898 Maple Ave, Hesperia, CA 92345, USA",34.43016,-117.35052,3886.0,CA,SAN BERNARDINO COUNTY,"C08S21A33E1B1HPUHE42017, C08S21A33E1B1HPUHE22024, C08S21A33E1B1HPUHE10335, C08S21A33E1B1HPUHE20337, C08S21A33E1B1HPUHE40343, C08S21A33E1B1HPUHE40348, C08S21A33E1B1HPUHE41607, C08S21A33E1B1HPUHE42025, C08S21A33E1B1HPUHE42026, C08S21A33E1B1HPUHE42027, C08S21A33E1B1HPUHE42028, C08S21A33E1B1HPUHE42051, C08S21A33E1B1HPUHE42182",False,False,1.0
3886,HESPERIA HIGH SCHOOL,"9898 Maple Ave, Hesperia, CA 92345, USA",34.43016,-117.35052,3887.0,CA,SAN BERNARDINO COUNTY,"C08S21A33E1B1HPUHE42017, C08S21A33E1B1HPUHE22024, C08S21A33E1B1HPUHE10335, C08S21A33E1B1HPUHE20337, C08S21A33E1B1HPUHE40343, C08S21A33E1B1HPUHE40348, C08S21A33E1B1HPUHE41607, C08S21A33E1B1HPUHE42025, C08S21A33E1B1HPUHE42026, C08S21A33E1B1HPUHE42027, C08S21A33E1B1HPUHE42028, C08S21A33E1B1HPUHE42051, C08S21A33E1B1HPUHE42182",True,False,1.0
3887,HESPERIA CHURCH OF THE NAZARENE,"8518 Maple Ave, Hesperia, CA 92345, USA",34.4073,-117.34664,3888.0,CA,SAN BERNARDINO COUNTY,"C08S21A33E1B1HPUHE50346, C08S21A33E1B1HPUHE50347, C08S21A33E1B1HPUHE50349, C08S21A33E1B1HPUHE51815, C08S21A33E1B1HPUHE52029, C08S21A33E1B1HPUHE52030, C08S21A33E1B1HPUHE52034, C08S21A33E1B1HPUHE52035, C08S21A33E1B1HPUHE52052, C08S21A33E1B1HPUHE52053, C08S21A33E1B1HPUHE52054, C08S21A33E1B1HPUHE52055, C08S21A33E1B1HPUHE52056, C08S21A33E1B1HPUHE52057, C08S21A33E1B1HPUHE52059",False,False,1.0
3888,HESPERIA CHURCH OF THE NAZARENE,"8518 Maple Ave, Hesperia, CA 92345, USA",34.4073,-117.34664,3889.0,CA,SAN BERNARDINO COUNTY,"C08S21A33E1B1HPUHE50346, C08S21A33E1B1HPUHE50347, C08S21A33E1B1HPUHE50349, C08S21A33E1B1HPUHE51815, C08S21A33E1B1HPUHE52029, C08S21A33E1B1HPUHE52030, C08S21A33E1B1HPUHE52034, C08S21A33E1B1HPUHE52035, C08S21A33E1B1HPUHE52052, C08S21A33E1B1HPUHE52053, C08S21A33E1B1HPUHE52054, C08S21A33E1B1HPUHE52055, C08S21A33E1B1HPUHE52056, C08S21A33E1B1HPUHE52057, C08S21A33E1B1HPUHE52059",True,False,1.0
3889,HESPERIA GOLF AND COUNTRY CLUB,"17970 Bangor Ave, Hesperia, CA 92345, USA",34.4083,-117.27109,3890.0,CA,SAN BERNARDINO COUNTY,"C08S21A33E1B1HPUHE50352, C08S21A33E1B1HPUHE30353, C08S21A33E1B1HPUHE50355, C08S21A33E1B1HPUHE30356, C08S21A33E1B1HPUHE51816, C08S21A33E1B1HPUHE41817, C08S21A33E1B1HPUHE31818, C08S21A33E1B1HPUHE32033, C08S21A33E1B1HPUHE42060, C08S21A33E1B1HPUHE42061, C08S21A33E1B1HPUHE52062, C08S21A33E1B1HPUHE52063, C08S21A33E1B1HPUHE52064, C08S21A33E1B1HPUHE32065, C08S21A33E1B1HPUHE32192",False,False,1.0
3890,HESPERIA GOLF AND COUNTRY CLUB,"17970 Bangor Ave, Hesperia, CA 92345, USA",34.4083,-117.27109,3891.0,CA,SAN BERNARDINO COUNTY,"C08S21A33E1B1HPUHE50352, C08S21A33E1B1HPUHE30353, C08S21A33E1B1HPUHE50355, C08S21A33E1B1HPUHE30356, C08S21A33E1B1HPUHE51816, C08S21A33E1B1HPUHE41817, C08S21A33E1B1HPUHE31818, C08S21A33E1B1HPUHE32033, C08S21A33E1B1HPUHE42060, C08S21A33E1B1HPUHE42061, C08S21A33E1B1HPUHE52062, C08S21A33E1B1HPUHE52063, C08S21A33E1B1HPUHE52064, C08S21A33E1B1HPUHE32065, C08S21A33E1B1HPUHE32192",True,False,1.0
3891,FIRE STATION #305,"8331 Caliente Rd, Hesperia, CA 92344, USA",34.40158,-117.40305,3892.0,CA,SAN BERNARDINO COUNTY,"C08S21A33E1B1HPUUNI0365, C08S21A33E1B1HPUHE10334, C08S21A33E1B1SJUUNI0374, C08S21A33E1B1HPUHE10340, C08S21A33E1B1HPUUNI0366, C08S21A33E1B1HPUUNI0361, C08S21A33E1B1HPUUNI0362, C08S21A33E1B1SJUUNI0375, C08S21A33E1B1SJUHE10370, C08S21A33E1B1SJUUNI0376, C08S21A33E1B1SJUHE10371, C08S21A33E1B1SJUUNI0373, C08S23A33E1B1HPUUNI0467, C08S23A33E1B1SJUUNI0480, C08S21A33E1B1SJUUNI1905, C08S23A33E1B1SJUUNI1914",False,False,1.0
3892,FIRE STATION #305,"8331 Caliente Rd, Hesperia, CA 92344, USA",34.40158,-117.40305,3893.0,CA,SAN BERNARDINO COUNTY,"C08S21A33E1B1HPUUNI0365, C08S21A33E1B1HPUHE10334, C08S21A33E1B1SJUUNI0374, C08S21A33E1B1HPUHE10340, C08S21A33E1B1HPUUNI0366, C08S21A33E1B1HPUUNI0361, C08S21A33E1B1HPUUNI0362, C08S21A33E1B1SJUUNI0375, C08S21A33E1B1SJUHE10370, C08S21A33E1B1SJUUNI0376, C08S21A33E1B1SJUHE10371, C08S21A33E1B1SJUUNI0373, C08S23A33E1B1HPUUNI0467, C08S23A33E1B1SJUUNI0480, C08S21A33E1B1SJUUNI1905, C08S23A33E1B1SJUUNI1914",True,False,1.0
3893,HAWTHORN SUITES,"11750 Dunia Rd, Victorville, CA 92392, USA",34.46405,-117.35361,3894.0,CA,SAN BERNARDINO COUNTY,"C08S21A33E1B1HPUVIC0368, C08S21A33E1B1HPUVIC0369, C08S21A33E1B1SJUVIC0379, C08S21A33E1B1VUHVIC0453, C08S21A33E1B1VUHVIC0449, C08S21A33E1B1VUHVIC0450, C08S21A33E1B1VUHVIC0452, C08S21A33E1B1HPUVIC1617, C08S21A33E1B1HPUVIC1618, C08S21A33E1B1VUHVIC1938",False,False,1.0
3894,HAWTHORN SUITES,"11750 Dunia Rd, Victorville, CA 92392, USA",34.46405,-117.35361,3895.0,CA,SAN BERNARDINO COUNTY,"C08S21A33E1B1HPUVIC0368, C08S21A33E1B1HPUVIC0369, C08S21A33E1B1SJUVIC0379, C08S21A33E1B1VUHVIC0453, C08S21A33E1B1VUHVIC0449, C08S21A33E1B1VUHVIC0450, C08S21A33E1B1VUHVIC0452, C08S21A33E1B1HPUVIC1617, C08S21A33E1B1HPUVIC1618, C08S21A33E1B1VUHVIC1938",True,False,1.0
3895,BALDY MESA COMMUNITY CHURCH,"9932 5th St, Victorville, CA 92392, USA",34.46323,-117.44642,3896.0,CA,SAN BERNARDINO COUNTY,"C08S21A33E1B1SJUUNI0372, C08S23A33E1B1SJUUNI0478, C08S23A33E1B1SJUUNI0479, C08S21A33E1B1SJUUNI1602, C08S21A33E1B1SJUUNI1603, C08S21A33E1B1SJUUNI1906, C08S21A33E1B1SJUUNI1907, C08S23A33E1B1SJUUNI1908, C08S23A33E1B1SJUUNI1909, C08S21A33E1B1SJUUNI2190",False,False,1.0
3896,BALDY MESA COMMUNITY CHURCH,"9932 5th St, Victorville, CA 92392, USA",34.46323,-117.44642,3897.0,CA,SAN BERNARDINO COUNTY,"C08S21A33E1B1SJUUNI0372, C08S23A33E1B1SJUUNI0478, C08S23A33E1B1SJUUNI0479, C08S21A33E1B1SJUUNI1602, C08S21A33E1B1SJUUNI1603, C08S21A33E1B1SJUUNI1906, C08S21A33E1B1SJUUNI1907, C08S23A33E1B1SJUUNI1908, C08S23A33E1B1SJUUNI1909, C08S21A33E1B1SJUUNI2190",True,False,1.0
3897,VISTA VERDE ELEMENTARY SCHOOL,"13403 Vista Verde St, Victorville, CA 92392, USA",34.49575,-117.40209,3898.0,CA,SAN BERNARDINO COUNTY,"C08S21A33E1B1SJUVIC0377, C08S21A33E1B1SJUVIC0378",False,False,1.0
3898,VISTA VERDE ELEMENTARY SCHOOL,"13403 Vista Verde St, Victorville, CA 92392, USA",34.49575,-117.40209,3899.0,CA,SAN BERNARDINO COUNTY,"C08S21A33E1B1SJUVIC0377, C08S21A33E1B1SJUVIC0378",True,False,1.0
3899,ADELANTO SENIOR CENTER,"11565 Cortez Ave, Adelanto, CA 92301, USA",34.57334,-117.4123,3900.0,CA,SAN BERNARDINO COUNTY,"C08S21A33E1B1VUHADE0380, C08S21A33E1B1VUHADE0381, C08S21A33E1B1VUHADE0388, C08S21A33E1B1VUHADE0389, C08S21A33E1B1VUHADE0390, C08S21A33E1B1VUHADE1924, C08S21A33E1B1VUHADE1926, C08S21A33E1B1VUHADE1927, C08S21A33E1B1VUHADE2199, C08S21A33E1B1VUHADE2306, C08S21A33E1B1VUHADE2307, C08S21A33E1B1VUHADE2308",False,False,1.0
3900,ADELANTO SENIOR CENTER,"11565 Cortez Ave, Adelanto, CA 92301, USA",34.57334,-117.4123,3901.0,CA,SAN BERNARDINO COUNTY,"C08S21A33E1B1VUHADE0380, C08S21A33E1B1VUHADE0381, C08S21A33E1B1VUHADE0388, C08S21A33E1B1VUHADE0389, C08S21A33E1B1VUHADE0390, C08S21A33E1B1VUHADE1924, C08S21A33E1B1VUHADE1926, C08S21A33E1B1VUHADE1927, C08S21A33E1B1VUHADE2199, C08S21A33E1B1VUHADE2306, C08S21A33E1B1VUHADE2307, C08S21A33E1B1VUHADE2308",True,False,1.0
3901,ADELANTO STADIUM,"12000 Stadium Way, Adelanto, CA 92301, USA",34.55439,-117.40176,3902.0,CA,SAN BERNARDINO COUNTY,"C08S21A33E1B1VUHADE0382, C08S21A33E1B1VUHADE0383, C08S21A33E1B1VUHADE0391, C08S21A33E1B1VUHADE0392, C08S21A33E1B1VUHADE0393, C08S21A33E1B1VUHADE1928, C08S21A33E1B1VUHADE1929, C08S21A33E1B1VUHADE2309, C08S21A33E1B1VUHADE2310",False,False,1.0
3902,ADELANTO STADIUM,"12000 Stadium Way, Adelanto, CA 92301, USA",34.55439,-117.40176,3903.0,CA,SAN BERNARDINO COUNTY,"C08S21A33E1B1VUHADE0382, C08S21A33E1B1VUHADE0383, C08S21A33E1B1VUHADE0391, C08S21A33E1B1VUHADE0392, C08S21A33E1B1VUHADE0393, C08S21A33E1B1VUHADE1928, C08S21A33E1B1VUHADE1929, C08S21A33E1B1VUHADE2309, C08S21A33E1B1VUHADE2310",True,False,1.0
3903,EL MIRAGE COUNTY PARK BUILDING,"1488 Milton St, Adelanto, CA 92301, USA",34.60508,-117.50379,3904.0,CA,SAN BERNARDINO COUNTY,"C08S21A33E1B1VUHUNI0399, C08S21A33E1B1VUHUNI0400, C08S21A33E1B1VUHUNI0401, C08S21A33E1B1VUHUNI1780, C08S21A33E1B1VUHUNI1781, C08S21A33E1B1VUHUNI1782",False,False,1.0
3904,EL MIRAGE COUNTY PARK BUILDING,"1488 Milton St, Adelanto, CA 92301, USA",34.60508,-117.50379,3905.0,CA,SAN BERNARDINO COUNTY,"C08S21A33E1B1VUHUNI0399, C08S21A33E1B1VUHUNI0400, C08S21A33E1B1VUHUNI0401, C08S21A33E1B1VUHUNI1780, C08S21A33E1B1VUHUNI1781, C08S21A33E1B1VUHUNI1782",True,False,1.0
3905,CALVARY CHAPEL OF PHELAN,"4501 Nielson Rd, Phelan, CA 92371, USA",34.41867,-117.55855,3906.0,CA,SAN BERNARDINO COUNTY,"C08S21A33E1B1VUHUNI0408, C08S23A36E1B1SJUUNI0648, C08S23A36E1B1SJUUNI0649, C08S23A36E1B1SJUUNI0650, C08S23A36E1B1SJUUNI0652, C08S23A36E1B1SJUUNI1910, C08S23A36E1B1SJUUNI1911, C08S23A36E1B1SJUUNI1912, C08S23A36E1B1SJUUNI1913",False,False,1.0
3906,CALVARY CHAPEL OF PHELAN,"4501 Nielson Rd, Phelan, CA 92371, USA",34.41867,-117.55855,3907.0,CA,SAN BERNARDINO COUNTY,"C08S21A33E1B1VUHUNI0408, C08S23A36E1B1SJUUNI0648, C08S23A36E1B1SJUUNI0649, C08S23A36E1B1SJUUNI0650, C08S23A36E1B1SJUUNI0652, C08S23A36E1B1SJUUNI1910, C08S23A36E1B1SJUUNI1911, C08S23A36E1B1SJUUNI1912, C08S23A36E1B1SJUUNI1913",True,False,1.0
3907,CHILD SUPPORT SERVICES (VICTORVILLE),"15400 Civic Dr, Victorville, CA 92392, USA",34.51038,-117.32813,3908.0,CA,SAN BERNARDINO COUNTY,"C08S21A33E1B1VUHUNI0409, C08S21A33E1B1VUHVIC0438, C08S21A33E1B1VUHVIC0439, C08S21A33E1B1VUHVIC0442, C08S21A33E1B1VUHVIC0443, C08S21A33E1B1VUHVIC0448, C08S21A33E1B1VUHVIC0451, C08S21A33E1B1VUHVIC1605, C08S21A33E1B1VUHUNI1819, C08S21A33E1B1VUHVIC1823, C08S21A33E1B1VUHVIC1933, C08S21A33E1B1VUHVIC2197",False,False,1.0
3908,CHILD SUPPORT SERVICES (VICTORVILLE),"15400 Civic Dr, Victorville, CA 92392, USA",34.51038,-117.32813,3909.0,CA,SAN BERNARDINO COUNTY,"C08S21A33E1B1VUHUNI0409, C08S21A33E1B1VUHVIC0438, C08S21A33E1B1VUHVIC0439, C08S21A33E1B1VUHVIC0442, C08S21A33E1B1VUHVIC0443, C08S21A33E1B1VUHVIC0448, C08S21A33E1B1VUHVIC0451, C08S21A33E1B1VUHVIC1605, C08S21A33E1B1VUHUNI1819, C08S21A33E1B1VUHVIC1823, C08S21A33E1B1VUHVIC1933, C08S21A33E1B1VUHVIC2197",True,False,1.0
3909,COBALT MIDDLE SCHOOL,"13801 Cobalt Rd, Victorville, CA 92392, USA",34.50096,-117.3725,3910.0,CA,SAN BERNARDINO COUNTY,"C08S21A33E1B1VUHUNI0410, C08S21A33E1B1VUHVIC0434, C08S21A33E1B1VUHVIC0446, C08S21A33E1B1VUHVIC0447, C08S21A33E1B1VUHVIC0460, C08S21A33E1B1VUHVIC1604, C08S21A33E1B1VUHVIC1822, C08S21A33E1B1VUHVIC1931, C08S21A33E1B1VUHVIC2201, C08S21A33E1B1VUHVIC2312",True,False,1.0
3910,SVLA COMMUNITY BUILDING,"12975 Rolling Ridge Dr, Spring Valley Lake, CA 92395, USA",34.48748,-117.26017,3911.0,CA,SAN BERNARDINO COUNTY,"C08S21A33E1B1VUHUNI0412, C08S21A33E1B1VUHUNI0413, C08S21A33E1B1VUHUNI0414, C08S21A33E1B1VUHUNI1820, C08S21A33E1B1VUHUNI1936, C08S21A33E1B1VUHUNI2049, C08S21A33E1B1VUHUNI2050, C08S21A33E1B1VUHUNI2200",False,False,1.0
3911,SVLA COMMUNITY BUILDING,"12975 Rolling Ridge Dr, Spring Valley Lake, CA 92395, USA",34.48748,-117.26017,3912.0,CA,SAN BERNARDINO COUNTY,"C08S21A33E1B1VUHUNI0412, C08S21A33E1B1VUHUNI0413, C08S21A33E1B1VUHUNI0414, C08S21A33E1B1VUHUNI1820, C08S21A33E1B1VUHUNI1936, C08S21A33E1B1VUHUNI2049, C08S21A33E1B1VUHUNI2050, C08S21A33E1B1VUHUNI2200",True,False,1.0
3912,ZION LUTHERAN CHURCH,"15342 Jeraldo Dr, Victorville, CA 92394, USA",34.53018,-117.3357,3913.0,CA,SAN BERNARDINO COUNTY,"C08S21A33E1B1VUHVIC0426, C08S21A33E1B1VUHVIC0427, C08S21A33E1B1VUHVIC0428, C08S21A33E1B1VUHVIC0431, C08S21A33E1B1VUHVIC0432, C08S21A33E1B1VUHVIC1935, C08S21A33E1B1VUHVIC2042, C08S21A33E1B1VUHVIC2043, C08S21A33E1B1VUHVIC2044, C08S21A33E1B1VUHVIC2045, C08S21A33E1B1VUHVIC2046, C08S21A33E1B1VUHVIC2195, C08S21A33E1B1VUHVIC2196",False,False,1.0
3913,ZION LUTHERAN CHURCH,"15342 Jeraldo Dr, Victorville, CA 92394, USA",34.53018,-117.3357,3914.0,CA,SAN BERNARDINO COUNTY,"C08S21A33E1B1VUHVIC0426, C08S21A33E1B1VUHVIC0427, C08S21A33E1B1VUHVIC0428, C08S21A33E1B1VUHVIC0431, C08S21A33E1B1VUHVIC0432, C08S21A33E1B1VUHVIC1935, C08S21A33E1B1VUHVIC2042, C08S21A33E1B1VUHVIC2043, C08S21A33E1B1VUHVIC2044, C08S21A33E1B1VUHVIC2045, C08S21A33E1B1VUHVIC2046, C08S21A33E1B1VUHVIC2195, C08S21A33E1B1VUHVIC2196",True,False,1.0
3914,BURNING BUSH CHURCH,"14849 Seventh St, Victorville, CA 92395, USA",34.52056,-117.30723,3915.0,CA,SAN BERNARDINO COUNTY,"C08S21A33E1B1VUHVIC0429, C08S21A33E1B1VUHVIC0433, C08S21A33E1B1VUHVIC0440, C08S21A33E1B1VUHVIC0441, C08S21A33E1B1VUHVIC0444, C08S21A33E1B1VUHVIC0445, C08S21A33E1B1VUHVIC1934, C08S21A33E1B1VUHVIC1937, C08S21A33E1B1VUHVIC2048",True,False,1.0
3915,BURNING BUSH CHURCH,"14849 Seventh St, Victorville, CA 92395, USA",34.52056,-117.30723,3916.0,CA,SAN BERNARDINO COUNTY,"C08S21A33E1B1VUHVIC0433, C08S21A33E1B1VUHVIC0440, C08S21A33E1B1VUHVIC0441, C08S21A33E1B1VUHVIC0429, C08S21A33E1B1VUHVIC0444, C08S21A33E1B1VUHVIC0445, C08S21A33E1B1VUHVIC1934, C08S21A33E1B1VUHVIC1937, C08S21A33E1B1VUHVIC2048",False,False,1.0
3916,COBALT MIDDLE SCHOOL,"13801 Cobalt Rd, Victorville, CA 92392, USA",34.50096,-117.3725,3917.0,CA,SAN BERNARDINO COUNTY,"C08S21A33E1B1VUHVIC0434, C08S21A33E1B1VUHUNI0410, C08S21A33E1B1VUHVIC0446, C08S21A33E1B1VUHVIC0447, C08S21A33E1B1VUHVIC0460, C08S21A33E1B1VUHVIC1604, C08S21A33E1B1VUHVIC1822, C08S21A33E1B1VUHVIC1931, C08S21A33E1B1VUHVIC2201, C08S21A33E1B1VUHVIC2312",False,False,1.0
3917,UNIVERSITY PREPARATORY SCHOOL,"13853 Seneca Rd, Victorville, CA 92392, USA",34.5134,-117.36087,3918.0,CA,SAN BERNARDINO COUNTY,"C08S21A33E1B1VUHVIC0435, C08S21A33E1B1VUHVIC0436, C08S21A33E1B1VUHVIC0437, C08S21A33E1B1VUHVIC1932, C08S21A33E1B1VUHVIC2041",False,False,1.0
3918,UNIVERSITY PREPARATORY SCHOOL,"13853 Seneca Rd, Victorville, CA 92392, USA",34.5134,-117.36087,3919.0,CA,SAN BERNARDINO COUNTY,"C08S21A33E1B1VUHVIC0435, C08S21A33E1B1VUHVIC0436, C08S21A33E1B1VUHVIC0437, C08S21A33E1B1VUHVIC1932, C08S21A33E1B1VUHVIC2041",True,False,1.0
3919,MOJAVE VISTA ELEMENTARY SCHOOL,"16100 Burwood Ave, Victorville, CA 92395, USA",34.48044,-117.31199,3920.0,CA,SAN BERNARDINO COUNTY,"C08S21A33E1B1VUHVIC0454, C08S21A33E1B1VUHVIC0455, C08S21A33E1B1VUHVIC0456, C08S21A33E1B1VUHVIC0457, C08S21A33E1B1VUHVIC0458, C08S21A33E1B1VUHVIC0459, C08S21A33E1B1VUHVIC1821",False,False,1.0
3920,MOJAVE VISTA ELEMENTARY SCHOOL,"16100 Burwood Ave, Victorville, CA 92395, USA",34.48044,-117.31199,3921.0,CA,SAN BERNARDINO COUNTY,"C08S21A33E1B1VUHVIC0454, C08S21A33E1B1VUHVIC0455, C08S21A33E1B1VUHVIC0456, C08S21A33E1B1VUHVIC0457, C08S21A33E1B1VUHVIC0458, C08S21A33E1B1VUHVIC0459, C08S21A33E1B1VUHVIC1821",True,False,1.0
3921,FIRE STATION #95 (GREEN VALLEY LAKE),"33596 Green Valley Lake Rd, Green Valley Lake, CA 92341, USA",34.24084,-117.07097,3922.0,CA,SAN BERNARDINO COUNTY,"C08S23A33E1B2RWUUNI0485, C08S23A33E1B2RWUUNI0490, C08S23A33E1B2RWUUNI1692, C08S23A33E1B2RWUUNI1693, C08S23A33E1B2RWUUNI1694",False,False,1.0
3922,FIRE STATION #95 (GREEN VALLEY LAKE),"33596 Green Valley Lake Rd, Green Valley Lake, CA 92341, USA",34.24084,-117.07097,3923.0,CA,SAN BERNARDINO COUNTY,"C08S23A33E1B2RWUUNI0485, C08S23A33E1B2RWUUNI0490, C08S23A33E1B2RWUUNI1692, C08S23A33E1B2RWUUNI1693, C08S23A33E1B2RWUUNI1694",True,False,1.0
3923,HOOTMAN SENIOR/COMMUNITY CENTER,"2929 Running Springs School Rd, Running Springs, CA 92382, USA",34.20027,-117.09373,3924.0,CA,SAN BERNARDINO COUNTY,"C08S23A33E1B2RWUUNI0487, C08S23A33E1B2RWUUNI0489, C08S23A33E1B2RWUUNI0488, C08S23A33E1B2RWUUNI0516, C08S23A33E1B2RWUUNI1689, C08S23A33E1B2RWUUNI1685, C08S23A33E1B2RWUUNI1686, C08S23A33E1B2RWUUNI1690, C08S23A33E1B2RWUUNI1691, C08S23A33E1B2RWUUNI2325",False,False,1.0
3924,HOOTMAN SENIOR/COMMUNITY CENTER,"2929 Running Springs School Rd, Running Springs, CA 92382, USA",34.20027,-117.09373,3925.0,CA,SAN BERNARDINO COUNTY,"C08S23A33E1B2RWUUNI0487, C08S23A33E1B2RWUUNI0489, C08S23A33E1B2RWUUNI0488, C08S23A33E1B2RWUUNI0516, C08S23A33E1B2RWUUNI1689, C08S23A33E1B2RWUUNI1685, C08S23A33E1B2RWUUNI1686, C08S23A33E1B2RWUUNI1690, C08S23A33E1B2RWUUNI1691, C08S23A33E1B2RWUUNI2325",True,False,1.0
3925,MOUNTAIN COMMUNITIES SENIOR CENTER,"675 Grandview Rd, Twin Peaks, CA 92391, USA",34.241,-117.23789,3926.0,CA,SAN BERNARDINO COUNTY,"C08S23A33E1B2RWUUNI0519, C08S23A33E1B2RWUUNI0523, C08S23A33E1B2RWUUNI0524, C08S23A33E1B2RWUUNI0525, C08S23A33E1B2RWUUNI0526, C08S23A33E1B2RWUUNI0527, C08S23A33E1B2RWUUNI0529, C08S23A33E1B2RWUUNI0530, C08S23A33E1B2RWUUNI1616, C08S23A33E1B2RWUUNI1939, C08S23A33E1B2RWUUNI1940, C08S23A33E1B2RWUUNI1941, C08S23A33E1B2RWUUNI1942, C08S23A33E1B2RWUUNI1943, C08S23A33E1B2RWUUNI1944, C08S23A33E1B2RWUUNI1945, C08S23A33E1B2RWUUNI2298, C08S23A33E1B2RWUUNI2297, C08S23A33E1B2RWUUNI2299, C08S23A33E1B2RWUUNI2318, C08S23A33E1B2RWUUNI2319, C08S23A33E1B2RWUUNI2320, C08S23A33E1B2RWUUNI2321, C08S23A33E1B2RWUUNI2326",False,False,1.0
3926,MOUNTAIN COMMUNITIES SENIOR CENTER,"675 Grandview Rd, Twin Peaks, CA 92391, USA",34.241,-117.23789,3927.0,CA,SAN BERNARDINO COUNTY,"C08S23A33E1B2RWUUNI0519, C08S23A33E1B2RWUUNI0523, C08S23A33E1B2RWUUNI0524, C08S23A33E1B2RWUUNI0525, C08S23A33E1B2RWUUNI0526, C08S23A33E1B2RWUUNI0527, C08S23A33E1B2RWUUNI0529, C08S23A33E1B2RWUUNI0530, C08S23A33E1B2RWUUNI1616, C08S23A33E1B2RWUUNI1939, C08S23A33E1B2RWUUNI1940, C08S23A33E1B2RWUUNI1941, C08S23A33E1B2RWUUNI1942, C08S23A33E1B2RWUUNI1943, C08S23A33E1B2RWUUNI1944, C08S23A33E1B2RWUUNI1945, C08S23A33E1B2RWUUNI2298, C08S23A33E1B2RWUUNI2297, C08S23A33E1B2RWUUNI2299, C08S23A33E1B2RWUUNI2318, C08S23A33E1B2RWUUNI2319, C08S23A33E1B2RWUUNI2320, C08S23A33E1B2RWUUNI2321, C08S23A33E1B2RWUUNI2326",True,False,1.0
3927,FIRE STATION #91 (LAKE ARROWHEAD),"301 CA-173, Lake Arrowhead, CA 92352, USA",34.24758,-117.18937,3928.0,CA,SAN BERNARDINO COUNTY,"C08S23A33E1B2RWUUNI0533, C08S23A33E1B2RWUUNI0534, C08S23A33E1B2RWUUNI0531, C08S23A33E1B2RWUUNI0532, C08S23A33E1B2RWUUNI1947, C08S23A33E1B2RWUUNI1948, C08S23A33E1B2RWUUNI1949, C08S23A33E1B2RWUUNI1950, C08S23A33E1B2RWUUNI1951, C08S23A33E1B2RWUUNI1952, C08S23A33E1B2RWUUNI1953, C08S23A33E1B2RWUUNI1946, C08S23A33E1B2RWUUNI2202, C08S23A33E1B2RWUUNI2300, C08S23A33E1B2RWUUNI2301, C08S23A33E1B2RWUUNI2323",False,False,1.0
3928,FIRE STATION #91 (LAKE ARROWHEAD),"301 CA-173, Lake Arrowhead, CA 92352, USA",34.24758,-117.18937,3929.0,CA,SAN BERNARDINO COUNTY,"C08S23A33E1B2RWUUNI0533, C08S23A33E1B2RWUUNI0534, C08S23A33E1B2RWUUNI0531, C08S23A33E1B2RWUUNI0532, C08S23A33E1B2RWUUNI1947, C08S23A33E1B2RWUUNI1948, C08S23A33E1B2RWUUNI1949, C08S23A33E1B2RWUUNI1950, C08S23A33E1B2RWUUNI1951, C08S23A33E1B2RWUUNI1952, C08S23A33E1B2RWUUNI1953, C08S23A33E1B2RWUUNI1946, C08S23A33E1B2RWUUNI2202, C08S23A33E1B2RWUUNI2300, C08S23A33E1B2RWUUNI2301, C08S23A33E1B2RWUUNI2323",True,False,1.0
3929,COMMUNITY CENTER (CEDARPINES),"21821 Plunge Rd, Cedarpines Park, CA 92322, USA",34.24872,-117.32702,3930.0,CA,SAN BERNARDINO COUNTY,"C08S23A33E1B2RWUUNI0535, C08S23A33E1B2RWUUNI0536, C08S23A33E1B2RWUUNI0537, C08S23A33E1B2RWUUNI0538, C08S23A40E1B2RWUUNI0693",False,False,1.0
3930,COMMUNITY CENTER (CEDARPINES),"21821 Plunge Rd, Cedarpines Park, CA 92322, USA",34.24872,-117.32702,3931.0,CA,SAN BERNARDINO COUNTY,"C08S23A33E1B2RWUUNI0535, C08S23A33E1B2RWUUNI0536, C08S23A33E1B2RWUUNI0537, C08S23A33E1B2RWUUNI0538, C08S23A40E1B2RWUUNI0693",True,False,1.0
3931,FIRE STATION #25 (CRESTLINE),"23407 Crest Forest Dr, Crestline, CA 92325, USA",34.23854,-117.29273,3932.0,CA,SAN BERNARDINO COUNTY,"C08S23A33E1B2RWUUNI0543, C08S23A33E1B2RWUUNI0544, C08S23A33E1B2RWUUNI0545, C08S23A33E1B2RWUUNI0550, C08S23A33E1B2RWUUNI1584, C08S23A33E1B2RWUUNI1585, C08S23A33E1B2RWUUNI1593, C08S23A33E1B2RWUUNI1594",False,False,1.0
3932,FIRE STATION #25 (CRESTLINE),"23407 Crest Forest Dr, Crestline, CA 92325, USA",34.23854,-117.29273,3933.0,CA,SAN BERNARDINO COUNTY,"C08S23A33E1B2RWUUNI0543, C08S23A33E1B2RWUUNI0544, C08S23A33E1B2RWUUNI0545, C08S23A33E1B2RWUUNI0550, C08S23A33E1B2RWUUNI1584, C08S23A33E1B2RWUUNI1585, C08S23A33E1B2RWUUNI1593, C08S23A33E1B2RWUUNI1594",True,False,1.0
3933,SAN MORITZ LODGE,"24640 San Moritz Dr, Crestline, CA 92325, USA",34.23903,-117.26607,3934.0,CA,SAN BERNARDINO COUNTY,"C08S23A33E1B2RWUUNI0558, C08S23A33E1B2RWUUNI0559, C08S23A33E1B2RWUUNI0549, C08S23A33E1B2RWUUNI0551, C08S23A33E1B2RWUUNI0560, C08S23A33E1B2RWUUNI0561, C08S23A33E1B2RWUUNI0562, C08S23A33E1B2RWUUNI0564, C08S23A33E1B2RWUUNI0565, C08S23A33E1B2RWUUNI1586, C08S23A33E1B2RWUUNI1610, C08S23A33E1B2RWUUNI1612, C08S23A33E1B2RWUUNI1613, C08S23A33E1B2RWUUNI1800, C08S23A33E1B2RWUUNI1798, C08S23A33E1B2RWUUNI1796, C08S23A33E1B2RWUUNI1797, C08S23A33E1B2RWUUNI1799, C08S23A33E1B2RWUUNI1802, C08S23A33E1B2RWUUNI1801, C08S23A33E1B2RWUUNI1803, C08S23A33E1B2RWUUNI1804, C08S23A33E1B2RWUUNI1805, C08S23A33E1B2RWUUNI1806, C08S23A33E1B2RWUUNI1807, C08S23A33E1B2RWUUNI2294, C08S23A33E1B2RWUUNI2293, C08S23A33E1B2RWUUNI2314, C08S23A33E1B2RWUUNI2315, C08S23A33E1B2RWUUNI2316, C08S23A33E1B2RWUUNI2317",False,False,1.0
3934,SAN MORITZ LODGE,"24640 San Moritz Dr, Crestline, CA 92325, USA",34.23903,-117.26607,3935.0,CA,SAN BERNARDINO COUNTY,"C08S23A33E1B2RWUUNI0558, C08S23A33E1B2RWUUNI0559, C08S23A33E1B2RWUUNI0549, C08S23A33E1B2RWUUNI0551, C08S23A33E1B2RWUUNI0560, C08S23A33E1B2RWUUNI0561, C08S23A33E1B2RWUUNI0562, C08S23A33E1B2RWUUNI0564, C08S23A33E1B2RWUUNI0565, C08S23A33E1B2RWUUNI1586, C08S23A33E1B2RWUUNI1610, C08S23A33E1B2RWUUNI1612, C08S23A33E1B2RWUUNI1613, C08S23A33E1B2RWUUNI1800, C08S23A33E1B2RWUUNI1798, C08S23A33E1B2RWUUNI1796, C08S23A33E1B2RWUUNI1797, C08S23A33E1B2RWUUNI1799, C08S23A33E1B2RWUUNI1802, C08S23A33E1B2RWUUNI1801, C08S23A33E1B2RWUUNI1803, C08S23A33E1B2RWUUNI1804, C08S23A33E1B2RWUUNI1805, C08S23A33E1B2RWUUNI1806, C08S23A33E1B2RWUUNI1807, C08S23A33E1B2RWUUNI2294, C08S23A33E1B2RWUUNI2293, C08S23A33E1B2RWUUNI2314, C08S23A33E1B2RWUUNI2315, C08S23A33E1B2RWUUNI2316, C08S23A33E1B2RWUUNI2317",True,False,1.0
3935,BIG BEAR LAKE CIVIC CENTER,"39707 Big Bear Blvd, Big Bear Lake, CA 92315, USA",34.23797,-116.93529,3936.0,CA,SAN BERNARDINO COUNTY,"C08S23A33E1B3BVUBB40572, C08S23A33E1B3BVUBB40573, C08S23A33E1B3BVUBB10574, C08S23A33E1B3BVUBB50575, C08S23A33E1B3BVUBB31872, C08S23A33E1B3BVUBB21873, C08S23A33E1B3BVUBB21874, C08S23A33E1B3BVUBB31875, C08S23A33E1B3BVUBB41876, C08S23A33E1B3BVUBB11877, C08S23A33E1B3BVUBB11878",False,False,1.0
3936,BIG BEAR LAKE CIVIC CENTER,"39707 Big Bear Blvd, Big Bear Lake, CA 92315, USA",34.23797,-116.93529,3937.0,CA,SAN BERNARDINO COUNTY,"C08S23A33E1B3BVUBB40572, C08S23A33E1B3BVUBB40573, C08S23A33E1B3BVUBB10574, C08S23A33E1B3BVUBB50575, C08S23A33E1B3BVUBB31872, C08S23A33E1B3BVUBB21873, C08S23A33E1B3BVUBB21874, C08S23A33E1B3BVUBB31875, C08S23A33E1B3BVUBB41876, C08S23A33E1B3BVUBB11877, C08S23A33E1B3BVUBB11878",True,False,1.0
3937,FIRE STATION #98 (ANGELUS OAKS),"5766 Frontage Rd, Angelus Oaks, CA 92305, USA",34.14789,-116.98099,3938.0,CA,SAN BERNARDINO COUNTY,"C08S23A33E1B3BVUUNI0577, C08S23A33E1B3RDUUNI0607",False,False,1.0
3938,FIRE STATION #98 (ANGELUS OAKS),"5766 Frontage Rd, Angelus Oaks, CA 92305, USA",34.14789,-116.98099,3939.0,CA,SAN BERNARDINO COUNTY,"C08S23A33E1B3BVUUNI0577, C08S23A33E1B3RDUUNI0607",True,False,1.0
3939,CHAUTAUQUA HIGH SCHOOL,"525 Maple Ln, Sugarloaf, CA 92386, USA",34.25162,-116.82605,3940.0,CA,SAN BERNARDINO COUNTY,"C08S23A33E1B3BVUUNI0585, C08S23A33E1B3BVUUNI0586, C08S23A33E1B3BVUUNI0588, C08S23A33E1B3BVUUNI1595, C08S23A33E1B3BVUUNI1596, C08S23A33E1B3BVUUNI1597",False,False,1.0
3940,CHAUTAUQUA HIGH SCHOOL,"525 Maple Ln, Sugarloaf, CA 92386, USA",34.25162,-116.82605,3941.0,CA,SAN BERNARDINO COUNTY,"C08S23A33E1B3BVUUNI0585, C08S23A33E1B3BVUUNI0586, C08S23A33E1B3BVUUNI0588, C08S23A33E1B3BVUUNI1595, C08S23A33E1B3BVUUNI1596, C08S23A33E1B3BVUUNI1597",True,False,1.0
3941,BIG BEAR AREA REGIONAL WASTEWATER AGENCY,"121 Palomino Dr, Big Bear, CA 92314, USA",34.26794,-116.81552,3942.0,CA,SAN BERNARDINO COUNTY,"C08S23A33E1B3BVUUNI0587, C08S23A33E1B3BVUUNI0589, C08S23A33E1B3BVUUNI0590, C08S23A33E1B3BVUUNI0594, C08S23A33E1B3BVUUNI1566",False,False,1.0
3942,BIG BEAR AREA REGIONAL WASTEWATER AGENCY,"121 Palomino Dr, Big Bear, CA 92314, USA",34.26794,-116.81552,3943.0,CA,SAN BERNARDINO COUNTY,"C08S23A33E1B3BVUUNI0587, C08S23A33E1B3BVUUNI0589, C08S23A33E1B3BVUUNI0590, C08S23A33E1B3BVUUNI0594, C08S23A33E1B3BVUUNI1566",True,False,1.0
3943,CALIFORNIA STATE UNIVERSITY (S B),"5500 University Pkwy, San Bernardino, CA 92407, USA",34.18131,-117.32153,3944.0,CA,SAN BERNARDINO COUNTY,"C08S23A33E1B5SBUSB40637, C08S23A33E1B3SBUSB40615, C08S23A33E1B3SBUSB40616, C08S23A33E1B3SBUSB40617, C08S23A33E1B3SBUSB40618, C08S23A40E1B3SBUSB40710, C31S23A40E1B5SBUSB51090, C31S23A40E4B3SBUSB41187, C31S23A40E4B5SBUSB41241, C31S23A40E4B5SBUSB51242, C31S23A40E4B5SBUSB51243, C31S23A40E4B5SBUSB51244, C31S23A40E4B5SBUSB41239, C31S23A40E4B5SBUSB41723, C31S23A40E4B5SBUSB41724",False,False,1.0
3944,CALIFORNIA STATE UNIVERSITY (S B),"5500 University Pkwy, San Bernardino, CA 92407, USA",34.18131,-117.32153,3945.0,CA,SAN BERNARDINO COUNTY,"C08S23A33E1B5SBUSB40637, C08S23A33E1B3SBUSB40615, C08S23A33E1B3SBUSB40616, C08S23A33E1B3SBUSB40617, C08S23A33E1B3SBUSB40618, C08S23A40E1B3SBUSB40710, C31S23A40E1B5SBUSB51090, C31S23A40E4B3SBUSB41187, C31S23A40E4B5SBUSB41241, C31S23A40E4B5SBUSB51242, C31S23A40E4B5SBUSB51243, C31S23A40E4B5SBUSB51244, C31S23A40E4B5SBUSB41239, C31S23A40E4B5SBUSB41723, C31S23A40E4B5SBUSB41724",True,False,1.0
3945,UNITED METHODIST CHURCH (WRIGHTWOOD),"1543 Barbara St, Wrightwood, CA 92397, USA",34.35788,-117.62801,3946.0,CA,SAN BERNARDINO COUNTY,"C08S23A36E1B1SJUUNI0655, C08S23A36E1B1SJUUNI0656, C08S23A40E1B1SJUUNI0677, C08S23A36E1B1SJUUNI0657, C08S23A36E1B1SJUUNI0653, C08S23A36E1B1SJUUNI0654, C08S23A40E1B1SJUUNI0671, C08S23A40E1B1SJUUNI0672, C08S23A40E1B1SJUUNI0673, C08S23A40E1B1SJUUNI0674, C08S23A40E1B1SJUUNI0675, C08S23A40E1B1SJUUNI0676, C08S23A40E1B1SJUUNI1790, C08S23A36E1B1SJUUNI1791, C08S23A36E1B1SJUUNI1792, C08S23A40E1B1SJUUNI1915, C08S23A36E1B1SJUUNI1917, C08S23A36E1B1SJUUNI1918",False,False,1.0
3946,UNITED METHODIST CHURCH (WRIGHTWOOD),"1543 Barbara St, Wrightwood, CA 92397, USA",34.35788,-117.62801,3947.0,CA,SAN BERNARDINO COUNTY,"C08S23A36E1B1SJUUNI0655, C08S23A36E1B1SJUUNI0656, C08S23A40E1B1SJUUNI0677, C08S23A36E1B1SJUUNI0657, C08S23A36E1B1SJUUNI0653, C08S23A36E1B1SJUUNI0654, C08S23A40E1B1SJUUNI0671, C08S23A40E1B1SJUUNI0672, C08S23A40E1B1SJUUNI0673, C08S23A40E1B1SJUUNI0674, C08S23A40E1B1SJUUNI0675, C08S23A40E1B1SJUUNI0676, C08S23A40E1B1SJUUNI1790, C08S23A36E1B1SJUUNI1791, C08S23A36E1B1SJUUNI1792, C08S23A40E1B1SJUUNI1915, C08S23A36E1B1SJUUNI1917, C08S23A36E1B1SJUUNI1918",True,False,1.0
3947,MT BALDY VILLAGE CHURCH,"6757 Bear Canyon Dr, Mt Baldy, CA 91759, USA",34.23773,-117.65854,3948.0,CA,SAN BERNARDINO COUNTY,"C08S23A40E1B2CUHUNI0688, C08S25A41E1B2CUHUNI0834",False,False,1.0
3948,MT BALDY VILLAGE CHURCH,"6757 Bear Canyon Dr, Mt Baldy, CA 91759, USA",34.23773,-117.65854,3949.0,CA,SAN BERNARDINO COUNTY,"C08S23A40E1B2CUHUNI0688, C08S25A41E1B2CUHUNI0834",True,False,1.0
3949,LYTLE CREEK COMMUNITY CENTER,"14082 Center Rd, Lytle Creek, CA 92358, USA",34.26118,-117.4971,3950.0,CA,SAN BERNARDINO COUNTY,C08S23A40E1B2RLUUNI0691,False,False,1.0
3950,LYTLE CREEK COMMUNITY CENTER,"14082 Center Rd, Lytle Creek, CA 92358, USA",34.26118,-117.4971,3951.0,CA,SAN BERNARDINO COUNTY,C08S23A40E1B2RLUUNI0691,True,False,1.0
3951,EVENT CENTER AT SAN MANUEL,"27923 Highland Ave, Highland, CA 92346, USA",34.13451,-117.19517,3952.0,CA,SAN BERNARDINO COUNTY,"C08S23A40E4B3RDUHI40719, C08S23A40E4B3RDUHI50720, C08S23A40E4B3RDUHI50724, C08S23A40E4B3RDUHI50726, C08S23A40E4B3SBUHI40749, C08S23A40E4B3SBUHI40756, C08S23A40E4B3RDUHI41622, C08S23A40E4B3RDUHI41764",True,False,1.0
3952,CRAM ELEMENTARY SCHOOL,"29700 Water St, Highland, CA 92346, USA",34.11768,-117.15552,3953.0,CA,SAN BERNARDINO COUNTY,"C08S23A40E4B3RDUHI40721, C08S23A40E4B3RDUHI40722, C08S23A40E4B3RDUHI50723, C08S23A40E4B3RDUHI50725, C08S23A40E4B3RDUHI40727, C08S23A40E4B3RDUHI50730, C08S23A40E4B3RDUHI50731, C08S23A40E4B3RDUHI50732, C08S23A40E4B3RDUHI51695, C08S23A40E4B3RDUHI42187, C08S23A40E4B3RDUHI42188",False,False,1.0
3953,CRAM ELEMENTARY SCHOOL,"29700 Water St, Highland, CA 92346, USA",34.11768,-117.15552,3954.0,CA,SAN BERNARDINO COUNTY,"C08S23A40E4B3RDUHI40721, C08S23A40E4B3RDUHI40722, C08S23A40E4B3RDUHI50723, C08S23A40E4B3RDUHI50725, C08S23A40E4B3RDUHI40727, C08S23A40E4B3RDUHI50730, C08S23A40E4B3RDUHI50731, C08S23A40E4B3RDUHI50732, C08S23A40E4B3RDUHI51695, C08S23A40E4B3RDUHI42187, C08S23A40E4B3RDUHI42188",True,False,1.0
3954,HIGHLAND FAMILY YMCA,"7793 Central Ave, Highland, CA 92346, USA",34.11216,-117.21681,3955.0,CA,SAN BERNARDINO COUNTY,"C08S23A40E4B3SBUHI10750, C08S23A40E4B3SBUHI10751, C08S23A40E4B3SBUHI10752, C08S23A40E4B3SBUHI10753, C08S23A40E4B3SBUHI30755, C31S23A40E4B3SBUHI11156, C08S23A40E4B3SBUHI21770",False,False,1.0
3955,HIGHLAND FAMILY YMCA,"7793 Central Ave, Highland, CA 92346, USA",34.11216,-117.21681,3956.0,CA,SAN BERNARDINO COUNTY,"C08S23A40E4B3SBUHI10750, C08S23A40E4B3SBUHI10751, C08S23A40E4B3SBUHI10752, C08S23A40E4B3SBUHI10753, C08S23A40E4B3SBUHI30755, C31S23A40E4B3SBUHI11156, C08S23A40E4B3SBUHI21770",True,False,1.0
3956,CITY OF HIGHLAND CITY HALL (CHAMBER),"27215 Base Line St, Highland, CA 92346, USA",34.12059,-117.21072,3957.0,CA,SAN BERNARDINO COUNTY,"C08S23A40E4B3SBUHI30757, C08S23A40E4B3SBUHI30758, C08S23A40E4B3SBUHI20746, C08S23A40E4B3SBUHI20747, C08S23A40E4B3SBUHI30748, C08S23A40E4B3SBUHI30754, C31S23A40E4B3SBUHI21155, C08S23A40E4B3SBUHI21639, C08S23A40E4B3SBUHI31765",False,False,1.0
3957,CITY OF HIGHLAND CITY HALL (CHAMBER),"27215 Base Line St, Highland, CA 92346, USA",34.12059,-117.21072,3958.0,CA,SAN BERNARDINO COUNTY,"C08S23A40E4B3SBUHI30757, C08S23A40E4B3SBUHI30758, C08S23A40E4B3SBUHI20746, C08S23A40E4B3SBUHI20747, C08S23A40E4B3SBUHI30748, C08S23A40E4B3SBUHI30754, C31S23A40E4B3SBUHI21155, C08S23A40E4B3SBUHI21639, C08S23A40E4B3SBUHI31765",True,False,1.0
3958,EVENT CENTER AT SAN MANUEL,"27923 Highland Ave, Highland, CA 92346, USA",34.13451,-117.19517,3959.0,CA,SAN BERNARDINO COUNTY,"C08S23A40E4B3SBUHI40756, C08S23A40E4B3RDUHI40719, C08S23A40E4B3RDUHI50720, C08S23A40E4B3RDUHI50724, C08S23A40E4B3RDUHI50726, C08S23A40E4B3SBUHI40749, C08S23A40E4B3RDUHI41622, C08S23A40E4B3RDUHI41764",False,False,1.0
3959,MOOSE LODGE #1335,"2139 Mentone Blvd, Mentone, CA 92359, USA",34.07067,-117.11833,3960.0,CA,SAN BERNARDINO COUNTY,"C08S23A42E4B3RDUUNI0769, C08S23A40E4B3RDUUNI0736, C31S23A40E4B3RDUUNI1143, C31S23A40E4B3RDURE31130, C31S23A40E4B3RDURE31131, C31S23A40E4B3RDURE31133, C31S23A42E4B3RDUUNI1274, C31S23A42E4B3RDURE31273, C31S23A40E4B3RDUUNI1666, C08S23A42E4B3RDUUNI1627, C08S23A42E4B3RDURE31824, C08S23A42E4B3RDURE31856, C31S23A40E4B3RDUUNI2009, C31S23A40E4B3RDUUNI2189",False,False,1.0
3960,MOOSE LODGE #1335,"2139 Mentone Blvd, Mentone, CA 92359, USA",34.07067,-117.11833,3961.0,CA,SAN BERNARDINO COUNTY,"C08S23A42E4B3RDUUNI0769, C08S23A40E4B3RDUUNI0736, C31S23A40E4B3RDUUNI1143, C31S23A40E4B3RDURE31130, C31S23A40E4B3RDURE31131, C31S23A40E4B3RDURE31133, C31S23A42E4B3RDUUNI1274, C31S23A42E4B3RDURE31273, C31S23A40E4B3RDUUNI1666, C08S23A42E4B3RDUUNI1627, C08S23A42E4B3RDURE31824, C08S23A42E4B3RDURE31856, C31S23A40E4B3RDUUNI2009, C31S23A40E4B3RDUUNI2189",True,False,1.0
3961,JOSLYN SENIOR CENTER,"21 Grant St, Redlands, CA 92373, USA",34.05385,-117.18525,3962.0,CA,SAN BERNARDINO COUNTY,"C08S23A42E4B3YCURE50782, C31S23A40E4B3RDURE51120, C31S23A40E4B3RDURE11121, C31S23A40E4B3RDURE51125, C31S23A40E4B3RDURE51126, C31S23A40E4B3RDURE31127, C31S23A40E4B3RDURE51129, C31S23A40E4B3YCURE51205, C31S23A40E4B3YCURE51206, C31S23A40E4B3RDURE51810, C31S23A40E4B3RDURE12006",False,False,1.0
3962,JOSLYN SENIOR CENTER,"21 Grant St, Redlands, CA 92373, USA",34.05385,-117.18525,3963.0,CA,SAN BERNARDINO COUNTY,"C08S23A42E4B3YCURE50782, C31S23A40E4B3RDURE51120, C31S23A40E4B3RDURE11121, C31S23A40E4B3RDURE51125, C31S23A40E4B3RDURE51126, C31S23A40E4B3RDURE31127, C31S23A40E4B3RDURE51129, C31S23A40E4B3YCURE51205, C31S23A40E4B3YCURE51206, C31S23A40E4B3RDURE51810, C31S23A40E4B3RDURE12006",True,False,1.0
3963,PILGRIM PINES CAMP,"39570 Glen Rd, Yucaipa, CA 92399, USA",34.04936,-116.94297,3964.0,CA,SAN BERNARDINO COUNTY,C08S23A42E4B3YCUUNI0785,False,False,1.0
3964,PILGRIM PINES CAMP,"39570 Glen Rd, Yucaipa, CA 92399, USA",34.04936,-116.94297,3965.0,CA,SAN BERNARDINO COUNTY,C08S23A42E4B3YCUUNI0785,True,False,1.0
3965,CRAFTON HILLS COLLEGE,"11711 Sand Canyon Rd, Yucaipa, CA 92399, USA",34.03942,-117.10502,3966.0,CA,SAN BERNARDINO COUNTY,"C08S23A42E4B3YCUYU10800, C08S23A42E4B3YCUYU10810, C08S23A42E4B3YCUYU20811, C08S23A42E4B3YCUYU20812, C08S23A42E4B3YCUYU20817, C08S23A42E4B3YCUYU20821, C08S23A42E4B3YCUYU10825, C08S23A42E4B3YCUYU21779, C08S23A42E4B3YCUYU12095, C08S23A42E4B3YCUYU22096, C08S23A42E4B3YCUYU22097, C08S23A42E4B3YCUYU32099, C08S23A42E4B3YCUYU12104, C08S23A42E4B3YCUYU42105, C08S23A42E4B3YCUYU12165",True,False,1.0
3966,CRAFTON HILLS COLLEGE,"11711 Sand Canyon Rd, Yucaipa, CA 92399, USA",34.03942,-117.10502,3967.0,CA,SAN BERNARDINO COUNTY,"C08S23A42E4B3YCUYU10800, C08S23A42E4B3YCUYU10810, C08S23A42E4B3YCUYU20811, C08S23A42E4B3YCUYU20812, C08S23A42E4B3YCUYU20817, C08S23A42E4B3YCUYU20821, C08S23A42E4B3YCUYU10825, C08S23A42E4B3YCUYU21779, C08S23A42E4B3YCUYU22096, C08S23A42E4B3YCUYU12095, C08S23A42E4B3YCUYU22097, C08S23A42E4B3YCUYU32099, C08S23A42E4B3YCUYU12104, C08S23A42E4B3YCUYU42105, C08S23A42E4B3YCUYU12165",False,False,1.0
3967,SCHERER COMMUNITY CENTER,"12202 1st St, Yucaipa, CA 92399, USA",34.03208,-117.04139,3968.0,CA,SAN BERNARDINO COUNTY,"C08S23A42E4B3YCUYU10802, C08S23A42E4B3YCUYU10803, C08S23A42E4B3YCUYU40807, C08S23A42E4B3YCUYU40824, C08S23A42E4B3YCUYU10829, C08S23A42E4B3YCUYU42103, C08S23A42E4B3YCUYU12164",False,False,1.0
3968,SCHERER COMMUNITY CENTER,"12202 1st St, Yucaipa, CA 92399, USA",34.03208,-117.04139,3969.0,CA,SAN BERNARDINO COUNTY,"C08S23A42E4B3YCUYU10802, C08S23A42E4B3YCUYU10803, C08S23A42E4B3YCUYU40807, C08S23A42E4B3YCUYU40824, C08S23A42E4B3YCUYU10829, C08S23A42E4B3YCUYU42103, C08S23A42E4B3YCUYU12164",True,False,1.0
3969,GRACE POINT FELLOWSHIP,"34784 Yucaipa Blvd, Yucaipa, CA 92399, USA",34.03458,-117.04617,3970.0,CA,SAN BERNARDINO COUNTY,"C08S23A42E4B3YCUYU40806, C08S23A42E4B3YCUYU30813, C08S23A42E4B3YCUYU40819, C08S23A42E4B3YCUYU32100, C08S23A42E4B3YCUYU32101, C08S23A42E4B3YCUYU32102",False,False,1.0
3970,GRACE POINT FELLOWSHIP,"34784 Yucaipa Blvd, Yucaipa, CA 92399, USA",34.03458,-117.04617,3971.0,CA,SAN BERNARDINO COUNTY,"C08S23A42E4B3YCUYU40806, C08S23A42E4B3YCUYU30813, C08S23A42E4B3YCUYU40819, C08S23A42E4B3YCUYU32100, C08S23A42E4B3YCUYU32101, C08S23A42E4B3YCUYU32102",True,False,1.0
3971,MASONIC CENTER (YUCAIPA),"13669 California St, Yucaipa, CA 92399, USA",34.0054,-117.03825,3972.0,CA,SAN BERNARDINO COUNTY,"C08S23A42E4B3YCUYU50814, C08S23A42E4B3YCUYU50816, C08S23A42E4B3YCUYU50818, C08S23A42E4B3YCUYU50820, C08S23A42E4B3YCUYU50830, C08S23A42E4B3YCUYU31777, C08S23A42E4B3YCUYU31778, C08S23A42E4B3YCUYU52098",False,False,1.0
3972,MASONIC CENTER (YUCAIPA),"13669 California St, Yucaipa, CA 92399, USA",34.0054,-117.03825,3973.0,CA,SAN BERNARDINO COUNTY,"C08S23A42E4B3YCUYU50814, C08S23A42E4B3YCUYU50816, C08S23A42E4B3YCUYU50818, C08S23A42E4B3YCUYU50820, C08S23A42E4B3YCUYU50830, C08S23A42E4B3YCUYU31777, C08S23A42E4B3YCUYU31778, C08S23A42E4B3YCUYU52098",True,False,1.0
3973,FIRE STATION #164 (UPLAND),"1825 N Campus Ave, Upland, CA 91784, USA",34.12983,-117.64272,3974.0,CA,SAN BERNARDINO COUNTY,"C27S25A41E1B2CUHUP20836, C27S25A41E1B2CUHUP20837, C27S25A41E1B2UPUUP20846, C27S25A41E1B2UPUUP20847, C27S25A41E1B2UPUUP20849, C27S25A41E1B2UPUUP20854, C31S25A41E1B2CUHUP21275, C31S25A41E1B2UPUUP21280, C31S25A41E1B2UPUUP41281, C31S25A41E1B4UPUUP41286, C31S25A41E1B2UPUUP41837, C31S25A41E1B2UPUUP21838",False,False,1.0
3974,FIRE STATION #164 (UPLAND),"1825 N Campus Ave, Upland, CA 91784, USA",34.12983,-117.64272,3975.0,CA,SAN BERNARDINO COUNTY,"C27S25A41E1B2CUHUP20836, C27S25A41E1B2CUHUP20837, C27S25A41E1B2UPUUP20846, C27S25A41E1B2UPUUP20847, C27S25A41E1B2UPUUP20849, C27S25A41E1B2UPUUP20854, C31S25A41E1B2CUHUP21275, C31S25A41E1B2UPUUP21280, C31S25A41E1B2UPUUP41281, C31S25A41E1B4UPUUP41286, C31S25A41E1B2UPUUP41837, C31S25A41E1B2UPUUP21838",True,False,1.0
3975,FIRE STATION #2 (UPLAND),"2046 N San Antonio Ave, Upland, CA 91784, USA",34.13766,-117.66058,3976.0,CA,SAN BERNARDINO COUNTY,"C27S25A41E1B2UPUUNI0839, C27S25A41E1B2UPUUNI0840, C27S25A41E1B2UPUUP10841, C27S25A41E1B2UPUUP10842, C27S25A41E1B2UPUUP20844, C27S25A41E1B2UPUUP20848, C27S25A41E1B2UPUUP11834",False,False,1.0
3976,FIRE STATION #2 (UPLAND),"2046 N San Antonio Ave, Upland, CA 91784, USA",34.13766,-117.66058,3977.0,CA,SAN BERNARDINO COUNTY,"C27S25A41E1B2UPUUNI0839, C27S25A41E1B2UPUUNI0840, C27S25A41E1B2UPUUP10841, C27S25A41E1B2UPUUP10842, C27S25A41E1B2UPUUP20844, C27S25A41E1B2UPUUP20848, C27S25A41E1B2UPUUP11834",True,False,1.0
3977,VICTORY COMMUNITY CHURCH,"2009 Porterfield Way, Upland, CA 91786, USA",34.1096,-117.69124,3978.0,CA,SAN BERNARDINO COUNTY,"C27S25A41E1B2UPUUP10843, C31S25A41E1B2UPUUP11279",False,False,1.0
3978,VICTORY COMMUNITY CHURCH,"2009 Porterfield Way, Upland, CA 91786, USA",34.1096,-117.69124,3979.0,CA,SAN BERNARDINO COUNTY,"C27S25A41E1B2UPUUP10843, C31S25A41E1B2UPUUP11279",True,False,1.0
3979,IMAGINE THAT,"1318 W 9th St, Upland, CA 91785, USA",34.09529,-117.67319,3980.0,CA,SAN BERNARDINO COUNTY,"C27S25A41E1B2UPUUP10853, C31S25A41E1B2UPUUP11277, C31S25A41E1B2UPUUP11278, C31S25A41E1B4CUHUP31284, C31S25A41E1B4CUHUP31285, C31S25A41E1B4UPUUP31291, C31S25A41E1B4UPUUP31292, C31S25A41E1B4UPUUP31293, C31S25A41E1B4UPUUP31294, C31S25A41E1B2UPUUP11835",False,False,1.0
3980,IMAGINE THAT,"1318 W 9th St, Upland, CA 91785, USA",34.09529,-117.67319,3981.0,CA,SAN BERNARDINO COUNTY,"C27S25A41E1B2UPUUP10853, C31S25A41E1B2UPUUP11277, C31S25A41E1B4CUHUP31284, C31S25A41E1B2UPUUP11278, C31S25A41E1B4CUHUP31285, C31S25A41E1B4UPUUP31293, C31S25A41E1B4UPUUP31291, C31S25A41E1B4UPUUP31292, C31S25A41E1B4UPUUP31294, C31S25A41E1B2UPUUP11835",True,False,1.0
3981,GRACE LUTHERAN CHURCH,"2108 N Euclid Ave, Upland, CA 91784, USA",34.14015,-117.65068,3982.0,CA,SAN BERNARDINO COUNTY,C27S25A41E1B2UPUUP20845,False,False,1.0
3982,GRACE LUTHERAN CHURCH,"2108 N Euclid Ave, Upland, CA 91784, USA",34.14015,-117.65068,3983.0,CA,SAN BERNARDINO COUNTY,C27S25A41E1B2UPUUP20845,True,False,1.0
3983,MAGNOLIA RECREATION CENTER,"Magnolia Park, 651 W 15th St, Upland, CA 91786, USA",34.1181,-117.65855,3984.0,CA,SAN BERNARDINO COUNTY,"C27S25A41E1B2UPUUP20850, C27S25A41E1B2UPUUP10851, C27S25A41E1B2UPUUP10852, C27S25A41E1B2UPUUP20855, C31S25A41E1B2UPUUP21276, C31S25A41E1B2UPUUP41282",False,False,1.0
3984,MAGNOLIA RECREATION CENTER,"Magnolia Park, 651 W 15th St, Upland, CA 91786, USA",34.1181,-117.65855,3985.0,CA,SAN BERNARDINO COUNTY,"C27S25A41E1B2UPUUP20850, C27S25A41E1B2UPUUP10851, C27S25A41E1B2UPUUP10852, C27S25A41E1B2UPUUP20855, C31S25A41E1B2UPUUP21276, C31S25A41E1B2UPUUP41282",True,False,1.0
3985,KOLB MIDDLE SCHOOL,"2351 N Spruce Ave, Rialto, CA 92377, USA",34.1422,-117.38744,3986.0,CA,SAN BERNARDINO COUNTY,"C31S20A47E1B5RLURIA0866, C31S20A47E1B5RLUUNI0867, C31S20A47E4B5RLURIA0964, C31S20A47E4B5RLURIA0965, C31S20A47E4B5RLUUNI0992, C31S20A47E4B5RLURIA0966, C31S20A47E4B5RLURIA0979, C31S20A47E4B5RLUUNI0994, C31S20A47E4B5RLUUNI0995, C31S20A47E4B5RLUUNI0996, C31S20A47E1B5RLUUNI2218, C31S20A47E1B5RLUUNI2219, C31S20A47E4B5RLURIA2220, C31S20A47E4B5RLURIA2221",False,False,1.0
3986,KOLB MIDDLE SCHOOL,"2351 N Spruce Ave, Rialto, CA 92377, USA",34.1422,-117.38744,3987.0,CA,SAN BERNARDINO COUNTY,"C31S20A47E1B5RLURIA0866, C31S20A47E1B5RLUUNI0867, C31S20A47E4B5RLURIA0964, C31S20A47E4B5RLURIA0965, C31S20A47E4B5RLUUNI0992, C31S20A47E4B5RLURIA0966, C31S20A47E4B5RLURIA0979, C31S20A47E4B5RLUUNI0994, C31S20A47E4B5RLUUNI0995, C31S20A47E4B5RLUUNI0996, C31S20A47E1B5RLUUNI2218, C31S20A47E1B5RLUUNI2219, C31S20A47E4B5RLURIA2220, C31S20A47E4B5RLURIA2221",True,False,1.0
3987,PAAKUMA' K8,"17825 Sycamore Creek Loop Pkwy, San Bernardino, CA 92407, USA",34.18824,-117.41718,3988.0,CA,SAN BERNARDINO COUNTY,"C31S20A47E1B5RLUUNI0869, C31S20A47E1B5SBUUNI0877",False,False,1.0
3988,PAAKUMA' K8,"17825 Sycamore Creek Loop Pkwy, San Bernardino, CA 92407, USA",34.18824,-117.41718,3989.0,CA,SAN BERNARDINO COUNTY,"C31S20A47E1B5RLUUNI0869, C31S20A47E1B5SBUUNI0877",True,False,1.0
3989,MUSCOY ELEMENTARY,"2119 Blake St, Muscoy, CA 92407, USA",34.15012,-117.3403,3990.0,CA,SAN BERNARDINO COUNTY,"C31S20A47E1B5SBUUNI0879, C31S20A47E1B5SBUUNI0880, C31S20A47E4B5SBUUNI1022, C31S20A47E4B5SBUUNI1024, C31S20A47E4B5SBUUNI1026",False,False,1.0
3990,MUSCOY ELEMENTARY,"2119 Blake St, Muscoy, CA 92407, USA",34.15012,-117.3403,3991.0,CA,SAN BERNARDINO COUNTY,"C31S20A47E1B5SBUUNI0879, C31S20A47E1B5SBUUNI0880, C31S20A47E4B5SBUUNI1022, C31S20A47E4B5SBUUNI1024, C31S20A47E4B5SBUUNI1026",True,False,1.0
3991,SAN BERNARDINO COUNTY FIRE STATION 79,"5075 Coyote Canyon Rd, Fontana, CA 92336, USA",34.16237,-117.46597,3992.0,CA,SAN BERNARDINO COUNTY,"C31S20A47E4B2CUHFO10881, C31S20A47E4B2CUHFO10882, C31S20A47E4B2CUHFO10883, C31S20A47E4B2CUHFO10884, C31S20A47E4B2FNUFO30887, C31S20A47E4B2FNUFO11827, C31S20A47E4B2FNUFO11828, C31S20A47E4B2CUHFO12162, C31S20A47E4B2CUHFO12163, C31S20A47E4B2CUHFO12169",False,False,1.0
3992,SAN BERNARDINO COUNTY FIRE STATION 79,"5075 Coyote Canyon Rd, Fontana, CA 92336, USA",34.16237,-117.46597,3993.0,CA,SAN BERNARDINO COUNTY,"C31S20A47E4B2CUHFO10881, C31S20A47E4B2CUHFO10882, C31S20A47E4B2CUHFO10883, C31S20A47E4B2CUHFO10884, C31S20A47E4B2FNUFO30887, C31S20A47E4B2FNUFO11827, C31S20A47E4B2FNUFO11828, C31S20A47E4B2CUHFO12162, C31S20A47E4B2CUHFO12163, C31S20A47E4B2CUHFO12169",True,False,1.0
3993,SIERRA LAKES ELEMENTARY SCHOOL,"5740 Avenal Pl, Fontana, CA 92336, USA",34.14887,-117.45259,3994.0,CA,SAN BERNARDINO COUNTY,"C31S20A47E4B2FNUFO20891, C31S20A47E4B2CUHFO10885, C31S20A47E4B2FNUFO30889, C31S20A47E4B2CUHFO10886, C31S20A47E4B2FNUFO30888, C31S20A47E4B2FNUFO20890, C31S20A47E4B2FNUFO10892, C35S20A47E4B2CUHFO11848, C31S20A47E4B2FNUFO31829, C31S20A47E4B2FNUFO31832",False,False,1.0
3994,SIERRA LAKES ELEMENTARY SCHOOL,"5740 Avenal Pl, Fontana, CA 92336, USA",34.14887,-117.45259,3995.0,CA,SAN BERNARDINO COUNTY,"C31S20A47E4B2FNUFO20891, C31S20A47E4B2CUHFO10885, C31S20A47E4B2FNUFO30889, C31S20A47E4B2CUHFO10886, C31S20A47E4B2FNUFO30888, C31S20A47E4B2FNUFO20890, C31S20A47E4B2FNUFO10892, C35S20A47E4B2CUHFO11848, C31S20A47E4B2FNUFO31829, C31S20A47E4B2FNUFO31832",True,False,1.0
3995,COOLEY RANCH ELEMENTARY SCHOOL,"1000 S Cooley Dr E, Colton, CA 92324, USA",34.05193,-117.29253,3996.0,CA,SAN BERNARDINO COUNTY,"C31S20A47E4B3CJUCO50893, C31S20A47E4B3CJUCO60905, C31S20A47E4B3CJUCO61644",False,False,1.0
3996,COOLEY RANCH ELEMENTARY SCHOOL,"1000 S Cooley Dr E, Colton, CA 92324, USA",34.05193,-117.29253,3997.0,CA,SAN BERNARDINO COUNTY,"C31S20A47E4B3CJUCO50893, C31S20A47E4B3CJUCO60905, C31S20A47E4B3CJUCO61644",True,False,1.0
3997,RECHE CANYON ELEMENTARY SCHOOL,"3101 Canyon Vista Dr, Colton, CA 92324, USA",34.03913,-117.27452,3998.0,CA,SAN BERNARDINO COUNTY,"C31S20A47E4B3CJUCO50894, C31S20A47E4B3CJUCO50895, C31S20A47E4B3CJUCO50896, C31S20A47E4B3CJUCO50897, C31S20A47E4B3CJUCO50898, C31S20A47E4B3CJUCO50899, C31S20A47E4B3CJUCO50900, C31S20A47E4B3CJUCO50901, C31S20A47E4B3CJUCO50902, C31S20A47E4B3CJUUNI0915, C31S20A47E4B3CJUUNI0917, C31S20A47E4B3CJUUNI0918",False,False,1.0
3998,RECHE CANYON ELEMENTARY SCHOOL,"3101 Canyon Vista Dr, Colton, CA 92324, USA",34.03913,-117.27452,3999.0,CA,SAN BERNARDINO COUNTY,"C31S20A47E4B3CJUCO50894, C31S20A47E4B3CJUCO50895, C31S20A47E4B3CJUCO50896, C31S20A47E4B3CJUCO50897, C31S20A47E4B3CJUCO50898, C31S20A47E4B3CJUCO50899, C31S20A47E4B3CJUCO50900, C31S20A47E4B3CJUCO50901, C31S20A47E4B3CJUCO50902, C31S20A47E4B3CJUUNI0915, C31S20A47E4B3CJUUNI0917, C31S20A47E4B3CJUUNI0918",True,False,1.0
3999,LUQUE COMMUNITY CENTER,"292 E O St, Colton, CA 92324, USA",34.05848,-117.32196,4000.0,CA,SAN BERNARDINO COUNTY,"C31S20A47E4B3CJUCO60903, C31S20A47E4B3CJUCO60904, C31S20A47E4B5CJUCO60937, C31S20A47E4B5CJUCO60938, C31S20A47E4B5CJUCO60939, C31S20A47E4B5CJUCO10923, C31S20A47E4B5CJUCO10924, C31S20A47E4B5CJUCO10925, C31S20A47E4B5CJUCO10926, C31S20A47E4B5CJUCO40934, C31S20A47E4B5CJUCO60936, C31S20A47E4B5CJUUNI0949, C31S20A47E4B5CJUUNI0950, C31S20A47E4B5CJUUNI0951, C31S20A47E4B5RLUUNI0991, C31S20A47E4B5CJUCO62232",False,False,1.0
4000,LUQUE COMMUNITY CENTER,"292 E O St, Colton, CA 92324, USA",34.05848,-117.32196,4001.0,CA,SAN BERNARDINO COUNTY,"C31S20A47E4B3CJUCO60903, C31S20A47E4B3CJUCO60904, C31S20A47E4B5CJUCO60937, C31S20A47E4B5CJUCO60938, C31S20A47E4B5CJUCO60939, C31S20A47E4B5CJUCO10923, C31S20A47E4B5CJUCO10924, C31S20A47E4B5CJUCO10925, C31S20A47E4B5CJUCO10926, C31S20A47E4B5CJUCO40934, C31S20A47E4B5CJUCO60936, C31S20A47E4B5CJUUNI0949, C31S20A47E4B5CJUUNI0950, C31S20A47E4B5CJUUNI0951, C31S20A47E4B5RLUUNI0991, C31S20A47E4B5CJUCO62232",True,False,1.0
4001,TERRACE VIEW ELEMENTARY SCHOOL,"22731 Grand Terrace Rd, Grand Terrace, CA 92313, USA",34.04203,-117.3089,4002.0,CA,SAN BERNARDINO COUNTY,"C31S20A47E4B3CJUGRA0906, C31S20A47E4B3CJUGRA0907, C31S20A47E4B3CJUGRA0911, C31S20A47E4B3CJUGRA0912, C31S20A47E4B3CJUUNI0919",False,False,1.0
4002,TERRACE VIEW ELEMENTARY SCHOOL,"22731 Grand Terrace Rd, Grand Terrace, CA 92313, USA",34.04203,-117.3089,4003.0,CA,SAN BERNARDINO COUNTY,"C31S20A47E4B3CJUGRA0906, C31S20A47E4B3CJUGRA0907, C31S20A47E4B3CJUGRA0911, C31S20A47E4B3CJUGRA0912, C31S20A47E4B3CJUUNI0919",True,False,1.0
4003,TERRACE HILLS MIDDLE SCHOOL,"22579 De Berry St, Grand Terrace, CA 92313, USA",34.02967,-117.31211,4004.0,CA,SAN BERNARDINO COUNTY,"C31S20A47E4B3CJUGRA0908, C31S20A47E4B3CJUGRA0913",False,False,1.0
4004,TERRACE HILLS MIDDLE SCHOOL,"22579 De Berry St, Grand Terrace, CA 92313, USA",34.02967,-117.31211,4005.0,CA,SAN BERNARDINO COUNTY,"C31S20A47E4B3CJUGRA0908, C31S20A47E4B3CJUGRA0913",True,False,1.0
4005,GRAND TERRACE HIGH,"21810 Main St, Grand Terrace, CA 92313, USA",34.02172,-117.32822,4006.0,CA,SAN BERNARDINO COUNTY,"C31S20A47E4B3CJUGRA0909, C31S20A47E4B3CJUGRA0910",False,False,1.0
4006,GRAND TERRACE HIGH,"21810 Main St, Grand Terrace, CA 92313, USA",34.02172,-117.32822,4007.0,CA,SAN BERNARDINO COUNTY,"C31S20A47E4B3CJUGRA0909, C31S20A47E4B3CJUGRA0910",True,False,1.0
4007,ATTC (APPLIED TECHNOLOGY TRAINING CENTER),"114 S Del Rosa Dr, San Bernardino, CA 92408, USA",34.10032,-117.25167,4008.0,CA,SAN BERNARDINO COUNTY,"C31S20A47E4B3CJUSB30914, C31S20A47E4B5CJUSB30946, C31S20A47E4B5CJUSB30947, C31S20A47E4B5SBUSB31012, C31S20A47E4B5SBUSB31014, C31S23A40E4B3CJUSB31094, C31S23A40E4B5CJUSB31207, C31S23A40E4B5CJUSB31208, C31S23A40E4B5RDUSB31213, C31S23A40E4B5RDUSB31214, C31S23A40E4B5SBUSB11218, C31S23A40E4B5SBUSB11220, C31S23A40E4B5SBUSB11224, C31S23A40E4B5SBUSB11225, C31S23A40E4B5SBUSB11226, C31S20A47E4B5CJUSB31655, C31S20A47E4B5CJUSB31656, C31S23A40E4B5RDUSB31659, C31S23A40E4B5RDUSB31660, C31S23A40E4B5RDUSB31661, C31S23A40E4B5SBUSB31718, C08S23A40E4B3SBUSB11855",False,False,1.0
4008,ATTC (APPLIED TECHNOLOGY TRAINING CENTER),"114 S Del Rosa Dr, San Bernardino, CA 92408, USA",34.10032,-117.25167,4009.0,CA,SAN BERNARDINO COUNTY,"C31S20A47E4B3CJUSB30914, C31S20A47E4B5CJUSB30946, C31S20A47E4B5CJUSB30947, C31S20A47E4B5SBUSB31012, C31S20A47E4B5SBUSB31014, C31S23A40E4B3CJUSB31094, C31S23A40E4B5CJUSB31207, C31S23A40E4B5CJUSB31208, C31S23A40E4B5RDUSB31213, C31S23A40E4B5RDUSB31214, C31S23A40E4B5SBUSB11218, C31S23A40E4B5SBUSB11220, C31S23A40E4B5SBUSB11224, C31S23A40E4B5SBUSB11225, C31S23A40E4B5SBUSB11226, C31S20A47E4B5CJUSB31655, C31S20A47E4B5CJUSB31656, C31S23A40E4B5RDUSB31659, C31S23A40E4B5RDUSB31660, C31S23A40E4B5RDUSB31661, C31S23A40E4B5SBUSB31718, C08S23A40E4B3SBUSB11855",True,False,1.0
4009,BRYN MAWR ELEMENTARY SCHOOL,"11680 Whittier Ave, Loma Linda, CA 92354, USA",34.04229,-117.22955,4010.0,CA,SAN BERNARDINO COUNTY,"C31S20A47E4B3CJUUNI0916, C31S23A40E4B3CJULOM1092, C31S23A40E4B3RDULOM1100, C31S23A40E4B3RDULOM1101, C31S23A40E4B3RDULOM1102, C31S23A40E4B3RDUUNI1153, C31S23A40E4B3RDUUNI1630, C31S23A40E4B3RDULOM1631, C31S23A40E4B3RDULOM1999",False,False,1.0
4010,BRYN MAWR ELEMENTARY SCHOOL,"11680 Whittier Ave, Loma Linda, CA 92354, USA",34.04229,-117.22955,4011.0,CA,SAN BERNARDINO COUNTY,"C31S20A47E4B3CJUUNI0916, C31S23A40E4B3CJULOM1092, C31S23A40E4B3RDULOM1100, C31S23A40E4B3RDULOM1101, C31S23A40E4B3RDULOM1102, C31S23A40E4B3RDUUNI1153, C31S23A40E4B3RDUUNI1630, C31S23A40E4B3RDULOM1631, C31S23A40E4B3RDULOM1999",True,False,1.0
4011,DR. ERNEST GARCIA ELEMENTARY,"1390 W Randall Ave, Colton, CA 92324, USA",34.08447,-117.34774,4012.0,CA,SAN BERNARDINO COUNTY,"C31S20A47E4B5CJUCO10920, C31S20A47E4B5CJUCO10921, C31S20A47E4B5CJUCO10922, C31S20A47E4B5CJUUNI0948, C31S20A47E4B5RLUCO10955, C31S20A47E4B5RLUCO10956, C31S20A47E4B5RLUCO10957",False,False,1.0
4012,DR. ERNEST GARCIA ELEMENTARY,"1390 W Randall Ave, Colton, CA 92324, USA",34.08447,-117.34774,4013.0,CA,SAN BERNARDINO COUNTY,"C31S20A47E4B5CJUCO10920, C31S20A47E4B5CJUCO10921, C31S20A47E4B5CJUCO10922, C31S20A47E4B5CJUUNI0948, C31S20A47E4B5RLUCO10955, C31S20A47E4B5RLUCO10956, C31S20A47E4B5RLUCO10957",True,False,1.0
4013,WILLIAM MCKINLEY ELEMENTARY SCHOOL,"600 W Johnston St, Colton, CA 92324, USA",34.08822,-117.33087,4014.0,CA,SAN BERNARDINO COUNTY,"C31S20A47E4B5CJUCO20927, C31S20A47E4B5CJUCO20928, C31S20A47E4B5RLUCO20959",False,False,1.0
4014,WILLIAM MCKINLEY ELEMENTARY SCHOOL,"600 W Johnston St, Colton, CA 92324, USA",34.08822,-117.33087,4015.0,CA,SAN BERNARDINO COUNTY,"C31S20A47E4B5CJUCO20927, C31S20A47E4B5CJUCO20928, C31S20A47E4B5RLUCO20959",True,False,1.0
4015,ABRAHAM LINCOLN ELEMENTARY,"444 E Olive St, Colton, CA 92324, USA",34.07725,-117.31737,4016.0,CA,SAN BERNARDINO COUNTY,"C31S20A47E4B5CJUCO20929, C31S20A47E4B5CJUCO30930, C31S20A47E4B5CJUCO30931, C31S20A47E4B5SBUCO20998, C31S20A47E4B5SBUCO30999, C31S20A47E4B5SBUCO31000",False,False,1.0
4016,ABRAHAM LINCOLN ELEMENTARY,"444 E Olive St, Colton, CA 92324, USA",34.07725,-117.31737,4017.0,CA,SAN BERNARDINO COUNTY,"C31S20A47E4B5CJUCO20929, C31S20A47E4B5CJUCO30930, C31S20A47E4B5CJUCO30931, C31S20A47E4B5SBUCO20998, C31S20A47E4B5SBUCO30999, C31S20A47E4B5SBUCO31000",True,False,1.0
4017,GRANT ELEMENTARY SCHOOL,"550 W Olive St, Colton, CA 92324, USA",34.07731,-117.33004,4018.0,CA,SAN BERNARDINO COUNTY,"C31S20A47E4B5CJUCO40932, C31S20A47E4B5CJUCO40933",False,False,1.0
4018,GRANT ELEMENTARY SCHOOL,"550 W Olive St, Colton, CA 92324, USA",34.07731,-117.33004,4019.0,CA,SAN BERNARDINO COUNTY,"C31S20A47E4B5CJUCO40932, C31S20A47E4B5CJUCO40933",True,False,1.0
4019,RIALTO HIGH SCHOOL,"595 S Eucalyptus Ave, Rialto, CA 92376, USA",34.09081,-117.35568,4020.0,CA,SAN BERNARDINO COUNTY,"C31S20A47E4B5CJUSB30940, C31S20A47E4B5CJUSB30941, C31S20A47E4B5CJUSB30942, C31S20A47E4B5CJUSB30943, C31S20A47E4B5RLUSB30981, C31S20A47E4B5RLUSB30982, C31S20A47E4B5RLUSB30983, C31S20A47E4B5RLUSB30984, C31S20A47E4B5RLUSB30985, C31S20A47E4B5RLUSB60988",False,False,1.0
4020,RIALTO HIGH SCHOOL,"595 S Eucalyptus Ave, Rialto, CA 92376, USA",34.09081,-117.35568,4021.0,CA,SAN BERNARDINO COUNTY,"C31S20A47E4B5CJUSB30940, C31S20A47E4B5CJUSB30941, C31S20A47E4B5CJUSB30942, C31S20A47E4B5CJUSB30943, C31S20A47E4B5RLUSB30981, C31S20A47E4B5RLUSB30982, C31S20A47E4B5RLUSB30983, C31S20A47E4B5RLUSB30984, C31S20A47E4B5RLUSB30985, C31S20A47E4B5RLUSB60988",True,False,1.0
4021,SAN BERNARDINO VALLEY COLLEGE,"701 S Mt Vernon Ave, San Bernardino, CA 92410, USA",34.08875,-117.31295,4022.0,CA,SAN BERNARDINO COUNTY,"C31S20A47E4B5CJUSB30944, C31S20A47E4B5CJUSB30945, C31S20A47E4B5SBUSB31008, C31S20A47E4B5SBUSB31010, C31S20A47E4B5SBUSB31011, C31S20A47E4B5SBUSB31013",False,False,1.0
4022,SAN BERNARDINO VALLEY COLLEGE,"701 S Mt Vernon Ave, San Bernardino, CA 92410, USA",34.08875,-117.31295,4023.0,CA,SAN BERNARDINO COUNTY,"C31S20A47E4B5CJUSB30944, C31S20A47E4B5CJUSB30945, C31S20A47E4B5SBUSB31008, C31S20A47E4B5SBUSB31010, C31S20A47E4B5SBUSB31011, C31S20A47E4B5SBUSB31013",True,False,1.0
4023,RIALTO MIDDLE SCHOOL,"1262 W Rialto Ave, Rialto, CA 92376, USA",34.10042,-117.39433,4024.0,CA,SAN BERNARDINO COUNTY,"C31S20A47E4B5FNURIA0953, C31S20A47E4B5RLURIA0975, C31S20A47E4B5RLURIA0976, C35S20A47E4B5FNURIA1374, C35S20A47E4B5RLURIA1379",False,False,1.0
4024,RIALTO MIDDLE SCHOOL,"1262 W Rialto Ave, Rialto, CA 92376, USA",34.10042,-117.39433,4025.0,CA,SAN BERNARDINO COUNTY,"C31S20A47E4B5FNURIA0953, C31S20A47E4B5RLURIA0975, C31S20A47E4B5RLURIA0976, C35S20A47E4B5FNURIA1374, C35S20A47E4B5RLURIA1379",True,False,1.0
4025,KUCERA MIDDLE SCHOOL,"2140 W Buena Vista Dr, Rialto, CA 92377, USA",34.16247,-117.41709,4026.0,CA,SAN BERNARDINO COUNTY,"C31S20A47E4B5RLURIA0961, C31S20A47E4B5RLURIA0962, C31S20A47E4B5RLURIA0963, C31S20A47E4B5RLUUNI0993, C31S20A47E4B5RLURIA2222",False,False,1.0
4026,KUCERA MIDDLE SCHOOL,"2140 W Buena Vista Dr, Rialto, CA 92377, USA",34.16247,-117.41709,4027.0,CA,SAN BERNARDINO COUNTY,"C31S20A47E4B5RLURIA0961, C31S20A47E4B5RLURIA0962, C31S20A47E4B5RLURIA0963, C31S20A47E4B5RLUUNI0993, C31S20A47E4B5RLURIA2222",True,False,1.0
4027,FRISBIE MIDDLE SCHOOL,"1442 N Eucalyptus Ave, Rialto, CA 92376, USA",34.12599,-117.35788,4028.0,CA,SAN BERNARDINO COUNTY,"C31S20A47E4B5RLURIA0967, C31S20A47E4B5RLURIA0968, C31S20A47E4B5RLURIA0969, C31S20A47E4B5RLURIA0972, C31S20A47E4B5RLURIA0974",False,False,1.0
4028,FRISBIE MIDDLE SCHOOL,"1442 N Eucalyptus Ave, Rialto, CA 92376, USA",34.12599,-117.35788,4029.0,CA,SAN BERNARDINO COUNTY,"C31S20A47E4B5RLURIA0967, C31S20A47E4B5RLURIA0968, C31S20A47E4B5RLURIA0969, C31S20A47E4B5RLURIA0972, C31S20A47E4B5RLURIA0974",True,False,1.0
4029,RIALTO COMMUNITY CENTER,"214 N Palm Ave, Rialto, CA 92376, USA",34.1022,-117.37323,4030.0,CA,SAN BERNARDINO COUNTY,"C31S20A47E4B5RLURIA0970, C31S20A47E4B5RLURIA0971, C31S20A47E4B5RLURIA0973, C35S20A47E4B5RLURIA1377, C35S20A47E4B5RLURIA1378",False,False,1.0
4030,RIALTO COMMUNITY CENTER,"214 N Palm Ave, Rialto, CA 92376, USA",34.1022,-117.37323,4031.0,CA,SAN BERNARDINO COUNTY,"C31S20A47E4B5RLURIA0970, C31S20A47E4B5RLURIA0971, C31S20A47E4B5RLURIA0973, C35S20A47E4B5RLURIA1377, C35S20A47E4B5RLURIA1378",True,False,1.0
4031,GREATER FAITH GRACE BIBLE CHURCH,"249 E Randall Ave, Rialto, CA 92376, USA",34.0847,-117.36657,4032.0,CA,SAN BERNARDINO COUNTY,"C31S20A47E4B5RLURIA0977, C35S20A47E4B5CJURIA1343, C35S20A47E4B5CJURIA1338, C35S20A47E4B5CJURIA1339, C35S20A47E4B5RLURIA1385, C35S20A47E4B5RLURIA1380, C35S20A47E4B5RLURIA1381, C35S20A47E4B5RLURIA1382, C35S20A47E4B5CJURIA1642, C35S20A47E4B5RLURIA1643",False,False,1.0
4032,GREATER FAITH GRACE BIBLE CHURCH,"249 E Randall Ave, Rialto, CA 92376, USA",34.0847,-117.36657,4033.0,CA,SAN BERNARDINO COUNTY,"C31S20A47E4B5RLURIA0977, C35S20A47E4B5CJURIA1343, C35S20A47E4B5CJURIA1338, C35S20A47E4B5CJURIA1339, C35S20A47E4B5RLURIA1385, C35S20A47E4B5RLURIA1380, C35S20A47E4B5RLURIA1381, C35S20A47E4B5RLURIA1382, C35S20A47E4B5CJURIA1642, C35S20A47E4B5RLURIA1643",True,False,1.0
4033,MANUEL A. SALINAS CREATIVE ARTS ELEMENTARY,"2699 N California St, San Bernardino, CA 92407, USA",34.14027,-117.33034,4034.0,CA,SAN BERNARDINO COUNTY,"C31S20A47E4B5RLUSB60986, C31S20A47E4B5SBUSB61018, C31S20A47E4B5SBUSB61020, C31S20A47E4B5SBUUNI1025, C31S23A40E4B5SBUSB61249",False,False,1.0
4034,MANUEL A. SALINAS CREATIVE ARTS ELEMENTARY,"2699 N California St, San Bernardino, CA 92407, USA",34.14027,-117.33034,4035.0,CA,SAN BERNARDINO COUNTY,"C31S20A47E4B5RLUSB60986, C31S20A47E4B5SBUSB61018, C31S20A47E4B5SBUSB61020, C31S20A47E4B5SBUUNI1025, C31S23A40E4B5SBUSB61249",True,False,1.0
4035,16TH ST 7TH DAY ADVENTIST CHURCH,"1601 W 16th St, San Bernardino, CA 92411, USA",34.12827,-117.32313,4036.0,CA,SAN BERNARDINO COUNTY,"C31S20A47E4B5RLUSB60987, C31S20A47E4B5SBUSB61015, C31S20A47E4B5SBUSB61016, C31S20A47E4B5SBUSB61021, C31S23A40E4B5SBUSB61252",False,False,1.0
4036,16TH ST 7TH DAY ADVENTIST CHURCH,"1601 W 16th St, San Bernardino, CA 92411, USA",34.12827,-117.32313,4037.0,CA,SAN BERNARDINO COUNTY,"C31S20A47E4B5RLUSB60987, C31S20A47E4B5SBUSB61015, C31S20A47E4B5SBUSB61016, C31S20A47E4B5SBUSB61021, C31S23A40E4B5SBUSB61252",True,False,1.0
4037,ENCANTO CENTER (FORMERLY BOYS AND GIRLS CLUB),"1180 W 9th St, San Bernardino, CA 92411, USA",34.11609,-117.31069,4038.0,CA,SAN BERNARDINO COUNTY,"C31S20A47E4B5RLUSB60989, C31S20A47E4B5SBUSB11003, C31S20A47E4B5SBUSB11004, C31S20A47E4B5SBUSB11005, C31S20A47E4B5SBUSB61017, C31S20A47E4B5SBUSB61619",False,False,1.0
4038,ENCANTO CENTER (FORMERLY BOYS AND GIRLS CLUB),"1180 W 9th St, San Bernardino, CA 92411, USA",34.11609,-117.31069,4039.0,CA,SAN BERNARDINO COUNTY,"C31S20A47E4B5RLUSB60989, C31S20A47E4B5SBUSB11003, C31S20A47E4B5SBUSB11004, C31S20A47E4B5SBUSB11005, C31S20A47E4B5SBUSB61017, C31S20A47E4B5SBUSB61619",True,False,1.0
4039,FRANK DOMINGUEZ ELEMENTARY,"135 S Allen St, San Bernardino, CA 92408, USA",34.1,-117.28127,4040.0,CA,SAN BERNARDINO COUNTY,"C31S20A47E4B5SBUSB11002, C31S20A47E4B5SBUSB31009",False,False,1.0
4040,FRANK DOMINGUEZ ELEMENTARY,"135 S Allen St, San Bernardino, CA 92408, USA",34.1,-117.28127,4041.0,CA,SAN BERNARDINO COUNTY,"C31S20A47E4B5SBUSB11002, C31S20A47E4B5SBUSB31009",True,False,1.0
4041,NEW BEGINNINGS UNITED METHODIST,"785 N Arrowhead Ave, San Bernardino, CA 92401, USA",34.11372,-117.28901,4042.0,CA,SAN BERNARDINO COUNTY,"C31S20A47E4B5SBUSB11006, C31S20A47E4B5SBUSB21007, C31S23A40E4B5SBUSB11216",False,False,1.0
4042,NEW BEGINNINGS UNITED METHODIST,"785 N Arrowhead Ave, San Bernardino, CA 92401, USA",34.11372,-117.28901,4043.0,CA,SAN BERNARDINO COUNTY,"C31S20A47E4B5SBUSB11006, C31S20A47E4B5SBUSB21007, C31S23A40E4B5SBUSB11216",True,False,1.0
4043,VERMONT ELEMENTARY,"3695 Vermont St, Muscoy, CA 92407, USA",34.16227,-117.35237,4044.0,CA,SAN BERNARDINO COUNTY,"C31S20A47E4B5SBUSB61019, C31S20A47E4B5SBUUNI1023",False,False,1.0
4044,VERMONT ELEMENTARY,"3695 Vermont St, Muscoy, CA 92407, USA",34.16227,-117.35237,4045.0,CA,SAN BERNARDINO COUNTY,"C31S20A47E4B5SBUSB61019, C31S20A47E4B5SBUUNI1023",True,False,1.0
4045,ALTA LOMA JR HIGH SCHOOL,"9000 Lemon Ave, Rancho Cucamonga, CA 91701, USA",34.14169,-117.60894,4046.0,CA,SAN BERNARDINO COUNTY,"C31S23A40E1B2CUHRC11028, C31S23A41E1B2CUHRC11262, C31S23A41E1B2CUHRC11263, C31S23A41E1B2CUHRC11265, C31S23A41E1B2CUHRC11972, C31S23A41E1B2CUHRC12178, C31S23A41E1B2CUHRC12179, C31S23A40E1B2CUHRC12268, C31S23A41E1B2CUHRC12269, C31S23A41E1B2CUHRC12270",False,False,1.0
4046,ALTA LOMA JR HIGH SCHOOL,"9000 Lemon Ave, Rancho Cucamonga, CA 91701, USA",34.14169,-117.60894,4047.0,CA,SAN BERNARDINO COUNTY,"C31S23A40E1B2CUHRC11028, C31S23A41E1B2CUHRC11262, C31S23A41E1B2CUHRC11263, C31S23A41E1B2CUHRC11265, C31S23A41E1B2CUHRC11972, C31S23A41E1B2CUHRC12178, C31S23A41E1B2CUHRC12179, C31S23A40E1B2CUHRC12268, C31S23A41E1B2CUHRC12269, C31S23A41E1B2CUHRC12270",True,False,1.0
4047,JASPER ELEMENTARY SCHOOL,"6881 Jasper St, Alta Loma, CA 91701, USA",34.12957,-117.61974,4048.0,CA,SAN BERNARDINO COUNTY,"C31S23A40E1B2CUHRC11029, C31S23A40E1B2CUHRC12266",False,False,1.0
4048,JASPER ELEMENTARY SCHOOL,"6881 Jasper St, Alta Loma, CA 91701, USA",34.12957,-117.61974,4049.0,CA,SAN BERNARDINO COUNTY,"C31S23A40E1B2CUHRC11029, C31S23A40E1B2CUHRC12266",True,False,1.0
4049,ALTA LOMA HIGH SCHOOL,"8880 Base Line Rd, Rancho Cucamonga, CA 91701, USA",34.1222,-117.6124,4050.0,CA,SAN BERNARDINO COUNTY,"C31S23A40E1B2CUHRC11030, C31S23A40E1B2CUHRC11059, C31S23A40E1B2CUHRC11060, C31S23A40E1B2UPURC11086, C31S23A40E1B2CUHRC11852, C31S23A40E1B2CUHRC12141, C31S23A40E1B2CUHRC12203",False,False,1.0
4050,ALTA LOMA HIGH SCHOOL,"8880 Base Line Rd, Rancho Cucamonga, CA 91701, USA",34.1222,-117.6124,4051.0,CA,SAN BERNARDINO COUNTY,"C31S23A40E1B2CUHRC11030, C31S23A40E1B2CUHRC11059, C31S23A40E1B2CUHRC11060, C31S23A40E1B2UPURC11086, C31S23A40E1B2CUHRC11852, C31S23A40E1B2CUHRC12141, C31S23A40E1B2CUHRC12203",True,False,1.0
4051,NORTHKIRK PRESBYTERIAN CHURCH,"9101 19th St, Rancho Cucamonga, CA 91701, USA",34.13219,-117.60663,4052.0,CA,SAN BERNARDINO COUNTY,"C31S23A40E1B2CUHRC11031, C31S23A40E1B2CUHRC11969, C31S23A40E1B2CUHRC12177",False,False,1.0
4052,NORTHKIRK PRESBYTERIAN CHURCH,"9101 19th St, Rancho Cucamonga, CA 91701, USA",34.13219,-117.60663,4053.0,CA,SAN BERNARDINO COUNTY,"C31S23A40E1B2CUHRC11031, C31S23A40E1B2CUHRC11969, C31S23A40E1B2CUHRC12177",True,False,1.0
4053,DEER CANYON SCHOOL,"10225 Hamilton St, Rancho Cucamonga, CA 91701, USA",34.1306,-117.58228,4054.0,CA,SAN BERNARDINO COUNTY,"C31S23A40E1B2CUHRC11032, C31S23A40E1B2CUHRC11033, C31S23A40E1B2CUHRC41037, C31S23A40E1B2CUHRC11038, C31S23A40E1B2CUHRC11039, C31S23A40E1B2CUHRC41737, C31S23A40E1B2CUHRC21825, C31S23A40E1B2CUHRC11970, C31S23A40E1B2CUHRC12275, C31S23A40E1B2CUHRC12276",False,False,1.0
4054,DEER CANYON SCHOOL,"10225 Hamilton St, Rancho Cucamonga, CA 91701, USA",34.1306,-117.58228,4055.0,CA,SAN BERNARDINO COUNTY,"C31S23A40E1B2CUHRC11032, C31S23A40E1B2CUHRC11033, C31S23A40E1B2CUHRC41037, C31S23A40E1B2CUHRC11038, C31S23A40E1B2CUHRC11039, C31S23A40E1B2CUHRC41737, C31S23A40E1B2CUHRC21825, C31S23A40E1B2CUHRC11970, C31S23A40E1B2CUHRC12275, C31S23A40E1B2CUHRC12276",True,False,1.0
4055,LION CENTER (WEST),"9161 Base Line Rd, Rancho Cucamonga, CA 91730, USA",34.12132,-117.6051,4056.0,CA,SAN BERNARDINO COUNTY,"C31S23A40E1B2CUHRC11061, C31S23A40E1B2CUHRC21062, C31S23A40E1B2CUHRC11063, C31S23A40E1B2CUHRC21072, C31S23A40E1B2CUHRC21573, C31S23A40E1B2CUHRC21853, C31S23A40E1B2CUHRC21967, C31S23A40E1B2CUHRC21968, C31S23A40E1B2CUHRC12140, C31S23A40E1B2CUHRC22142, C31S23A40E1B2CUHRC22147",True,False,1.0
4056,VINEYARD JR HIGH SCHOOL,"6440 Mayberry Ave, Rancho Cucamonga, CA 91737, USA",34.13685,-117.5815,4057.0,CA,SAN BERNARDINO COUNTY,"C31S23A40E1B2CUHRC11971, C31S23A40E1B2CUHRC12176, C31S23A40E1B2CUHRC42211, C31S23A40E1B2CUHRC42274",False,False,1.0
4057,VINEYARD JR HIGH SCHOOL,"6440 Mayberry Ave, Rancho Cucamonga, CA 91737, USA",34.13685,-117.5815,4058.0,CA,SAN BERNARDINO COUNTY,"C31S23A40E1B2CUHRC11971, C31S23A40E1B2CUHRC12176, C31S23A40E1B2CUHRC42211, C31S23A40E1B2CUHRC42274",True,False,1.0
4058,ALTA LOMA ELEMENTARY SCHOOL,"7085 Amethyst Ave, Rancho Cucamonga, CA 91701, USA",34.12561,-117.59787,4059.0,CA,SAN BERNARDINO COUNTY,"C31S23A40E1B2CUHRC21064, C31S23A40E1B2CUHRC21066, C31S23A40E1B2CUHRC21826, C31S23A40E1B2CUHRC22143, C31S23A40E1B2CUHRC12146, C31S23A40E1B2CUHRC22215, C31S23A40E1B2CUHRC22277",False,False,1.0
4059,ALTA LOMA ELEMENTARY SCHOOL,"7085 Amethyst Ave, Rancho Cucamonga, CA 91701, USA",34.12561,-117.59787,4060.0,CA,SAN BERNARDINO COUNTY,"C31S23A40E1B2CUHRC21064, C31S23A40E1B2CUHRC21066, C31S23A40E1B2CUHRC21826, C31S23A40E1B2CUHRC22143, C31S23A40E1B2CUHRC12146, C31S23A40E1B2CUHRC22215, C31S23A40E1B2CUHRC22277",True,False,1.0
4060,FAMILY RESOURCE CENTER,"9791 Arrow Route, Rancho Cucamonga, CA 91730, USA",34.09865,-117.59145,4061.0,CA,SAN BERNARDINO COUNTY,"C31S23A40E1B2CUHRC21065, C31S23A40E1B2CUHRC21073, C31S23A40E1B2CUHRC21076, C31S23A40E1B2CUHRC21077, C31S23A40E1B2CUHRC21574, C31S23A40E1B2CUHRC22150, C31S23A40E1B2CUHRC22151, C31S23A40E1B2CUHRC22217",False,False,1.0
4061,FAMILY RESOURCE CENTER,"9791 Arrow Route, Rancho Cucamonga, CA 91730, USA",34.09865,-117.59145,4062.0,CA,SAN BERNARDINO COUNTY,"C31S23A40E1B2CUHRC21065, C31S23A40E1B2CUHRC21073, C31S23A40E1B2CUHRC21076, C31S23A40E1B2CUHRC21077, C31S23A40E1B2CUHRC21574, C31S23A40E1B2CUHRC22150, C31S23A40E1B2CUHRC22151, C31S23A40E1B2CUHRC22217",True,False,1.0
4062,CUCAMONGA VALLEY WD (FRONTIER PROJECT BUILDING),"10435 Ashford St, Rancho Cucamonga, CA 91730, USA",34.1113,-117.57882,4063.0,CA,SAN BERNARDINO COUNTY,"C31S23A40E1B2CUHRC21067, C31S23A40E1B2CUHRC31068, C31S23A40E1B2CUHRC31070, C31S23A40E1B2CUHRC22144, C31S23A40E1B2CUHRC22145",False,False,1.0
4063,CUCAMONGA VALLEY WD (FRONTIER PROJECT BUILDING),"10435 Ashford St, Rancho Cucamonga, CA 91730, USA",34.1113,-117.57882,4064.0,CA,SAN BERNARDINO COUNTY,"C31S23A40E1B2CUHRC21067, C31S23A40E1B2CUHRC31068, C31S23A40E1B2CUHRC31070, C31S23A40E1B2CUHRC22144, C31S23A40E1B2CUHRC22145",True,False,1.0
4064,LION CENTER (WEST),"9161 Base Line Rd, Rancho Cucamonga, CA 91730, USA",34.12132,-117.6051,4065.0,CA,SAN BERNARDINO COUNTY,"C31S23A40E1B2CUHRC21072, C31S23A40E1B2CUHRC11061, C31S23A40E1B2CUHRC21062, C31S23A40E1B2CUHRC11063, C31S23A40E1B2CUHRC21573, C31S23A40E1B2CUHRC21853, C31S23A40E1B2CUHRC21968, C31S23A40E1B2CUHRC21967, C31S23A40E1B2CUHRC22147, C31S23A40E1B2CUHRC12140, C31S23A40E1B2CUHRC22142",False,False,1.0
4065,WEST END EDUCATIONAL SERVICE CENTER,"8265 Aspen Ave, Rancho Cucamonga, CA 91730, USA",34.10345,-117.57006,4066.0,CA,SAN BERNARDINO COUNTY,"C31S23A40E1B2CUHRC21074, C31S23A40E1B2CUHRC21075, C31S23A40E1B2CUHRC21078, C31S23A40E1B2CUHRC21568, C31S23A40E1B2CUHRC21569, C31S23A40E1B2CUHRC21973, C31S23A40E1B2CUHRC21974, C31S23A40E1B2CUHRC22148, C31S23A40E1B2CUHRC22149, C31S23A40E1B2CUHRC22152, C31S23A40E1B2CUHRC22214",False,False,1.0
4066,WEST END EDUCATIONAL SERVICE CENTER,"8265 Aspen Ave, Rancho Cucamonga, CA 91730, USA",34.10345,-117.57006,4067.0,CA,SAN BERNARDINO COUNTY,"C31S23A40E1B2CUHRC21074, C31S23A40E1B2CUHRC21075, C31S23A40E1B2CUHRC21078, C31S23A40E1B2CUHRC21568, C31S23A40E1B2CUHRC21569, C31S23A40E1B2CUHRC21973, C31S23A40E1B2CUHRC21974, C31S23A40E1B2CUHRC22148, C31S23A40E1B2CUHRC22149, C31S23A40E1B2CUHRC22152, C31S23A40E1B2CUHRC22214",True,False,1.0
4067,GOLDY S LEWIS COMMUNITY CENTER,"11200 Base Line Rd, Rancho Cucamonga, CA 91701, USA",34.12383,-117.56499,4068.0,CA,SAN BERNARDINO COUNTY,"C31S23A40E1B2CUHRC31040, C31S23A40E1B2CUHRC31041, C31S23A40E1B2CUHRC31042, C31S23A40E1B2CUHRC31069, C31S23A40E1B2CUHRC31071, C31S23A40E1B2CUHRC31736, C31S23A40E1B2CUHRC31738, C31S23A40E1B2CUHRC32166, C31S23A40E1B2CUHRC32167",False,False,1.0
4068,GOLDY S LEWIS COMMUNITY CENTER,"11200 Base Line Rd, Rancho Cucamonga, CA 91701, USA",34.12383,-117.56499,4069.0,CA,SAN BERNARDINO COUNTY,"C31S23A40E1B2CUHRC31040, C31S23A40E1B2CUHRC31041, C31S23A40E1B2CUHRC31042, C31S23A40E1B2CUHRC31069, C31S23A40E1B2CUHRC31071, C31S23A40E1B2CUHRC31736, C31S23A40E1B2CUHRC31738, C31S23A40E1B2CUHRC32166, C31S23A40E1B2CUHRC32167",True,False,1.0
4069,RANCHO CUCAMONGA HIGH SCHOOL,"11801 Lark Dr, Rancho Cucamonga, CA 91701, USA",34.13066,-117.54738,4070.0,CA,SAN BERNARDINO COUNTY,"C31S23A40E1B2CUHRC31043, C31S23A40E1B2CUHRC31046, C31S23A40E1B2CUHRC31047, C31S23A40E1B2CUHRC31048, C31S23A40E1B2CUHRC31049, C31S23A40E1B2CUHRC32168",False,False,1.0
4070,RANCHO CUCAMONGA HIGH SCHOOL,"11801 Lark Dr, Rancho Cucamonga, CA 91701, USA",34.13066,-117.54738,4071.0,CA,SAN BERNARDINO COUNTY,"C31S23A40E1B2CUHRC31043, C31S23A40E1B2CUHRC31046, C31S23A40E1B2CUHRC31047, C31S23A40E1B2CUHRC31048, C31S23A40E1B2CUHRC31049, C31S23A40E1B2CUHRC32168",True,False,1.0
4071,VICTORIA GARDENS CULTURAL CENTER,"12505 Cultural Center Dr, Rancho Cucamonga, CA 91739, USA",34.11307,-117.5328,4072.0,CA,SAN BERNARDINO COUNTY,"C31S23A40E1B2CUHRC31044, C31S23A40E1B2CUHRC41045, C31S23A40E1B2CUHRC41051, C31S23A40E1B2CUHRC41052, C31S23A40E1B2FNURC41084, C31S23A40E1B2CUHRC31739, C31S23A40E1B2CUHRC31740, C31S23A40E1B2CUHRC31741, C31S23A40E1B2CUHRC41854, C31S23A40E1B2CUHRC41977, C31S23A40E1B2CUHRC41978, C31S23A40E1B2CUHRC32153, C31S23A40E1B2CUHRC32154, C31S23A40E1B2CUHRC42155, C31S23A40E1B2CUHRC42160",False,False,1.0
4072,VICTORIA GARDENS CULTURAL CENTER,"12505 Cultural Center Dr, Rancho Cucamonga, CA 91739, USA",34.11307,-117.5328,4073.0,CA,SAN BERNARDINO COUNTY,"C31S23A40E1B2CUHRC31044, C31S23A40E1B2CUHRC41045, C31S23A40E1B2CUHRC41051, C31S23A40E1B2CUHRC41052, C31S23A40E1B2FNURC41084, C31S23A40E1B2CUHRC31739, C31S23A40E1B2CUHRC31740, C31S23A40E1B2CUHRC31741, C31S23A40E1B2CUHRC41854, C31S23A40E1B2CUHRC41977, C31S23A40E1B2CUHRC41978, C31S23A40E1B2CUHRC32153, C31S23A40E1B2CUHRC32154, C31S23A40E1B2CUHRC42155, C31S23A40E1B2CUHRC42160",True,False,1.0
4073,CHAFFEY COLLEGE (RANCHO CUCAMONGA),"5885 Haven Ave, Rancho Cucamonga, CA 91737, USA",34.14648,-117.57483,4074.0,CA,SAN BERNARDINO COUNTY,"C31S23A40E1B2CUHRC41034, C31S23A40E1B2CUHRC41036",False,False,1.0
4074,CHAFFEY COLLEGE (RANCHO CUCAMONGA),"5885 Haven Ave, Rancho Cucamonga, CA 91737, USA",34.14648,-117.57483,4075.0,CA,SAN BERNARDINO COUNTY,"C31S23A40E1B2CUHRC41034, C31S23A40E1B2CUHRC41036",True,False,1.0
4075,LOS OSOS HIGH SCHOOL,"6001 Milliken Ave, Rancho Cucamonga, CA 91737, USA",34.14528,-117.55549,4076.0,CA,SAN BERNARDINO COUNTY,"C31S23A40E1B2CUHRC41035, C31S23A40E1B2CUHRC41053, C31S23A40E1B2CUHRC41054, C31S23A40E1B2CUHRC41735, C31S23A40E1B2CUHRC41742, C31S23A40E1B2CUHRC42156, C31S23A40E1B2CUHRC42157",False,False,1.0
4076,LOS OSOS HIGH SCHOOL,"6001 Milliken Ave, Rancho Cucamonga, CA 91737, USA",34.14528,-117.55549,4077.0,CA,SAN BERNARDINO COUNTY,"C31S23A40E1B2CUHRC41035, C31S23A40E1B2CUHRC41053, C31S23A40E1B2CUHRC41054, C31S23A40E1B2CUHRC41735, C31S23A40E1B2CUHRC41742, C31S23A40E1B2CUHRC42156, C31S23A40E1B2CUHRC42157",True,False,1.0
4077,ETIWANDA HIGH SCHOOL,"13500 Victoria St, Rancho Cucamonga, CA 91739, USA",34.13055,-117.51069,4078.0,CA,SAN BERNARDINO COUNTY,"C31S23A40E1B2CUHRC41050, C31S23A40E1B2CUHRC41055, C31S23A40E1B2CUHRC41056, C31S23A40E1B2CUHRC41057, C31S23A40E1B2CUHRC41058, C31S23A40E1B2CUHRC42158, C31S23A40E1B2CUHRC42159",False,False,1.0
4078,ETIWANDA HIGH SCHOOL,"13500 Victoria St, Rancho Cucamonga, CA 91739, USA",34.13055,-117.51069,4079.0,CA,SAN BERNARDINO COUNTY,"C31S23A40E1B2CUHRC41050, C31S23A40E1B2CUHRC41055, C31S23A40E1B2CUHRC41056, C31S23A40E1B2CUHRC41057, C31S23A40E1B2CUHRC41058, C31S23A40E1B2CUHRC42158, C31S23A40E1B2CUHRC42159",True,False,1.0
4079,LITTLE LEAGUE HEADQUARTERS,"6707 Little League Dr, San Bernardino, CA 92407, USA",34.2105,-117.36519,4080.0,CA,SAN BERNARDINO COUNTY,"C31S23A40E1B2SBUSB51085, C31S23A40E1B5SBUSB51087, C31S23A40E1B5SBUSB51088, C31S23A40E1B5SBUSB51089",False,False,1.0
4080,LITTLE LEAGUE HEADQUARTERS,"6707 Little League Dr, San Bernardino, CA 92407, USA",34.2105,-117.36519,4081.0,CA,SAN BERNARDINO COUNTY,"C31S23A40E1B2SBUSB51085, C31S23A40E1B5SBUSB51087, C31S23A40E1B5SBUSB51088, C31S23A40E1B5SBUSB51089",True,False,1.0
4081,MISSION ELEMENTARY SCHOOL (REDLANDS),"10568 California St, Redlands, CA 92373, USA",34.06185,-117.2273,4082.0,CA,SAN BERNARDINO COUNTY,"C31S23A40E4B3CJULOM1091, C31S23A40E4B3RDULOM1095, C31S23A40E4B3RDULOM1096, C31S23A40E4B3RDULOM1097, C31S23A40E4B3RDULOM1098, C31S23A40E4B3RDULOM1099, C31S23A40E4B3RDULOM1151, C31S23A40E4B3RDULOM1998",False,False,1.0
4082,MISSION ELEMENTARY SCHOOL (REDLANDS),"10568 California St, Redlands, CA 92373, USA",34.06185,-117.2273,4083.0,CA,SAN BERNARDINO COUNTY,"C31S23A40E4B3CJULOM1091, C31S23A40E4B3RDULOM1095, C31S23A40E4B3RDULOM1096, C31S23A40E4B3RDULOM1097, C31S23A40E4B3RDULOM1098, C31S23A40E4B3RDULOM1099, C31S23A40E4B3RDULOM1151, C31S23A40E4B3RDULOM1998",True,False,1.0
4083,REDLANDS COMMUNITY CENTER,"111 W Lugonia Ave, Redlands, CA 92374, USA",34.06937,-117.18407,4084.0,CA,SAN BERNARDINO COUNTY,"C31S23A40E4B3RDURE11103, C31S23A40E4B3RDURE11104, C31S23A40E4B3RDURE21105, C31S23A40E4B3RDURE21106, C31S23A40E4B3RDURE21109, C31S23A40E4B3RDURE21110, C31S23A40E4B3RDURE21119, C31S23A40E4B3RDUUNI1150, C31S23A40E4B3RDUUNI1623, C31S23A40E4B3RDUUNI1624, C31S23A40E4B3RDUUNI2001, C31S23A40E4B3RDURE22005",False,False,1.0
4084,REDLANDS COMMUNITY CENTER,"111 W Lugonia Ave, Redlands, CA 92374, USA",34.06937,-117.18407,4085.0,CA,SAN BERNARDINO COUNTY,"C31S23A40E4B3RDURE11103, C31S23A40E4B3RDURE11104, C31S23A40E4B3RDURE21105, C31S23A40E4B3RDURE21106, C31S23A40E4B3RDURE21109, C31S23A40E4B3RDURE21110, C31S23A40E4B3RDURE21119, C31S23A40E4B3RDUUNI1150, C31S23A40E4B3RDUUNI1623, C31S23A40E4B3RDUUNI1624, C31S23A40E4B3RDUUNI2001, C31S23A40E4B3RDURE22005",True,False,1.0
4085,REDLANDS UNITED CHURCH OF CHRIST,"168 Bellevue Ave, Redlands, CA 92373, USA",34.04152,-117.20418,4086.0,CA,SAN BERNARDINO COUNTY,"C31S23A40E4B3RDURE11122, C31S23A40E4B3RDURE51123, C31S23A40E4B3RDURE51124, C31S23A40E4B3RDURE51128, C31S23A40E4B3RDUUNI1152",False,False,1.0
4086,REDLANDS UNITED CHURCH OF CHRIST,"168 Bellevue Ave, Redlands, CA 92373, USA",34.04152,-117.20418,4087.0,CA,SAN BERNARDINO COUNTY,"C31S23A40E4B3RDURE11122, C31S23A40E4B3RDURE51123, C31S23A40E4B3RDURE51124, C31S23A40E4B3RDURE51128, C31S23A40E4B3RDUUNI1152",True,False,1.0
4087,AMERICAN LEGION POST #650,"1532 Church St, Redlands, CA 92374, USA",34.07496,-117.17339,4088.0,CA,SAN BERNARDINO COUNTY,"C31S23A40E4B3RDURE31107, C31S23A40E4B3RDURE41108, C31S23A40E4B3RDURE41111, C31S23A40E4B3RDURE31112, C31S23A40E4B3RDURE31115, C31S23A40E4B3RDURE31132, C31S23A40E4B3RDURE21625, C31S23A40E4B3RDURE41814, C31S23A40E4B3RDURE22002, C31S23A40E4B3RDURE42003",False,False,1.0
4088,AMERICAN LEGION POST #650,"1532 Church St, Redlands, CA 92374, USA",34.07496,-117.17339,4089.0,CA,SAN BERNARDINO COUNTY,"C31S23A40E4B3RDURE31107, C31S23A40E4B3RDURE41108, C31S23A40E4B3RDURE41111, C31S23A40E4B3RDURE31112, C31S23A40E4B3RDURE31115, C31S23A40E4B3RDURE31132, C31S23A40E4B3RDURE21625, C31S23A40E4B3RDURE41814, C31S23A40E4B3RDURE22002, C31S23A40E4B3RDURE42003",True,False,1.0
4089,UNIVERSITY OF REDLANDS (ORTON CENTER),"Willis Center, 1200 E Colton Ave, Redlands, CA 92374, USA",34.06231,-117.16428,4090.0,CA,SAN BERNARDINO COUNTY,"C31S23A40E4B3RDURE41113, C31S23A40E4B3RDURE41114, C31S23A40E4B3RDURE31116, C31S23A40E4B3RDURE31117, C31S23A40E4B3RDURE41118, C31S23A40E4B3RDURE41665, C31S23A40E4B3RDURE31626, C31S23A40E4B3RDURE31667, C31S23A40E4B3RDURE31664, C31S23A40E4B3RDURE51808, C31S23A40E4B3RDURE41809, C31S23A40E4B3RDURE42004, C31S23A40E4B3RDURE42007, C31S23A40E4B3RDURE42008",False,False,1.0
4090,UNIVERSITY OF REDLANDS (ORTON CENTER),"Willis Center, 1200 E Colton Ave, Redlands, CA 92374, USA",34.06231,-117.16428,4091.0,CA,SAN BERNARDINO COUNTY,"C31S23A40E4B3RDURE41113, C31S23A40E4B3RDURE41114, C31S23A40E4B3RDURE31116, C31S23A40E4B3RDURE31117, C31S23A40E4B3RDURE41118, C31S23A40E4B3RDURE41665, C31S23A40E4B3RDURE31626, C31S23A40E4B3RDURE31667, C31S23A40E4B3RDURE31664, C31S23A40E4B3RDURE51808, C31S23A40E4B3RDURE41809, C31S23A40E4B3RDURE42004, C31S23A40E4B3RDURE42007, C31S23A40E4B3RDURE42008",True,False,1.0
4091,BING WONG ELEMENTARY SCHOOL,"1250 9th St, San Bernardino, CA 92410, USA",34.11676,-117.257,4092.0,CA,SAN BERNARDINO COUNTY,"C31S23A40E4B3SBUSB11160, C31S23A40E4B3SBUSB11161, C31S23A40E4B3SBUSB11162, C31S23A40E4B3SBUSB11163, C31S23A40E4B3SBUSB21164, C31S23A40E4B3SBUSB21165, C31S23A40E4B3SBUSB21166, C31S23A40E4B3SBUSB21167, C31S23A40E4B3SBUSB21168, C31S23A40E4B3SBUUNI1203, C31S23A40E4B5SBUSB11227, C31S23A40E4B5SBUSB11232, C31S23A40E4B5SBUSB11233, C31S23A40E4B5SBUUNI1259, C31S23A40E4B3SBUSB11635, C31S23A40E4B3SBUSB11636, C31S23A40E4B3SBUSB21657",False,False,1.0
4092,BING WONG ELEMENTARY SCHOOL,"1250 9th St, San Bernardino, CA 92410, USA",34.11676,-117.257,4093.0,CA,SAN BERNARDINO COUNTY,"C31S23A40E4B3SBUSB11160, C31S23A40E4B3SBUSB11161, C31S23A40E4B3SBUSB11162, C31S23A40E4B3SBUSB11163, C31S23A40E4B3SBUSB21164, C31S23A40E4B3SBUSB21165, C31S23A40E4B3SBUSB21166, C31S23A40E4B3SBUSB21167, C31S23A40E4B3SBUSB21168, C31S23A40E4B3SBUUNI1203, C31S23A40E4B5SBUSB11227, C31S23A40E4B5SBUSB11232, C31S23A40E4B5SBUSB11233, C31S23A40E4B5SBUUNI1259, C31S23A40E4B3SBUSB11635, C31S23A40E4B3SBUSB11636, C31S23A40E4B3SBUSB21657",True,False,1.0
4093,OUR LADY OF HOPE PARISH,"6885 Del Rosa Ave, San Bernardino, CA 92404, USA",34.12922,-117.24965,4094.0,CA,SAN BERNARDINO COUNTY,"C31S23A40E4B3SBUSB21169, C31S23A40E4B3SBUSB71192, C31S23A40E4B3SBUSB71190, C31S23A40E4B3SBUSB71191, C31S23A40E4B3SBUSB71196, C31S23A40E4B3SBUSB71195, C31S23A40E4B3SBUSB71198, C31S23A40E4B3SBUUNI1204, C31S23A40E4B5SBUSB71256, C31S23A40E4B3SBUUNI1638, C31S23A40E4B3SBUSB71670, C31S23A40E4B3SBUSB71671",False,False,1.0
4094,OUR LADY OF HOPE PARISH,"6885 Del Rosa Ave, San Bernardino, CA 92404, USA",34.12922,-117.24965,4095.0,CA,SAN BERNARDINO COUNTY,"C31S23A40E4B3SBUSB21169, C31S23A40E4B3SBUSB71192, C31S23A40E4B3SBUSB71190, C31S23A40E4B3SBUSB71191, C31S23A40E4B3SBUSB71196, C31S23A40E4B3SBUSB71195, C31S23A40E4B3SBUSB71198, C31S23A40E4B3SBUUNI1204, C31S23A40E4B5SBUSB71256, C31S23A40E4B3SBUUNI1638, C31S23A40E4B3SBUSB71670, C31S23A40E4B3SBUSB71671",True,False,1.0
4095,SERRANO MIDDLE SCHOOL,"3131 Piedmont Dr, Highland, CA 92346, USA",34.14482,-117.21837,4096.0,CA,SAN BERNARDINO COUNTY,"C31S23A40E4B3SBUSB41173, C31S23A40E4B3SBUSB41174, C31S23A40E4B3SBUSB41175, C31S23A40E4B3SBUSB41179, C31S23A40E4B3SBUSB41180, C31S23A40E4B3SBUSB41181, C31S23A40E4B3SBUSB41182, C31S23A40E4B3SBUSB41183",False,False,1.0
4096,SERRANO MIDDLE SCHOOL,"3131 Piedmont Dr, Highland, CA 92346, USA",34.14482,-117.21837,4097.0,CA,SAN BERNARDINO COUNTY,"C31S23A40E4B3SBUSB41173, C31S23A40E4B3SBUSB41174, C31S23A40E4B3SBUSB41175, C31S23A40E4B3SBUSB41179, C31S23A40E4B3SBUSB41180, C31S23A40E4B3SBUSB41181, C31S23A40E4B3SBUSB41182, C31S23A40E4B3SBUSB41183",True,False,1.0
4097,DEL ROSA ELEMENTARY SCHOOL,"3395 Mountain Ave N, San Bernardino, CA 92404, USA",34.15182,-117.25634,4098.0,CA,SAN BERNARDINO COUNTY,"C31S23A40E4B3SBUSB41176, C31S23A40E4B3SBUSB41170, C31S23A40E4B3SBUSB41171, C31S23A40E4B3SBUSB41177, C31S23A40E4B3SBUSB41172, C31S23A40E4B3SBUSB41178, C31S23A40E4B3SBUSB41184, C31S23A40E4B3SBUSB41185, C31S23A40E4B3SBUSB41186, C31S23A40E4B3SBUUNI1201, C31S23A40E4B3SBUUNI1678, C31S23A40E4B3SBUSB41674, C31S23A40E4B3SBUSB41675",False,False,1.0
4098,DEL ROSA ELEMENTARY SCHOOL,"3395 Mountain Ave N, San Bernardino, CA 92404, USA",34.15182,-117.25634,4099.0,CA,SAN BERNARDINO COUNTY,"C31S23A40E4B3SBUSB41176, C31S23A40E4B3SBUSB41170, C31S23A40E4B3SBUSB41171, C31S23A40E4B3SBUSB41177, C31S23A40E4B3SBUSB41172, C31S23A40E4B3SBUSB41178, C31S23A40E4B3SBUSB41184, C31S23A40E4B3SBUSB41185, C31S23A40E4B3SBUSB41186, C31S23A40E4B3SBUUNI1201, C31S23A40E4B3SBUUNI1678, C31S23A40E4B3SBUSB41674, C31S23A40E4B3SBUSB41675",True,False,1.0
4099,THE CHURCH IN SAN BERNARDINO,"1900 E Lynwood Dr, San Bernardino, CA 92404, USA",34.14714,-117.2457,4100.0,CA,SAN BERNARDINO COUNTY,"C31S23A40E4B3SBUSB41197, C31S23A40E4B3SBUUNI1202, C31S23A40E4B3SBUSB41672, C31S23A40E4B3SBUUNI1673, C31S23A40E4B3SBUSB41743",False,False,1.0
4100,THE CHURCH IN SAN BERNARDINO,"1900 E Lynwood Dr, San Bernardino, CA 92404, USA",34.14714,-117.2457,4101.0,CA,SAN BERNARDINO COUNTY,"C31S23A40E4B3SBUSB41197, C31S23A40E4B3SBUUNI1202, C31S23A40E4B3SBUSB41672, C31S23A40E4B3SBUUNI1673, C31S23A40E4B3SBUSB41743",True,False,1.0
4101,FIRST CONGREGATIONAL UNITED CHURCH,"3041 N Sierra Way, San Bernardino, CA 92405, USA",34.14719,-117.2845,4102.0,CA,SAN BERNARDINO COUNTY,"C31S23A40E4B3SBUSB71188, C31S23A40E4B3SBUSB71189, C31S23A40E4B3SBUSB71193, C31S23A40E4B3SBUSB71194, C31S23A40E4B3SBUUNI1200, C31S23A40E4B5SBUSB71254, C31S23A40E4B5SBUSB71255, C31S23A40E4B3SBUUNI1637",False,False,1.0
4102,FIRST CONGREGATIONAL UNITED CHURCH,"3041 N Sierra Way, San Bernardino, CA 92405, USA",34.14719,-117.2845,4103.0,CA,SAN BERNARDINO COUNTY,"C31S23A40E4B3SBUSB71188, C31S23A40E4B3SBUSB71189, C31S23A40E4B3SBUSB71193, C31S23A40E4B3SBUSB71194, C31S23A40E4B3SBUUNI1200, C31S23A40E4B5SBUSB71254, C31S23A40E4B5SBUSB71255, C31S23A40E4B3SBUUNI1637",True,False,1.0
4103,NEW HOPE FAMILY LIFE CENTER,"1505 W Highland Ave, San Bernardino, CA 92411, USA",34.13543,-117.31858,4104.0,CA,SAN BERNARDINO COUNTY,"C31S23A40E4B5SBUSB11215, C31S23A40E4B5SBUSB61250, C31S23A40E4B5SBUSB61253, C31S23A40E4B5SBUSB61663",False,False,1.0
4104,NEW HOPE FAMILY LIFE CENTER,"1505 W Highland Ave, San Bernardino, CA 92411, USA",34.13543,-117.31858,4105.0,CA,SAN BERNARDINO COUNTY,"C31S23A40E4B5SBUSB11215, C31S23A40E4B5SBUSB61250, C31S23A40E4B5SBUSB61253, C31S23A40E4B5SBUSB61663",True,False,1.0
4105,DAVIDSON ELEMENTARY SCHOOL,"2844 N Davidson Ave, San Bernardino, CA 92405, USA",34.1434,-117.31101,4106.0,CA,SAN BERNARDINO COUNTY,"C31S23A40E4B5SBUSB21234, C31S23A40E4B5SBUSB21251",False,False,1.0
4106,DAVIDSON ELEMENTARY SCHOOL,"2844 N Davidson Ave, San Bernardino, CA 92405, USA",34.1434,-117.31101,4107.0,CA,SAN BERNARDINO COUNTY,"C31S23A40E4B5SBUSB21234, C31S23A40E4B5SBUSB21251",True,False,1.0
4107,INLAND CAREER EDUCATION CENTER,"1200 N E St, San Bernardino, CA 92410, USA",34.12173,-117.2946,4108.0,CA,SAN BERNARDINO COUNTY,"C31S23A40E4B5SBUSB21235, C31S23A40E4B5SBUSB21238, C31S23A40E4B5SBUSB71257, C31S23A40E4B5SBUSB21662",False,False,1.0
4108,INLAND CAREER EDUCATION CENTER,"1200 N E St, San Bernardino, CA 92410, USA",34.12173,-117.2946,4109.0,CA,SAN BERNARDINO COUNTY,"C31S23A40E4B5SBUSB21235, C31S23A40E4B5SBUSB21238, C31S23A40E4B5SBUSB71257, C31S23A40E4B5SBUSB21662",True,False,1.0
4109,ST JOHNS EPISCOPAL CHURCH,"1407 N Arrowhead Ave, San Bernardino, CA 92405, USA",34.126,-117.28904,4110.0,CA,SAN BERNARDINO COUNTY,"C31S23A40E4B5SBUSB21236, C31S23A40E4B5SBUSB21237",False,False,1.0
4110,ST JOHNS EPISCOPAL CHURCH,"1407 N Arrowhead Ave, San Bernardino, CA 92405, USA",34.126,-117.28904,4111.0,CA,SAN BERNARDINO COUNTY,"C31S23A40E4B5SBUSB21236, C31S23A40E4B5SBUSB21237",True,False,1.0
4111,COMMUNITY BIBLE CHURCH,"324 W 40th St, San Bernardino, CA 92407, USA",34.16509,-117.29093,4112.0,CA,SAN BERNARDINO COUNTY,C31S23A40E4B5SBUSB41240,False,False,1.0
4112,COMMUNITY BIBLE CHURCH,"324 W 40th St, San Bernardino, CA 92407, USA",34.16509,-117.29093,4113.0,CA,SAN BERNARDINO COUNTY,C31S23A40E4B5SBUSB41240,True,False,1.0
4113,SAN BERNARDINO SCOTTISH RITE,"4400 N Varsity Ave, San Bernardino, CA 92407, USA",34.16642,-117.33353,4114.0,CA,SAN BERNARDINO COUNTY,"C31S23A40E4B5SBUSB51245, C31S23A40E4B5SBUSB51246, C31S23A40E4B5SBUSB51247, C31S23A40E4B5SBUSB51248",False,False,1.0
4114,SAN BERNARDINO SCOTTISH RITE,"4400 N Varsity Ave, San Bernardino, CA 92407, USA",34.16642,-117.33353,4115.0,CA,SAN BERNARDINO COUNTY,"C31S23A40E4B5SBUSB51245, C31S23A40E4B5SBUSB51246, C31S23A40E4B5SBUSB51247, C31S23A40E4B5SBUSB51248",True,False,1.0
4115,NEWMARK ELEMENTARY,"4121 N 3rd Ave, San Bernardino, CA 92407, USA",34.16881,-117.30458,4116.0,CA,SAN BERNARDINO COUNTY,C31S23A40E4B5SBUUNI1258,False,False,1.0
4116,NEWMARK ELEMENTARY,"4121 N 3rd Ave, San Bernardino, CA 92407, USA",34.16881,-117.30458,4117.0,CA,SAN BERNARDINO COUNTY,C31S23A40E4B5SBUUNI1258,True,False,1.0
4117,FLOYD M STORK SCHOOL,"5646 Jasper St, Rancho Cucamonga, CA 91701, USA",34.15232,-117.62194,4118.0,CA,SAN BERNARDINO COUNTY,"C31S23A41E1B2CUHRC11260, C31S23A41E1B2CUHRC11261, C31S23A41E1B2UPURC11272",False,False,1.0
4118,FLOYD M STORK SCHOOL,"5646 Jasper St, Rancho Cucamonga, CA 91701, USA",34.15232,-117.62194,4119.0,CA,SAN BERNARDINO COUNTY,"C31S23A41E1B2CUHRC11260, C31S23A41E1B2CUHRC11261, C31S23A41E1B2UPURC11272",True,False,1.0
4119,HERMOSA SCHOOL,"10133 Wilson Ave, Alta Loma, CA 91737, USA",34.14995,-117.58343,4120.0,CA,SAN BERNARDINO COUNTY,"C31S23A41E1B2CUHRC11264, C31S23A41E1B2CUHRC41266, C31S23A41E1B2CUHRC11267, C31S23A41E1B2CUHRC42213, C31S23A41E1B2CUHRC12216, C31S23A41E1B2CUHRC12271, C31S23A41E1B2CUHRC12272, C31S23A41E1B2CUHRC42273",False,False,1.0
4120,HERMOSA SCHOOL,"10133 Wilson Ave, Alta Loma, CA 91737, USA",34.14995,-117.58343,4121.0,CA,SAN BERNARDINO COUNTY,"C31S23A41E1B2CUHRC11264, C31S23A41E1B2CUHRC41266, C31S23A41E1B2CUHRC11267, C31S23A41E1B2CUHRC42213, C31S23A41E1B2CUHRC12216, C31S23A41E1B2CUHRC12271, C31S23A41E1B2CUHRC12272, C31S23A41E1B2CUHRC42273",True,False,1.0
4121,UPLAND HIGH SCHOOL,"565 W 11th St, Upland, CA 91786, USA",34.10488,-117.65889,4122.0,CA,SAN BERNARDINO COUNTY,"C31S25A41E1B4CUHUP41283, C31S25A41E1B4UPUUP41287, C31S25A41E1B4UPUUP41288, C31S25A41E1B4UPUUP21289, C31S25A41E1B4UPUUP31290, C31S25A41E1B4CUHUP41833, C31S25A41E1B4UPUUP31836",False,False,1.0
4122,UPLAND HIGH SCHOOL,"565 W 11th St, Upland, CA 91786, USA",34.10488,-117.65889,4123.0,CA,SAN BERNARDINO COUNTY,"C31S25A41E1B4CUHUP41283, C31S25A41E1B4UPUUP41287, C31S25A41E1B4UPUUP41288, C31S25A41E1B4UPUUP21289, C31S25A41E1B4UPUUP31290, C31S25A41E1B4CUHUP41833, C31S25A41E1B4UPUUP31836",True,False,1.0
4123,FIRE STATION #77 (BLOOMINGTON),"17459 Slover Ave, Bloomington, CA 92316, USA",34.06231,-117.36811,4124.0,CA,SAN BERNARDINO COUNTY,"C35S20A47E4B2CJUFO41295, C35S20A47E4B2FNUFO41324, C35S20A47E4B5CJUFO41334, C35S20A47E4B5CJUFO41335, C35S20A47E4B5CJUFO41336, C35S20A47E4B5CJUFO41337, C35S20A47E4B5FNUFO41371, C35S20A52E4B2FNUFO41533",False,False,1.0
4124,FIRE STATION #77 (BLOOMINGTON),"17459 Slover Ave, Bloomington, CA 92316, USA",34.06231,-117.36811,4125.0,CA,SAN BERNARDINO COUNTY,"C35S20A47E4B2CJUFO41295, C35S20A47E4B2FNUFO41324, C35S20A47E4B5CJUFO41334, C35S20A47E4B5CJUFO41335, C35S20A47E4B5CJUFO41336, C35S20A47E4B5CJUFO41337, C35S20A47E4B5FNUFO41371, C35S20A52E4B2FNUFO41533",True,False,1.0
4125,JURUPA VISTA SCHOOL,"15920 Village Dr E, Fontana, CA 92337, USA",34.04374,-117.45789,4126.0,CA,SAN BERNARDINO COUNTY,"C35S20A47E4B2CJUFO41296, C35S20A47E4B2CJUFO41297, C35S20A47E4B2CJUFO41298, C35S20A47E4B2FNUFO41328, C35S20A47E4B2CJUFO42204",False,False,1.0
4126,JURUPA VISTA SCHOOL,"15920 Village Dr E, Fontana, CA 92337, USA",34.04374,-117.45789,4127.0,CA,SAN BERNARDINO COUNTY,"C35S20A47E4B2CJUFO41296, C35S20A47E4B2CJUFO41297, C35S20A47E4B2CJUFO41298, C35S20A47E4B2FNUFO41328, C35S20A47E4B2CJUFO42204",True,False,1.0
4127,HERITAGE NEIGHBORHOOD CENTER,"7350 W Liberty Pkwy, Fontana, CA 92336, USA",34.12097,-117.50344,4128.0,CA,SAN BERNARDINO COUNTY,"C35S20A47E4B2CUHFO11299, C35S20A47E4B2CUHFO11300, C35S20A47E4B2CUHFO11303",False,False,1.0
4128,HERITAGE NEIGHBORHOOD CENTER,"7350 W Liberty Pkwy, Fontana, CA 92336, USA",34.12097,-117.50344,4129.0,CA,SAN BERNARDINO COUNTY,"C35S20A47E4B2CUHFO11299, C35S20A47E4B2CUHFO11300, C35S20A47E4B2CUHFO11303",True,False,1.0
4129,ALMOND ELEMENTARY SCHOOL,"8172 Almond Ave, Fontana, CA 92335, USA",34.10504,-117.49441,4130.0,CA,SAN BERNARDINO COUNTY,"C35S20A47E4B2CUHFO11301, C35S20A47E4B2CUHFO11302, C35S20A47E4B2FNUFO11317, C35S20A52E4B2FNUUNI1527",False,False,1.0
4130,ALMOND ELEMENTARY SCHOOL,"8172 Almond Ave, Fontana, CA 92335, USA",34.10504,-117.49441,4131.0,CA,SAN BERNARDINO COUNTY,"C35S20A47E4B2CUHFO11301, C35S20A47E4B2CUHFO11302, C35S20A47E4B2FNUFO11317, C35S20A52E4B2FNUUNI1527",True,False,1.0
4131,DOROTHY GRANT ELEMENTARY SCHOOL,"7069 Isabel Ln, Fontana, CA 92336, USA",34.12593,-117.46348,4132.0,CA,SAN BERNARDINO COUNTY,"C35S20A47E4B2CUHFO11304, C35S20A47E4B2CUHFO11305, C35S20A47E4B2CUHFO11306, C35S20A47E4B2FNUFO11308, C35S20A47E4B2FNUFO21830",False,False,1.0
4132,DOROTHY GRANT ELEMENTARY SCHOOL,"7069 Isabel Ln, Fontana, CA 92336, USA",34.12593,-117.46348,4133.0,CA,SAN BERNARDINO COUNTY,"C35S20A47E4B2CUHFO11304, C35S20A47E4B2CUHFO11305, C35S20A47E4B2CUHFO11306, C35S20A47E4B2FNUFO11308, C35S20A47E4B2FNUFO21830",True,False,1.0
4133,HEMLOCK ELEMENTARY,"15080 Miller Ave, Fontana, CA 92336, USA",34.11537,-117.47707,4134.0,CA,SAN BERNARDINO COUNTY,"C35S20A47E4B2FNUFO11315, C35S20A47E4B2FNUFO11316, C35S20A52E4B2FNUUNI1528, C35S20A47E4B2FNUFO11575",False,False,1.0
4134,HEMLOCK ELEMENTARY,"15080 Miller Ave, Fontana, CA 92336, USA",34.11537,-117.47707,4135.0,CA,SAN BERNARDINO COUNTY,"C35S20A47E4B2FNUFO11315, C35S20A47E4B2FNUFO11316, C35S20A52E4B2FNUUNI1528, C35S20A47E4B2FNUFO11575",True,False,1.0
4135,ST JOSEPH CATHOLIC CHURCH,"17020 Arrow Blvd, Fontana, CA 92335, USA",34.09988,-117.43266,4136.0,CA,SAN BERNARDINO COUNTY,"C35S20A47E4B2FNUFO21309, C35S20A47E4B2FNUFO21313, C35S20A47E4B2FNUFO21314, C35S20A47E4B5FNUFO31365",False,False,1.0
4136,ST JOSEPH CATHOLIC CHURCH,"17020 Arrow Blvd, Fontana, CA 92335, USA",34.09988,-117.43266,4137.0,CA,SAN BERNARDINO COUNTY,"C35S20A47E4B2FNUFO21309, C35S20A47E4B2FNUFO21313, C35S20A47E4B2FNUFO21314, C35S20A47E4B5FNUFO31365",True,False,1.0
4137,OLEANDER ELEMENTARY SCHOOL,"8650 Oleander Ave, Fontana, CA 92335, USA",34.09692,-117.45009,4138.0,CA,SAN BERNARDINO COUNTY,"C35S20A47E4B2FNUFO21311, C35S20A47E4B2FNUFO21312",False,False,1.0
4138,OLEANDER ELEMENTARY SCHOOL,"8650 Oleander Ave, Fontana, CA 92335, USA",34.09692,-117.45009,4139.0,CA,SAN BERNARDINO COUNTY,"C35S20A47E4B2FNUFO21311, C35S20A47E4B2FNUFO21312",True,False,1.0
4139,CHURCH OF THE CHIMES,"16116 San Bernardino Ave, Fontana, CA 92335, USA",34.07796,-117.45339,4140.0,CA,SAN BERNARDINO COUNTY,"C35S20A47E4B2FNUFO21318, C35S20A47E4B2FNUFO21320, C35S20A47E4B2FNUFO21321, C35S20A47E4B2FNUFO41322, C35S20A47E4B2FNUFO41323",False,False,1.0
4140,CHURCH OF THE CHIMES,"16116 San Bernardino Ave, Fontana, CA 92335, USA",34.07796,-117.45339,4141.0,CA,SAN BERNARDINO COUNTY,"C35S20A47E4B2FNUFO21318, C35S20A47E4B2FNUFO21320, C35S20A47E4B2FNUFO21321, C35S20A47E4B2FNUFO41322, C35S20A47E4B2FNUFO41323",True,False,1.0
4141,RANDALL PEPPER ELEMENTARY SCHOOL,"16613 Randall Ave, Fontana, CA 92335, USA",34.08405,-117.44197,4142.0,CA,SAN BERNARDINO COUNTY,"C35S20A47E4B2FNUFO21319, C35S20A47E4B5FNUFO31366, C35S20A47E4B5FNUFO31367, C35S20A47E4B5FNUFO31368",False,False,1.0
4142,RANDALL PEPPER ELEMENTARY SCHOOL,"16613 Randall Ave, Fontana, CA 92335, USA",34.08405,-117.44197,4143.0,CA,SAN BERNARDINO COUNTY,"C35S20A47E4B2FNUFO21319, C35S20A47E4B5FNUFO31366, C35S20A47E4B5FNUFO31367, C35S20A47E4B5FNUFO31368",True,False,1.0
4143,SHADOW HILLS ELEMENTARY SCHOOL,"14300 Shadow Dr, Fontana, CA 92337, USA",34.04449,-117.49337,4144.0,CA,SAN BERNARDINO COUNTY,"C35S20A47E4B2FNUFO41325, C35S20A47E4B2FNUFO41326, C35S20A47E4B2FNUFO41327",False,False,1.0
4144,SHADOW HILLS ELEMENTARY SCHOOL,"14300 Shadow Dr, Fontana, CA 92337, USA",34.04449,-117.49337,4145.0,CA,SAN BERNARDINO COUNTY,"C35S20A47E4B2FNUFO41325, C35S20A47E4B2FNUFO41326, C35S20A47E4B2FNUFO41327",True,False,1.0
4145,PALMETTO ELEMENTARY SCHOOL,"9325 Palmetto Ave, Fontana, CA 92335, USA",34.08454,-117.42668,4146.0,CA,SAN BERNARDINO COUNTY,"C35S20A47E4B5CJUFO31329, C35S20A47E4B5CJUFO31330, C35S20A47E4B5CJUFO41331, C35S20A47E4B5CJUFO31332, C35S20A47E4B5CJUFO41333, C35S20A47E4B5FNUFO31369, C35S20A47E4B5FNUFO31370, C35S20A47E4B5CJUFO31831",False,False,1.0
4146,PALMETTO ELEMENTARY SCHOOL,"9325 Palmetto Ave, Fontana, CA 92335, USA",34.08454,-117.42668,4147.0,CA,SAN BERNARDINO COUNTY,"C35S20A47E4B5CJUFO31329, C35S20A47E4B5CJUFO31330, C35S20A47E4B5CJUFO41331, C35S20A47E4B5CJUFO31332, C35S20A47E4B5CJUFO41333, C35S20A47E4B5FNUFO31369, C35S20A47E4B5FNUFO31370, C35S20A47E4B5CJUFO31831",True,False,1.0
4147,Maple Elementary School,"751 S Maple Ave, Fontana, CA 92335, USA",34.08757,-117.40422,4148.0,CA,SAN BERNARDINO COUNTY,"C35S20A47E4B5CJURIA1344, C35S20A47E4B5CJURIA1345, C35S20A47E4B5CJURIA1346, C35S20A47E4B5CJURIA1347, C35S20A47E4B5CJUUNI1348, C35S20A47E4B5CJUUNI1349, C35S20A47E4B5CJUUNI1350, C35S20A47E4B5CJUUNI1351, C35S20A47E4B5FNURIA1372, C35S20A47E4B5FNURIA1373, C35S20A47E4B5CJURIA1640, C35S20A47E4B5CJURIA1641, C35S20A47E4B5CJUUNI2229, C35S20A47E4B5CJUUNI2230",False,False,1.0
4148,Maple Elementary School,"751 S Maple Ave, Fontana, CA 92335, USA",34.08757,-117.40422,4149.0,CA,SAN BERNARDINO COUNTY,"C35S20A47E4B5CJURIA1344, C35S20A47E4B5CJURIA1345, C35S20A47E4B5CJURIA1346, C35S20A47E4B5CJURIA1347, C35S20A47E4B5CJUUNI1348, C35S20A47E4B5CJUUNI1349, C35S20A47E4B5CJUUNI1350, C35S20A47E4B5CJUUNI1351, C35S20A47E4B5FNURIA1372, C35S20A47E4B5FNURIA1373, C35S20A47E4B5CJURIA1640, C35S20A47E4B5CJURIA1641, C35S20A47E4B5CJUUNI2229, C35S20A47E4B5CJUUNI2230",True,False,1.0
4149,BLOOMINGTON UNITED CHURCH OF CHRIST,"18490 Santa Ana Ave, Bloomington, CA 92316, USA",34.05632,-117.40088,4150.0,CA,SAN BERNARDINO COUNTY,"C35S20A47E4B5CJUUNI1353, C35S20A47E4B5CJUUNI1355, C35S20A47E4B5CJUUNI2231",False,False,1.0
4150,BLOOMINGTON UNITED CHURCH OF CHRIST,"18490 Santa Ana Ave, Bloomington, CA 92316, USA",34.05632,-117.40088,4151.0,CA,SAN BERNARDINO COUNTY,"C35S20A47E4B5CJUUNI1353, C35S20A47E4B5CJUUNI1355, C35S20A47E4B5CJUUNI2231",True,False,1.0
4151,CRESTMORE ELEMENTARY SCHOOL,"18870 Jurupa Ave, Bloomington, CA 92316, USA",34.04953,-117.39315,4152.0,CA,SAN BERNARDINO COUNTY,"C35S20A47E4B5CJUUNI1354, C35S20A47E4B5CJUUNI1357",False,False,1.0
4152,CRESTMORE ELEMENTARY SCHOOL,"18870 Jurupa Ave, Bloomington, CA 92316, USA",34.04953,-117.39315,4153.0,CA,SAN BERNARDINO COUNTY,"C35S20A47E4B5CJUUNI1354, C35S20A47E4B5CJUUNI1357",True,False,1.0
4153,BIRCH HIGH SCHOOL,"7930 Locust Ave, Fontana, CA 92336, USA",34.10972,-117.41035,4154.0,CA,SAN BERNARDINO COUNTY,"C35S20A47E4B5FNUFO31360, C35S20A47E4B5FNUFO31361, C35S20A47E4B5FNUFO31362, C35S20A47E4B5RLUFO31376",False,False,1.0
4154,BIRCH HIGH SCHOOL,"7930 Locust Ave, Fontana, CA 92336, USA",34.10972,-117.41035,4155.0,CA,SAN BERNARDINO COUNTY,"C35S20A47E4B5FNUFO31360, C35S20A47E4B5FNUFO31361, C35S20A47E4B5FNUFO31362, C35S20A47E4B5RLUFO31376",True,False,1.0
4155,PORTER ELEMENTARY SCHOOL,"8330 Locust Ave, Fontana, CA 92335, USA",34.10257,-117.40974,4156.0,CA,SAN BERNARDINO COUNTY,"C35S20A47E4B5FNUFO31363, C35S20A47E4B5FNUFO31364",False,False,1.0
4156,PORTER ELEMENTARY SCHOOL,"8330 Locust Ave, Fontana, CA 92335, USA",34.10257,-117.40974,4157.0,CA,SAN BERNARDINO COUNTY,"C35S20A47E4B5FNUFO31363, C35S20A47E4B5FNUFO31364",True,False,1.0
4157,YANKS AIR MUSEUM,"15121 Stearman Dr, Chino, CA 91710, USA",33.97908,-117.64729,4158.0,CA,SAN BERNARDINO COUNTY,"C35S20A52E1B4CUHCN31388, C35S20A52E1B4CVUCN31479, C35S20A52E1B4CVUCN41480, C35S20A52E1B4CVUCN42327",False,False,1.0
4158,YANKS AIR MUSEUM,"15121 Stearman Dr, Chino, CA 91710, USA",33.97908,-117.64729,4159.0,CA,SAN BERNARDINO COUNTY,"C35S20A52E1B4CUHCN31388, C35S20A52E1B4CVUCN31479, C35S20A52E1B4CVUCN41480, C35S20A52E1B4CVUCN42327",True,False,1.0
4159,MORENO ELEMENTARY SCHOOL,"4825 Moreno St, Montclair, CA 91763, USA",34.0881,-117.7013,4160.0,CA,SAN BERNARDINO COUNTY,"C35S20A52E1B4CUHMON1389, C35S20A52E1B4UPUMON1521, C35S20A52E1B4CUHMON1840",False,False,1.0
4160,MORENO ELEMENTARY SCHOOL,"4825 Moreno St, Montclair, CA 91763, USA",34.0881,-117.7013,4161.0,CA,SAN BERNARDINO COUNTY,"C35S20A52E1B4CUHMON1389, C35S20A52E1B4UPUMON1521, C35S20A52E1B4CUHMON1840",True,False,1.0
4161,MONTERA SCHOOL,"4825 Bandera St, Montclair, CA 91763, USA",34.06381,-117.69958,4162.0,CA,SAN BERNARDINO COUNTY,"C35S20A52E1B4CUHMON1390, C35S20A52E1B4CUHMON1394, C35S20A52E1B4CUHMON1396",False,False,1.0
4162,MONTERA SCHOOL,"4825 Bandera St, Montclair, CA 91763, USA",34.06381,-117.69958,4163.0,CA,SAN BERNARDINO COUNTY,"C35S20A52E1B4CUHMON1390, C35S20A52E1B4CUHMON1394, C35S20A52E1B4CUHMON1396",True,False,1.0
4163,OUR LADY OF LOURDES CATHOLIC CHURCH,"10191 Central Ave, Montclair, CA 91763, USA",34.06969,-117.68881,4164.0,CA,SAN BERNARDINO COUNTY,"C35S20A52E1B4CUHMON1391, C35S20A52E1B4CUHMON1392, C35S20A52E1B4CUHMON1393, C35S20A52E1B4CUHMON1395",False,False,1.0
4164,OUR LADY OF LOURDES CATHOLIC CHURCH,"10191 Central Ave, Montclair, CA 91763, USA",34.06969,-117.68881,4165.0,CA,SAN BERNARDINO COUNTY,"C35S20A52E1B4CUHMON1391, C35S20A52E1B4CUHMON1392, C35S20A52E1B4CUHMON1393, C35S20A52E1B4CUHMON1395",True,False,1.0
4165,HOWARD SCHOOL,"4650 Howard St, Montclair, CA 91763, USA",34.05258,-117.70372,4166.0,CA,SAN BERNARDINO COUNTY,"C35S20A52E1B4CUHMON1397, C35S20A52E1B4CUHUNI1457, C35S20A52E1B4CUHUNI1458, C35S20A52E1B4CUHMON1839",False,False,1.0
4166,HOWARD SCHOOL,"4650 Howard St, Montclair, CA 91763, USA",34.05258,-117.70372,4167.0,CA,SAN BERNARDINO COUNTY,"C35S20A52E1B4CUHMON1397, C35S20A52E1B4CUHUNI1457, C35S20A52E1B4CUHUNI1458, C35S20A52E1B4CUHMON1839",True,False,1.0
4167,REDEEMER LUTHERAN CHURCH,"920 W 6th St, Ontario, CA 91762, USA",34.08562,-117.66626,4168.0,CA,SAN BERNARDINO COUNTY,"C35S20A52E1B4CUHONT1398, C35S20A52E1B4CUHONT1399, C35S20A52E1B4CUHONT1401, C35S20A52E1B4CUHONT1404",False,False,1.0
4168,REDEEMER LUTHERAN CHURCH,"920 W 6th St, Ontario, CA 91762, USA",34.08562,-117.66626,4169.0,CA,SAN BERNARDINO COUNTY,"C35S20A52E1B4CUHONT1398, C35S20A52E1B4CUHONT1399, C35S20A52E1B4CUHONT1401, C35S20A52E1B4CUHONT1404",True,False,1.0
4169,FIRST CHRISTIAN CHURCH (ONTARIO),"110 N Vine Ave, Ontario, CA 91762, USA",34.06388,-117.65563,4170.0,CA,SAN BERNARDINO COUNTY,"C35S20A52E1B4CUHONT1402, C35S20A52E1B4CUHONT1403, C35S20A52E1B4CUHONT1571, C35S20A52E1B4CUHONT1959",False,False,1.0
4170,FIRST CHRISTIAN CHURCH (ONTARIO),"110 N Vine Ave, Ontario, CA 91762, USA",34.06388,-117.65563,4171.0,CA,SAN BERNARDINO COUNTY,"C35S20A52E1B4CUHONT1402, C35S20A52E1B4CUHONT1403, C35S20A52E1B4CUHONT1571, C35S20A52E1B4CUHONT1959",True,False,1.0
4171,FIRST UNITED METHODIST CHURCH,"918 N Euclid Ave, Ontario, CA 91762, USA",34.07489,-117.6506,4172.0,CA,SAN BERNARDINO COUNTY,"C35S20A52E1B4CUHONT1405, C35S20A52E1B4CUHONT1406, C35S20A52E1B4CUHONT1410, C35S20A52E1B4CUHONT1572, C35S20A52E1B4CUHONT1842, C35S20A52E1B4CUHONT1960, C35S20A52E1B4CUHONT1961, C35S20A52E1B4CUHONT1963, C35S20A52E1B4CUHONT2180",False,False,1.0
4172,FIRST UNITED METHODIST CHURCH,"918 N Euclid Ave, Ontario, CA 91762, USA",34.07489,-117.6506,4173.0,CA,SAN BERNARDINO COUNTY,"C35S20A52E1B4CUHONT1405, C35S20A52E1B4CUHONT1406, C35S20A52E1B4CUHONT1410, C35S20A52E1B4CUHONT1572, C35S20A52E1B4CUHONT1842, C35S20A52E1B4CUHONT1960, C35S20A52E1B4CUHONT1961, C35S20A52E1B4CUHONT1963, C35S20A52E1B4CUHONT2180",True,False,1.0
4173,BERLYN ELEMENTARY,"1320 N Berlyn Ave, Ontario, CA 91764, USA",34.08262,-117.63831,4174.0,CA,SAN BERNARDINO COUNTY,"C35S20A52E1B4CUHONT1407, C35S20A52E1B4CUHONT1411, C35S20A52E1B4CUHONT1412, C35S20A52E1B4CUHONT1415, C35S20A52E1B4CUHONT1417, C35S20A52E1B4CUHONT1570, C35S20A52E1B4CUHONT1964",False,False,1.0
4174,BERLYN ELEMENTARY,"1320 N Berlyn Ave, Ontario, CA 91764, USA",34.08262,-117.63831,4175.0,CA,SAN BERNARDINO COUNTY,"C35S20A52E1B4CUHONT1407, C35S20A52E1B4CUHONT1411, C35S20A52E1B4CUHONT1412, C35S20A52E1B4CUHONT1415, C35S20A52E1B4CUHONT1417, C35S20A52E1B4CUHONT1570, C35S20A52E1B4CUHONT1964",True,False,1.0
4175,VINEYARD SCHOOL,"1500 E 6th St, Ontario, CA 91764, USA",34.08416,-117.62336,4176.0,CA,SAN BERNARDINO COUNTY,"C35S20A52E1B4CUHONT1408, C35S20A52E1B4CUHONT1413, C35S20A52E1B4CUHONT1414, C35S20A52E1B4CUHONT1416, C35S20A52E1B4CUHONT1450, C35S20A52E1B4CUHONT1453, C35S20A52E1B4CUHONT1843",False,False,1.0
4176,VINEYARD SCHOOL,"1500 E 6th St, Ontario, CA 91764, USA",34.08416,-117.62336,4177.0,CA,SAN BERNARDINO COUNTY,"C35S20A52E1B4CUHONT1408, C35S20A52E1B4CUHONT1413, C35S20A52E1B4CUHONT1414, C35S20A52E1B4CUHONT1416, C35S20A52E1B4CUHONT1450, C35S20A52E1B4CUHONT1453, C35S20A52E1B4CUHONT1843",True,False,1.0
4177,CHAFFEY ADULT SCHOOL,"1802 E 7th St, Ontario, CA 91764, USA",34.08797,-117.61317,4178.0,CA,SAN BERNARDINO COUNTY,"C35S20A52E1B4CUHONT1418, C35S20A52E1B4CUHONT1419, C35S20A52E1B4CUHONT1420, C35S20A52E1B4CUHONT1425, C35S20A52E1B4CUHONT1452, C35S20A52E1B4CUHONT1965",False,False,1.0
4178,CHAFFEY ADULT SCHOOL,"1802 E 7th St, Ontario, CA 91764, USA",34.08797,-117.61317,4179.0,CA,SAN BERNARDINO COUNTY,"C35S20A52E1B4CUHONT1418, C35S20A52E1B4CUHONT1419, C35S20A52E1B4CUHONT1420, C35S20A52E1B4CUHONT1425, C35S20A52E1B4CUHONT1452, C35S20A52E1B4CUHONT1965",True,False,1.0
4179,MISSION ELEMENTARY SCHOOL,"5555 Howard St, Ontario, CA 91762, USA",34.05146,-117.68336,4180.0,CA,SAN BERNARDINO COUNTY,"C35S20A52E1B4CUHONT1421, C35S20A52E1B4CUHONT1422, C35S20A52E1B4CUHONT1423, C35S20A52E1B4CUHONT1429, C35S20A52E1B4CUHUNI1459, C35S20A52E1B4CUHONT1841, C35S20A52E1B4CUHONT1955",False,False,1.0
4180,MISSION ELEMENTARY SCHOOL,"5555 Howard St, Ontario, CA 91762, USA",34.05146,-117.68336,4181.0,CA,SAN BERNARDINO COUNTY,"C35S20A52E1B4CUHONT1421, C35S20A52E1B4CUHONT1422, C35S20A52E1B4CUHONT1423, C35S20A52E1B4CUHONT1429, C35S20A52E1B4CUHUNI1459, C35S20A52E1B4CUHONT1841, C35S20A52E1B4CUHONT1955",True,False,1.0
4181,VISTA GRANDE ELEMENTARY,"1390 W Francis St, Ontario, CA 91762, USA",34.04239,-117.67589,4182.0,CA,SAN BERNARDINO COUNTY,"C35S20A52E1B4CUHONT1424, C35S20A52E1B4CUHONT1426, C35S20A52E1B4CVUONT1502, C35S20A52E1B4CVUONT1503, C35S20A52E1B4CUHONT1576, C35S20A52E1B4CUHONT1577, C35S20A52E1B4CUHONT1954",False,False,1.0
4182,VISTA GRANDE ELEMENTARY,"1390 W Francis St, Ontario, CA 91762, USA",34.04239,-117.67589,4183.0,CA,SAN BERNARDINO COUNTY,"C35S20A52E1B4CUHONT1424, C35S20A52E1B4CUHONT1426, C35S20A52E1B4CVUONT1502, C35S20A52E1B4CVUONT1503, C35S20A52E1B4CUHONT1576, C35S20A52E1B4CUHONT1577, C35S20A52E1B4CUHONT1954",True,False,1.0
4183,DE ANZA COMMUNITY AND TEEN CENTER,"1405 S Fern Ave, Ontario, CA 91762, USA",34.04819,-117.65435,4184.0,CA,SAN BERNARDINO COUNTY,"C35S20A52E1B4CUHONT1427, C35S20A52E1B4CUHONT1428, C35S20A52E1B4CUHONT1430, C35S20A52E1B4CUHONT1431, C35S20A52E1B4CUHONT1432, C35S20A52E1B4CUHONT1956, C35S20A52E1B4CUHONT1957, C35S20A52E1B4CUHONT1958",False,False,1.0
4184,DE ANZA COMMUNITY AND TEEN CENTER,"1405 S Fern Ave, Ontario, CA 91762, USA",34.04819,-117.65435,4185.0,CA,SAN BERNARDINO COUNTY,"C35S20A52E1B4CUHONT1427, C35S20A52E1B4CUHONT1428, C35S20A52E1B4CUHONT1430, C35S20A52E1B4CUHONT1431, C35S20A52E1B4CUHONT1432, C35S20A52E1B4CUHONT1956, C35S20A52E1B4CUHONT1957, C35S20A52E1B4CUHONT1958",True,False,1.0
4185,CALVARY CHAPEL (ONTARIO),"1957 S Vineyard Ave, Ontario, CA 91761, USA",34.03811,-117.61035,4186.0,CA,SAN BERNARDINO COUNTY,"C35S20A52E1B4CUHONT1433, C35S20A52E1B4CUHONT1434, C35S20A52E1B4CUHONT1446, C35S20A52E1B4CUHONT1451",False,False,1.0
4186,CALVARY CHAPEL (ONTARIO),"1957 S Vineyard Ave, Ontario, CA 91761, USA",34.03811,-117.61035,4187.0,CA,SAN BERNARDINO COUNTY,"C35S20A52E1B4CUHONT1433, C35S20A52E1B4CUHONT1434, C35S20A52E1B4CUHONT1446, C35S20A52E1B4CUHONT1451",True,False,1.0
4187,WOODCREST JUNIOR HIGH SCHOOL,"2725 S Campus Ave, Ontario, CA 91761, USA",34.02436,-117.64083,4188.0,CA,SAN BERNARDINO COUNTY,"C35S20A52E1B4CUHONT1435, C35S20A52E1B4CUHONT1437, C35S20A52E1B4CVUONT1504, C35S20A52E1B4CVUONT1505, C35S20A52E1B4CVUONT1506, C35S20A52E1B4CVUONT1509, C35S20A52E1B4CUHONT1849, C35S20A52E1B4CVUONT1850, C35S20A52E1B4CVUONT1851",False,False,1.0
4188,WOODCREST JUNIOR HIGH SCHOOL,"2725 S Campus Ave, Ontario, CA 91761, USA",34.02436,-117.64083,4189.0,CA,SAN BERNARDINO COUNTY,"C35S20A52E1B4CUHONT1435, C35S20A52E1B4CUHONT1437, C35S20A52E1B4CVUONT1504, C35S20A52E1B4CVUONT1505, C35S20A52E1B4CVUONT1506, C35S20A52E1B4CVUONT1509, C35S20A52E1B4CUHONT1849, C35S20A52E1B4CVUONT1850, C35S20A52E1B4CVUONT1851",True,False,1.0
4189,COUNTRY MEADOWS MHP,"1855 E Riverside Dr, Ontario, CA 91761, USA",34.02392,-117.6116,4190.0,CA,SAN BERNARDINO COUNTY,"C35S20A52E1B4CUHONT1436, C35S20A52E1B4CVUONT1507, C35S20A52E1B4CVUONT1508",False,False,1.0
4190,COUNTRY MEADOWS MHP,"1855 E Riverside Dr, Ontario, CA 91761, USA",34.02392,-117.6116,4191.0,CA,SAN BERNARDINO COUNTY,"C35S20A52E1B4CUHONT1436, C35S20A52E1B4CVUONT1507, C35S20A52E1B4CVUONT1508",True,False,1.0
4191,COLONY HIGH SCHOOL,"3850 E Riverside Dr, Ontario, CA 91761, USA",34.01835,-117.56867,4192.0,CA,SAN BERNARDINO COUNTY,"C35S20A52E1B4CUHONT1438, C35S20A52E1B4CUHONT1439, C35S20A52E1B4CUHONT1732",False,False,1.0
4192,COLONY HIGH SCHOOL,"3850 E Riverside Dr, Ontario, CA 91761, USA",34.01835,-117.56867,4193.0,CA,SAN BERNARDINO COUNTY,"C35S20A52E1B4CUHONT1438, C35S20A52E1B4CUHONT1439, C35S20A52E1B4CUHONT1732",True,False,1.0
4193,GRACE YOKLEY MIDDLE SCHOOL,"2947 S Turner Ave, Ontario, CA 91761, USA",34.02142,-117.58327,4194.0,CA,SAN BERNARDINO COUNTY,"C35S20A52E1B4CUHONT1440, C35S20A52E1B4CUHONT1443, C35S20A52E1B4CUHONT1444",False,False,1.0
4194,GRACE YOKLEY MIDDLE SCHOOL,"2947 S Turner Ave, Ontario, CA 91761, USA",34.02142,-117.58327,4195.0,CA,SAN BERNARDINO COUNTY,"C35S20A52E1B4CUHONT1440, C35S20A52E1B4CUHONT1443, C35S20A52E1B4CUHONT1444",True,False,1.0
4195,MOUNTAIN VIEW ELEMENTARY,"2825 E Walnut St, Ontario, CA 91761, USA",34.0269,-117.59115,4196.0,CA,SAN BERNARDINO COUNTY,"C35S20A52E1B4CUHONT1441, C35S20A52E1B4CUHONT1442, C35S20A52E1B4CUHONT1730, C35S20A52E1B4CUHONT1731",False,False,1.0
4196,MOUNTAIN VIEW ELEMENTARY,"2825 E Walnut St, Ontario, CA 91761, USA",34.0269,-117.59115,4197.0,CA,SAN BERNARDINO COUNTY,"C35S20A52E1B4CUHONT1441, C35S20A52E1B4CUHONT1442, C35S20A52E1B4CUHONT1730, C35S20A52E1B4CUHONT1731",True,False,1.0
4197,VALLEY CHRISTIAN CHURCH,"12410 Norton Ave, Chino, CA 91710, USA",34.02878,-117.7125,4198.0,CA,SAN BERNARDINO COUNTY,"C35S20A52E1B4CVUCN11466, C35S20A52E1B4CVUCN11471, C35S20A52E1B4CVUCN41472, C35S20A52E1B4CVUCN11490, C35S20A52E1B4CVUCN31491, C35S20A52E1B4CVUUNI1515, C35S20A52E1B4CVUUNI1519",False,False,1.0
4198,VALLEY CHRISTIAN CHURCH,"12410 Norton Ave, Chino, CA 91710, USA",34.02878,-117.7125,4199.0,CA,SAN BERNARDINO COUNTY,"C35S20A52E1B4CVUCN11466, C35S20A52E1B4CVUCN11471, C35S20A52E1B4CVUCN41472, C35S20A52E1B4CVUCN11490, C35S20A52E1B4CVUCN31491, C35S20A52E1B4CVUUNI1515, C35S20A52E1B4CVUUNI1519",True,False,1.0
4199,BAITUL HAMEED MOSQUE,"11941 Ramona Ave, Chino, CA 91710, USA",34.03676,-117.70595,4200.0,CA,SAN BERNARDINO COUNTY,"C35S20A52E1B4CVUCN11485, C35S20A52E1B4CVUCN11467, C35S20A52E1B4CVUCN11468, C35S20A52E1B4CVUCN11469, C35S20A52E1B4CVUCN11470, C35S20A52E1B4CVUCN11486, C35S20A52E1B4CVUCN11484, C35S20A52E1B4CVUUNI1510, C35S20A52E1B4CVUUNI1511, C35S20A52E1B4CVUUNI1512, C35S20A52E1B4CVUUNI1513, C35S20A52E1B4CVUUNI1514, C35S20A52E1B4CVUUNI1516, C35S20A52E1B4CVUUNI1714",False,False,1.0
4200,BAITUL HAMEED MOSQUE,"11941 Ramona Ave, Chino, CA 91710, USA",34.03676,-117.70595,4201.0,CA,SAN BERNARDINO COUNTY,"C35S20A52E1B4CVUCN11485, C35S20A52E1B4CVUCN11467, C35S20A52E1B4CVUCN11468, C35S20A52E1B4CVUCN11469, C35S20A52E1B4CVUCN11470, C35S20A52E1B4CVUCN11486, C35S20A52E1B4CVUCN11484, C35S20A52E1B4CVUUNI1510, C35S20A52E1B4CVUUNI1511, C35S20A52E1B4CVUUNI1512, C35S20A52E1B4CVUUNI1513, C35S20A52E1B4CVUUNI1514, C35S20A52E1B4CVUUNI1516, C35S20A52E1B4CVUUNI1714",True,False,1.0
4201,LIVING WORD ASSEMBLY,"11887 Telephone Ave, Chino, CA 91710, USA",34.03743,-117.6933,4202.0,CA,SAN BERNARDINO COUNTY,"C35S20A52E1B4CVUCN11487, C35S20A52E1B4CVUCN21488, C35S20A52E1B4CVUCN21489",False,False,1.0
4202,LIVING WORD ASSEMBLY,"11887 Telephone Ave, Chino, CA 91710, USA",34.03743,-117.6933,4203.0,CA,SAN BERNARDINO COUNTY,"C35S20A52E1B4CVUCN11487, C35S20A52E1B4CVUCN21488, C35S20A52E1B4CVUCN21489",True,False,1.0
4203,ALICIA CORTEZ ELEMENTARY,"12750 Carissa Ave, Chino, CA 91710, USA",34.02192,-117.67021,4204.0,CA,SAN BERNARDINO COUNTY,"C35S20A52E1B4CVUCN21492, C35S20A52E1B4CVUCN21495, C35S20A52E1B4CVUCN21496, C35S20A52E1B4CVUCN21497, C35S20A52E1B4CVUCN21498",False,False,1.0
4204,ALICIA CORTEZ ELEMENTARY,"12750 Carissa Ave, Chino, CA 91710, USA",34.02192,-117.67021,4205.0,CA,SAN BERNARDINO COUNTY,"C35S20A52E1B4CVUCN21492, C35S20A52E1B4CVUCN21495, C35S20A52E1B4CVUCN21496, C35S20A52E1B4CVUCN21497, C35S20A52E1B4CVUCN21498",True,False,1.0
4205,EDWIN RHODES ELEMENTARY SCHOOL,"6655 Schaefer Ave, Chino, CA 91710, USA",34.00456,-117.66019,4206.0,CA,SAN BERNARDINO COUNTY,"C35S20A52E1B4CVUCN21499, C35S20A52E1B4CVUCN31501",False,False,1.0
4206,EDWIN RHODES ELEMENTARY SCHOOL,"6655 Schaefer Ave, Chino, CA 91710, USA",34.00456,-117.66019,4207.0,CA,SAN BERNARDINO COUNTY,"C35S20A52E1B4CVUCN21499, C35S20A52E1B4CVUCN31501",True,False,1.0
4207,CITY OF CHINO COMMUNITY CENTER,"5443 B St, Chino, CA 91710, USA",34.01697,-117.68625,4208.0,CA,SAN BERNARDINO COUNTY,"C35S20A52E1B4CVUCN31478, C35S20A52E1B4CVUCN31493, C35S20A52E1B4CVUCN31494, C35S20A52E1B4CVUCN21500, C35S20A52E1B4CVUCN11774, C35S20A52E1B4CVUCN11789",False,False,1.0
4208,CITY OF CHINO COMMUNITY CENTER,"5443 B St, Chino, CA 91710, USA",34.01697,-117.68625,4209.0,CA,SAN BERNARDINO COUNTY,"C35S20A52E1B4CVUCN31478, C35S20A52E1B4CVUCN31493, C35S20A52E1B4CVUCN31494, C35S20A52E1B4CVUCN21500, C35S20A52E1B4CVUCN11774, C35S20A52E1B4CVUCN11789",True,False,1.0
4209,DON LUGO HIGH SCHOOL,"13400 Pipeline Ave, Chino, CA 91710, USA",34.00963,-117.71715,4210.0,CA,SAN BERNARDINO COUNTY,"C35S20A52E1B4CVUCN41476, C35S20A52E1B4CVUCN11465, C35S20A52E1B4CVUCN41477, C35S20A52E1B4CVUCN41473, C35S20A52E1B4CVUCN41474, C35S20A52E1B4CVUCN41475, C35S20A52E1B4CVUUNI1517, C35S20A52E1B4CVUUNI1518, C35S20A52E1B4CVUCN41520, C39S20A52E1B4CVUCN41534, C39S29A55E3B4CVUCN41561, C35S20A52E1B4CVUCN41773, C35S20A52E1B4CVUCN41795",False,False,1.0
4210,DON LUGO HIGH SCHOOL,"13400 Pipeline Ave, Chino, CA 91710, USA",34.00963,-117.71715,4211.0,CA,SAN BERNARDINO COUNTY,"C35S20A52E1B4CVUCN41476, C35S20A52E1B4CVUCN11465, C35S20A52E1B4CVUCN41477, C35S20A52E1B4CVUCN41473, C35S20A52E1B4CVUCN41474, C35S20A52E1B4CVUCN41475, C35S20A52E1B4CVUUNI1517, C35S20A52E1B4CVUUNI1518, C35S20A52E1B4CVUCN41520, C39S20A52E1B4CVUCN41534, C39S29A55E3B4CVUCN41561, C35S20A52E1B4CVUCN41773, C35S20A52E1B4CVUCN41795",True,False,1.0
4211,BEECH AVENUE ELEMENTARY SCHOOL,"9206 Beech Ave, Fontana, CA 92335, USA",34.08635,-117.47193,4212.0,CA,SAN BERNARDINO COUNTY,"C35S20A52E4B2FNUUNI1529, C35S20A52E4B2FNUUNI1530, C35S20A52E4B2FNUUNI1531, C35S20A52E4B2FNUUNI1532",False,False,1.0
4212,BEECH AVENUE ELEMENTARY SCHOOL,"9206 Beech Ave, Fontana, CA 92335, USA",34.08635,-117.47193,4213.0,CA,SAN BERNARDINO COUNTY,"C35S20A52E4B2FNUUNI1529, C35S20A52E4B2FNUUNI1530, C35S20A52E4B2FNUUNI1531, C35S20A52E4B2FNUUNI1532",True,False,1.0
4213,EAGLE CANYON ELEMENTARY SCHOOL,"13435 Eagle Canyon Dr, Chino Hills, CA 91709, USA",34.01045,-117.74657,4214.0,CA,SAN BERNARDINO COUNTY,"C39S29A55E3B4CVUCH11535, C39S29A55E3B4CVUCH11536, C39S29A55E3B4CVUCH21537, C39S29A55E3B4CVUCH21844",False,False,1.0
4214,EAGLE CANYON ELEMENTARY SCHOOL,"13435 Eagle Canyon Dr, Chino Hills, CA 91709, USA",34.01045,-117.74657,4215.0,CA,SAN BERNARDINO COUNTY,"C39S29A55E3B4CVUCH11535, C39S29A55E3B4CVUCH11536, C39S29A55E3B4CVUCH21537, C39S29A55E3B4CVUCH21844",True,False,1.0
4215,MCCOY EQUESTRIAN AND RECREATION CENTER,"14280 Peyton Dr, Chino Hills, CA 91709, USA",33.99402,-117.73399,4216.0,CA,SAN BERNARDINO COUNTY,"C39S29A55E3B4CVUCH11538, C39S29A55E3B4CVUCH31539, C39S29A55E3B4CVUCH31552, C39S29A55E3B4CVUCH21556, C39S29A55E3B4CVUCH21557, C39S29A55E3B4CVUCH11558, C39S29A55E3B4CVUCH21845, C39S29A55E3B4CVUCH51847",False,False,1.0
4216,MCCOY EQUESTRIAN AND RECREATION CENTER,"14280 Peyton Dr, Chino Hills, CA 91709, USA",33.99402,-117.73399,4217.0,CA,SAN BERNARDINO COUNTY,"C39S29A55E3B4CVUCH11538, C39S29A55E3B4CVUCH31539, C39S29A55E3B4CVUCH31552, C39S29A55E3B4CVUCH21556, C39S29A55E3B4CVUCH21557, C39S29A55E3B4CVUCH11558, C39S29A55E3B4CVUCH21845, C39S29A55E3B4CVUCH51847",True,False,1.0
4217,HIDDEN TRAILS ELEMENTARY SCHOOL,"2250 Ridgeview Dr, Chino Hills, CA 91709, USA",33.98539,-117.75495,4218.0,CA,SAN BERNARDINO COUNTY,"C39S29A55E3B4CVUCH21555, C39S29A55E3B4CVUCH11559",False,False,1.0
4218,HIDDEN TRAILS ELEMENTARY SCHOOL,"2250 Ridgeview Dr, Chino Hills, CA 91709, USA",33.98539,-117.75495,4219.0,CA,SAN BERNARDINO COUNTY,"C39S29A55E3B4CVUCH21555, C39S29A55E3B4CVUCH11559",True,False,1.0
4219,GLENMEADE ELEMENTARY SCHOOL,"15000 Whirlaway Ln, Chino Hills, CA 91709, USA",33.98061,-117.72222,4220.0,CA,SAN BERNARDINO COUNTY,"C39S29A55E3B4CVUCH31540, C39S29A55E3B4CVUCH51541, C39S29A55E3B4CVUCH31846",False,False,1.0
4220,GLENMEADE ELEMENTARY SCHOOL,"15000 Whirlaway Ln, Chino Hills, CA 91709, USA",33.98061,-117.72222,4221.0,CA,SAN BERNARDINO COUNTY,"C39S29A55E3B4CVUCH31540, C39S29A55E3B4CVUCH51541, C39S29A55E3B4CVUCH31846",True,False,1.0
4221,OAK RIDGE ELEMENTARY SCHOOL,"15452 Valle Vista Dr, Chino Hills, CA 91709, USA",33.97345,-117.74009,4222.0,CA,SAN BERNARDINO COUNTY,"C39S29A55E3B4CVUCH31553, C39S29A55E3B4CVUCH31554, C39S29A55E3B4CVUCH11560",False,False,1.0
4222,OAK RIDGE ELEMENTARY SCHOOL,"15452 Valle Vista Dr, Chino Hills, CA 91709, USA",33.97345,-117.74009,4223.0,CA,SAN BERNARDINO COUNTY,"C39S29A55E3B4CVUCH31553, C39S29A55E3B4CVUCH31554, C39S29A55E3B4CVUCH11560",True,False,1.0
4223,CHAPARRAL ELEMENTARY (CHINO HILLS),"4849 Bird Farm Rd, Chino Hills, CA 91709, USA",33.97486,-117.69944,4224.0,CA,SAN BERNARDINO COUNTY,"C39S29A55E3B4CVUCH41542, C39S29A55E3B4CVUCH41545",False,False,1.0
4224,CHAPARRAL ELEMENTARY (CHINO HILLS),"4849 Bird Farm Rd, Chino Hills, CA 91709, USA",33.97486,-117.69944,4225.0,CA,SAN BERNARDINO COUNTY,"C39S29A55E3B4CVUCH41542, C39S29A55E3B4CVUCH41545",True,False,1.0
4225,CHINO HILLS HIGH SCHOOL,"16150 Pomona Rincon Rd, Chino Hills, CA 91709, USA",33.95985,-117.68666,4226.0,CA,SAN BERNARDINO COUNTY,"C39S29A55E3B4CVUCH41543, C39S29A55E3B4CVUCH51544",False,False,1.0
4226,CHINO HILLS HIGH SCHOOL,"16150 Pomona Rincon Rd, Chino Hills, CA 91709, USA",33.95985,-117.68666,4227.0,CA,SAN BERNARDINO COUNTY,"C39S29A55E3B4CVUCH41543, C39S29A55E3B4CVUCH51544",True,False,1.0
4227,BUTTERFIELD RANCH ELEMENTARY SCHOOL,"6350 Mystic Canyon Dr, Chino Hills, CA 91709, USA",33.92636,-117.66734,4228.0,CA,SAN BERNARDINO COUNTY,"C39S29A55E3B4CVUCH51548, C39S29A55E3B4CVUCH51549",False,False,1.0
4228,BUTTERFIELD RANCH ELEMENTARY SCHOOL,"6350 Mystic Canyon Dr, Chino Hills, CA 91709, USA",33.92636,-117.66734,4229.0,CA,SAN BERNARDINO COUNTY,"C39S29A55E3B4CVUCH51548, C39S29A55E3B4CVUCH51549",True,False,1.0
4229,MICHAEL G WICKMAN ELEMENTARY,"16250 Pinehurst Dr, Chino Hills, CA 91709, USA",33.95897,-117.71127,4230.0,CA,SAN BERNARDINO COUNTY,"C39S29A55E3B4CVUCH51550, C39S29A55E3B4CVUCH41551",False,False,1.0
4230,MICHAEL G WICKMAN ELEMENTARY,"16250 Pinehurst Dr, Chino Hills, CA 91709, USA",33.95897,-117.71127,4231.0,CA,SAN BERNARDINO COUNTY,"C39S29A55E3B4CVUCH51550, C39S29A55E3B4CVUCH41551",True,False,1.0
4231,San Bernardino International Airport Domestic Terminal,"105 N Leland Norton Way, San Bernardino, CA 92408, USA",34.10079,-117.24682,4232.0,CA,SAN BERNARDINO COUNTY,Locality wide location,False,False,1.0
4232,Town of Apple Valley Recreation Center,"14955 Dale Evans Pkwy, Apple Valley, CA 92307, USA",34.52444,-117.21442,4233.0,CA,SAN BERNARDINO COUNTY,Locality wide location,False,False,1.0
4233,Toyota Arena,"4000 Ontario Center, Ontario, CA 91764, USA",34.0729,-117.56628,4234.0,CA,SAN BERNARDINO COUNTY,Locality wide location,False,False,1.0
4234,Joshua Tree Community Center,"6171 Sunburst St, Joshua Tree, CA 92252, USA",34.14057,-116.30686,4235.0,CA,SAN BERNARDINO COUNTY,Locality wide location,False,False,1.0
4235,San Bernardino County Registrar of Voters Office,"777 E Rialto Ave, San Bernardino, CA 92415, USA",34.10077,-117.27045,4236.0,CA,SAN BERNARDINO COUNTY,Locality wide location,False,False,1.0
