Unnamed: 0,name,address,lat,lon,Unnamed: 0.1,State,Locality,Precincts (Or Locality-wide),Is Early Voting,Is Drop Off,manual
0,Alameda County Registrar of Voters Office,1225 Fallon St  Oakland 94612,37.7999,-122.26304,,,,,,,
1,LAWRENCE HALL OF SCIENCE,1 CENTENNIAL DR  BERKELEY 94720,37.87938,-122.24678,,,,,,,
2,"CITY HALL, CITY OF OAK HEARING RM 3",1 FRANK OGAWA PLZ  OAKLAND 94612,37.80532,-122.27254,,,,,,,
3,DUBLIN CIVIC CENTER REGIONAL MEETING RM,100 CIVIC PLZ  DUBLIN 94568,37.70416,-121.91797,,,,,,,
4,FREMONT FIRE STATION 4,1000 PINE ST BUS.  FREMONT 94539,37.5232,-121.92789,,,,,,,
5,ALBANY COUNCIL CHAMBER,1000 SAN PABLO AVE  ALBANY 94706,37.8876,-122.29844,,,,,,,
6,LILY OF THE VALLEY CHRISTIAN CENTER,1010 91ST AVE  OAKLAND 94603,37.74627,-122.17984,,,,,,,
7,TABERNACLE MISSIONARY BAPTIST CH,10115 EDES AVE  OAKLAND 94603,37.73509,-122.18098,,,,,,,
8,HOLY CROSS LUTHERAN CH FELLOWSHIP HALL,1020 MOCHO ST  LIVERMORE 94550,37.67344,-121.78303,,,,,,,
9,81ST AVE BRANCH LIBRARY,1021 81ST AVE  OAKLAND 94621,37.7534,-122.18569,,,,,,,
10,HIRING HALL ENTER FROM ANGUS WAY,1050 MATTOX RD BUS  HAYWARD 94541,37.68679,-122.09983,,,,,,,
11,NORTH OAKLAND MISSIONARY BAPT CH,1060 32ND ST  OAKLAND 94608,37.82352,-122.27908,,,,,,,
12,GARAGE,1067 CLARENDON CRES  OAKLAND 94610,37.81193,-122.22677,,,,,,,
13,HERITAGE PARK APTS CLUBHOUSE,1089 BLUEBELL DR  LIVERMORE 94551,37.70792,-121.73415,,,,,,,
14,FIRE STATION 23 APPARATUS BAY,109 GROVE WAY  HAYWARD 94541,37.6749,-122.10782,,,,,,,
15,HIGHLANDS CTRY CLUB FIRESIDE RM,110 HILLER DR  OAKLAND 94618,37.8546,-122.22943,,,,,,,
16,PALOVISTA COMMUNITY CENTER,1100 64TH AVE  OAKLAND 94621,37.76123,-122.19905,,,,,,,
17,CASITAS ALAMEDA COMMUNITY CENTER,1101 VERDEMAR DR  ALAMEDA 94502,37.73511,-122.24637,,,,,,,
18,WARM SPRINGS CHURCH FELLOWSHIP HALL,111 E. WARREN AVE  FREMONT 94539,37.48719,-121.92646,,,,,,,
19,1ST CHRISTIAN CHURCH SHELTON RM,111 FAIRMOUNT AVE  OAKLAND 94611,37.81665,-122.26094,,,,,,,
20,UNIVERSITY VILLAGE OFFICE CROSSROADS RM,1125 JACKSON ST BUS.  ALBANY 94706,37.88344,-122.29958,,,,,,,
21,BERKELEY PUBLIC LIBRARY,1125 UNIVERSITY AVE  BERKELEY 94702,37.86956,-122.29091,,,,,,,
22,PLEASANT VIEW CHURCH OF CHRIST,11300 DUBLIN CANYON RD  PLEASANTON 94588,37.69738,-121.94578,,,,,,,
23,FIRE STATION 14,11345 PLEASANTON SUNOL RD  SUNOL 94586,37.59657,-121.88103,,,,,,,
24,ISLANDIA REC CENTER DOWNSTAIRS,1138 ISLAND DR  ALAMEDA 94502,37.73184,-122.24188,,,,,,,
25,TOWN CENTER AT ACORN COMM RM,1143 10TH ST  OAKLAND 94607,37.80619,-122.28673,,,,,,,
26,ST AMBROSE CHURCH RYAN HALL,1145 GILMAN ST  BERKELEY 94706,37.88114,-122.29399,,,,,,,
27,BALLENA BAY YACHT CLUB,1150 BALLENA BLVD  ALAMEDA 94501,37.76741,-122.28767,,,,,,,
28,AMADOR THEATER,1155 SANTA RITA RD  PLEASANTON 94566,37.6682,-121.87402,,,,,,,
29,ST RAYMOND CATHOLIC CHURCH,11555 SHANNON AVE  DUBLIN 94568,37.71294,-121.94056,,,,,,,
30,NORTH BERKELEY BRANCH LIBRARY,1170 THE ALAMEDA  BERKELEY 94707,37.88545,-122.27545,,,,,,,
31,LIGHTHOUSE BAPTIST CHURCH SOCIAL HALL,118 NEAL ST  PLEASANTON 94566,37.65941,-121.87303,,,,,,,
32,BETH EDEN BAPTIST CHURCH LOBBY,1183 10TH ST  OAKLAND 94607,37.80637,-122.28767,,,,,,,
33,TAYLOR MEMORIAL UNITED METHODIST CHURCH,1188 12TH ST  OAKLAND 94607,37.80852,-122.28723,,,,,,,
34,PUBLIC LIBRARY COMMUNITY RM A,1188 S LIVERMORE AVE  LIVERMORE 94550,37.67424,-121.75429,,,,,,,
35,FIRE STATION 5,1200 VINEYARD AVE  PLEASANTON 94566,37.65517,-121.82326,,,,,,,
36,EAST HILLS COMM CH LIVING ROOM,12000 CAMPUS DR  OAKLAND 94619,37.7917,-122.16771,,,,,,,
37,MT ZION MISSIONARY BAPTIST CH,1203 WILLOW ST  OAKLAND 94607,37.8116,-122.2976,,,,,,,
38,EAST BAY BAPT CH SANCTUARY,1221 PACIFIC AVE  SAN LEANDRO 94577,37.72104,-122.16753,,,,,,,
39,TRINITY LUTH CH FELLOWSHIP HALL NARTHEX,1225 HOPYARD RD  PLEASANTON 94566,37.66859,-121.88406,,,,,,,
40,PRIVATE HALL,1247 E 12TH ST  OAKLAND 94606,37.78926,-122.2486,,,,,,,
41,ALBANY COMM CENTER LOBBY,1249 MARIN AVE  ALBANY 94706,37.88797,-122.29322,,,,,,,
42,OAKLAND MAIN LIBRARY AUD,125 14TH ST  OAKLAND 94612,37.80098,-122.26361,,,,,,,
43,LINCOLN SCH MULTI-USE RM,1250 FERNSIDE BLVD  ALAMEDA 94501,37.75241,-122.23171,,,,,,,
44,LAKE MERRITT UMC STARK RM,1255 1ST AVE  OAKLAND 94606,37.79881,-122.2578,,,,,,,
45,KEHILLA COMMUNITY SYNAGOGUE,1300 GRAND AVE  PIEDMONT 94610,37.82015,-122.24407,,,,,,,
46,KEELEY CENTER AT ST CHARLES CATH CH,1315 LOMITAS AVE  LIVERMORE 94550,37.65873,-121.778,,,,,,,
47,OAKLAND FIRE STATION 21,13150 SKYLINE BLVD  OAKLAND 94619,37.78952,-122.14966,,,,,,,
48,THE CHURCH ON THE CORNER,1319 SOLANO AVE  ALBANY 94706,37.89096,-122.29177,,,,,,,
49,TRINITY LUTH CH FELLOWSHIP HALL,1323 CENTRAL AVE  ALAMEDA 94501,37.7714,-122.26242,,,,,,,
50,ALBANY VETERANS BLDG AUDITORIUM,1325 PORTLAND AVE  ALBANY 94706,37.89511,-122.29096,,,,,,,
51,BERKELEY CORP YARD GREEN RM,1326 ALLSTON WAY  BERKELEY 94702,37.86645,-122.28512,,,,,,,
52,EMERYVILLE CIVIC CENTER HALLWAY,1333 PARK AVE  EMERYVILLE 94608,37.83102,-122.28544,,,,,,,
53,EVANGEL BIBLE CHURCH OF BERKELEY,1343 HOPKINS ST  BERKELEY 94702,37.87925,-122.28697,,,,,,,
54,ST BARNABAS SCHOOL HALL,1400 6TH ST  ALAMEDA 94501,37.77184,-122.27926,,,,,,,
55,OAKLAND FIRE STATION 20 APP FLOOR,1401 98TH AVE  OAKLAND 94603,37.74484,-122.1703,,,,,,,
56,WILLIAMS CHAPEL BAPTIST CHURCH,1410 10TH AVE  OAKLAND 94606,37.79213,-122.24921,,,,,,,
57,GREATER COOPER AME ZION CHURCH,1420 MYRTLE ST  OAKLAND 94607,37.80915,-122.28145,,,,,,,
58,CITY OF SAN LEANDRO SERVICE CTR,14200 CHAPMAN RD BUS.  SAN LEANDRO 94578,37.70489,-122.14511,,,,,,,
59,OREGON PARK APTS   CLUBHOUSE,1425 OREGON ST  BERKELEY 94702,37.85649,-122.28059,,,,,,,
60,NEW BEGINNING CHURCH,1428 61ST AVE  OAKLAND 94621,37.76491,-122.19754,,,,,,,
61,FIRE STATION 24 APP BAY,1430 164TH AVE  SAN LEANDRO 94578,37.69546,-122.1125,,,,,,,
62,OAKLAND FIRE STATION 3 APP BAY,1445 14TH ST  OAKLAND 94607,37.81074,-122.29264,,,,,,,
63,BAMBOO BEAUTY COLLEGE,14624 EAST 14TH ST  SAN LEANDRO 94578,37.70954,-122.13401,,,,,,,
64,SPANISH SPEAKING CITIZENS FOUNDATION,1470 FRUITVALE AVE  OAKLAND 94601,37.77847,-122.2251,,,,,,,
65,SAN LEANDRO AQUATIC CENTER,14900 ZELMA ST  SAN LEANDRO 94577,37.69433,-122.14742,,,,,,,
66,MABLE HOWARD APARTMENTS COMM RM,1499 ALCATRAZ AVE  BERKELEY 94702,37.84807,-122.27816,,,,,,,
67,AMOS TEMPLE C M E CHURCH HALL,1500 90TH AVE  OAKLAND 94603,37.74988,-122.17288,,,,,,,
68,CABANA ROOM ON GOLDEN RD,1500 CALLE SANTA ANNA  PLEASANTON 94566,37.66747,-121.88755,,,,,,,
69,LONGFELLOW SCH GYM,1500 DERBY ST  BERKELEY 94703,37.85851,-122.27824,,,,,,,
70,ST ANTHONY'S CATHOLIC CH SIDE B,1500 E 15TH ST  OAKLAND 94606,37.79016,-122.24365,,,,,,,
71,ST ANTHONY'S CATHOLIC CH SIDE A,1500 E 15TH ST  OAKLAND 94606,37.79016,-122.24365,,,,,,,
72,ST ALBANS EPISCOPAL CH PARISH HALL,1501 WASHINGTON AVE  ALBANY 94707,37.89306,-122.28705,,,,,,,
73,FIRST BAPTIST CHURCH GYM,1515 SANTA CLARA AVE  ALAMEDA 94501,37.7732,-122.2602,,,,,,,
74,SECOND CH CHRIST SCIENTIST FOYER,1521 SPRUCE ST  BERKELEY 94709,37.87994,-122.26563,,,,,,,
75,ASHLAND COMMUNITY CENTER,1530 167TH AVE  SAN LEANDRO 94578,37.69328,-122.10713,,,,,,,
76,MARINA COMMUNITY CTR ROOM C,15301 WICKS BLVD  SAN LEANDRO 94579,37.68605,-122.16174,,,,,,,
77,MARINA COMMUNITY CTR ROOM B,15301 WICKS BLVD  SAN LEANDRO 94579,37.68605,-122.16174,,,,,,,
78,CITY OF PLEASANTON CONFERENCE RM 3,157 MAIN  PLEASANTON 94566,37.65741,-121.87819,,,,,,,
79,FIRST UNITED METH CH HALE HALL,1600 BANCROFT AVE  SAN LEANDRO 94577,37.72416,-122.14611,,,,,,,
80,AC TRANSIT DISTRICT LOBBY,1600 FRANKLIN ST  OAKLAND 94612,37.80542,-122.26856,,,,,,,
81,BERKELEY FRIENDS MEETING CH CHAPEL,1600 SACRAMENTO ST  BERKELEY 94702,37.87642,-122.28307,,,,,,,
82,BERKELEY FRIENDS CH  LOBBY,1600 SACRAMENTO ST  BERKELEY 94702,37.87642,-122.28307,,,,,,,
83,JESUCRISTO ES EL SENOR,1601 16TH AVE  OAKLAND 94606,37.79003,-122.2426,,,,,,,
84,GRACE BAPTIST CHURCH SOCIAL HALL,16105 MATEO ST  SAN LEANDRO 94578,37.69882,-122.11618,,,,,,,
85,EPIPHANY LUTH CH FELLOWSHIP HALL,16248 CAROLYN ST  SAN LEANDRO 94578,37.70292,-122.1099,,,,,,,
86,CONGREGATION BETH ISRAEL,1630 BANCROFT WAY  BERKELEY 94703,37.86609,-122.27793,,,,,,,
87,BERKELEY COVENANT CHURCH FOYER,1632 HOPKINS ST  BERKELEY 94707,37.88245,-122.27992,,,,,,,
88,CARMEN FLORES REC CTR MULTI-USE RM,1637 FRUITVALE AVE  OAKLAND 94601,37.78104,-122.22572,,,,,,,
89,MC GEE AVE BAPTIST CH   ENTER REAR,1640 STUART ST  BERKELEY 94703,37.8571,-122.27558,,,,,,,
90,ST PAUL LUTHERAN CHURCH,1658 EXCELSIOR AVE  OAKLAND 94602,37.8019,-122.22209,,,,,,,
91,AAHMES SHRINE EVENT CENTER CLASS RM A-B,170 LINDBERGH AVE  LIVERMORE 94551,37.69684,-121.80884,,,,,,,
92,BERKELEY ADULT SCHOOL  AUDITORIUM,1701 SAN PABLO AVE  BERKELEY 94702,37.87345,-122.29144,,,,,,,
93,ST JOHN EPISC CHURCH FISHER RM,1707 GOULDIN RD  OAKLAND 94611,37.83713,-122.20994,,,,,,,
94,OAKLAND FIRE STATION 10  APP FLOOR,172 SANTA CLARA AVE  OAKLAND 94610,37.81865,-122.25234,,,,,,,
95,CALVARY LUTHERAN CH FELLOWSHIP HALL,17200 VIA MAGDALENA  SAN LORENZO 94580,37.67454,-122.12617,,,,,,,
96,M L KING JR YOUTH SERVICES CTR,1730 OREGON ST  BERKELEY 94703,37.8565,-122.27363,,,,,,,
97,LUTHERAN CH OF THE CROSS FELLOWSHIP HALL,1744 UNIVERSITY AVE  BERKELEY 94703,37.87087,-122.27629,,,,,,,
98,KENNETH C AITKEN COMM CTR RM 2AND3,17800 REDWOOD RD BUS.  CASTRO VALLEY 94546,37.71511,-122.07277,,,,,,,
99,CORNERSTONE CH FELLOWSHIP HALL,180 LEWELLING BLVD  SAN LORENZO 94580,37.68634,-122.12603,,,,,,,
100,WEST OAKLAND PUBLIC LIBRARY,1801 ADELINE ST  OAKLAND 94607,37.81292,-122.28529,,,,,,,
101,HAYWARD HEALTHCARE AND WELLNESS CENTER,1805 WEST ST  HAYWARD 94545,37.64523,-122.11614,,,,,,,
102,THOUSAND OAKS BAPTIST CH MORGAN HALL,1821 CATALINA AVE  BERKELEY 94707,37.89254,-122.27952,,,,,,,
103,CASTRO VALLEY FIRST BAPTIST CHURCH,18550 REDWOOD RD  CASTRO VALLEY 94546,37.70978,-122.07367,,,,,,,
104,GARAGE,186 HILLCREST RD  BERKELEY 94705,37.85251,-122.24401,,,,,,,
105,UNITARIAN UNIVERSALIST CHURCH,1893 N VASCO RD BUS.  LIVERMORE 94551,37.72005,-121.72338,,,,,,,
106,CASTRO VALLEY COMM CTR MAIN HALL,18988 LAKE CHABOT RD  CASTRO VALLEY 94546,37.70801,-122.08982,,,,,,,
107,BERKELEY FIRE STATION 4,1900 MARIN AVE  BERKELEY 94707,37.88866,-122.27616,,,,,,,
108,1ST CONGREGATION CH SOCIAL HALL,1912 CENTRAL AVE  ALAMEDA 94501,37.7684,-122.2532,,,,,,,
109,FIRE STATION 9,1919 CORDOBA ST  LIVERMORE 94550,37.66107,-121.78451,,,,,,,
110,CASTRO VALLEY CHURCH OF THE NAZARENE,19230 LAKE CHABOT RD  CASTRO VALLEY 94546,37.70629,-122.08967,,,,,,,
111,BERKELEY VETERANS BLDG LOBBY,1931 CENTER ST  BERKELEY 94704,37.87014,-122.27186,,,,,,,
112,EPWORTH UNITED METH CH FELLOWSHIP HALL,1953 HOPKINS ST  BERKELEY 94707,37.88741,-122.27367,,,,,,,
113,F M SMITH REC CENTER,1969 PARK BLVD  OAKLAND 94606,37.80057,-122.24872,,,,,,,
114,SAN LORENZO COMM CTR MAIN HALL,1970 VIA BUENA VIS  SAN LORENZO 94541,37.66493,-122.14327,,,,,,,
115,SAN LORENZO COMM CTR MAIN HALL,1970 VIA BUENA VISTA  SAN LORENZO 94580,37.66493,-122.14327,,,,,,,
116,DRIFTWOOD HEALTHCARE LOBBY,19700 HESPERIAN BLVD  HAYWARD 94541,37.66841,-122.11867,,,,,,,
117,UNITED METH CH OF CASTRO VALLEY SIDE A,19806 WISTERIA ST  CASTRO VALLEY 94546,37.70084,-122.08565,,,,,,,
118,UNITED METH CH OF CASTRO VALLEY SIDE B,19806 WISTERIA ST  CASTRO VALLEY 94546,37.70084,-122.08565,,,,,,,
119,UNITED METH CH OF CASTRO VALLEY SIDE C,19806 WISTERIA ST  CASTRO VALLEY 94546,37.70084,-122.08565,,,,,,,
120,VALLEY BAPTIST CHURCH,19835 LAKE CHABOT RD  CASTRO VALLEY 94546,37.7002,-122.0882,,,,,,,
121,GARAGE,2 MONTWOOD WAY  OAKLAND 94605,37.74883,-122.13591,,,,,,,
122,HARBOR BAY ISLE HOMEOWNERS ASSN,200 PACKET LANDING RD BUS.  ALAMEDA 94502,37.74766,-122.23996,,,,,,,
123,ST MARY MAGDALEN CH NORTON HALL,2005 BERRYMAN ST  BERKELEY 94709,37.88378,-122.27162,,,,,,,
124,STONEBRAE COUNTRY CLUB,202 COUNTRY CLUB DR  HAYWARD 94542,37.6448,-122.00276,,,,,,,
125,FIRST PRESBY CH FELLOWSHIP HALL,2020 5TH ST  LIVERMORE 94550,37.67842,-121.76954,,,,,,,
126,STUART PRATT MANOR COMMUNITY RM,2020 DURANT AVE  BERKELEY 94704,37.86626,-122.26933,,,,,,,
127,CEDAR GROVE COMMUNITY CHURCH LOBBY,2021 COLLEGE AVE  LIVERMORE 94550,37.67393,-121.76763,,,,,,,
128,BERKELEY FIRE STATION 2 APP BAY,2029 BERKELEY WAY  BERKELEY 94704,37.87319,-122.26933,,,,,,,
129,FIRE STATION 25 APPARATUS BAY,20336 SAN MIGUEL AVE  CASTRO VALLEY 94546,37.6971,-122.08048,,,,,,,
130,SAN FELIPE PARK REC BLDG MAIN HALL,2058 D ST  HAYWARD 94541,37.67974,-122.06192,,,,,,,
131,ALAMEDA HOSPITAL DAL CIELO CONF RM,2070 CLINTON AVE  ALAMEDA 94501,37.76298,-122.25332,,,,,,,
132,GARAGE,2082 BOXWOOD WAY  FREMONT 94539,37.50894,-121.93367,,,,,,,
133,Newpark Mall,2086 Newpark Mall  Newark 94560,37.52608,-122.00136,,,,,,,
134,ROUNSEVILLE REHABILITATION CENTER,210 40TH STREET WAY  OAKLAND,37.82725,-122.25471,,,,,,,
135,CHURCH OF ALL FAITHS,2100 5TH AVE  OAKLAND 94606,37.80036,-122.24691,,,,,,,
136,SUMMERVILLE AT LANDMARK VILLA,21000 MISSION BLVD  HAYWARD 94541,37.68421,-122.0975,,,,,,,
137,CENTRAL BAPT CHURCH FOYER,2133 CENTRAL AVE  ALAMEDA 94501,37.76706,-122.24833,,,,,,,
138,CHRIST CHURCH EAST BAY BABCOCK RM,2138 CEDAR ST  BERKELEY 94709,37.87844,-122.26747,,,,,,,
139,CHRIST CH EAST BAY SANCTUARY,2138 CEDAR ST  BERKELEY 94709,37.87844,-122.26747,,,,,,,
140,VICTORY CHRISTIAN FELLOWSHIP,2149 E 23RD ST  OAKLAND 94606,37.79089,-122.23173,,,,,,,
141,BERKELEY FRIENDS MEETING CH COMM RM,2151 VINE ST  BERKELEY 94709,37.88057,-122.26789,,,,,,,
142,REGENERATION CHURCH,219 E 15TH ST  OAKLAND 94606,37.79809,-122.25533,,,,,,,
143,FIRE STATION 10 APPARATUS BAY,2194 WILLIAMS ST  SAN LEANDRO 94577,37.70897,-122.18161,,,,,,,
144,BAYWOOD COURT  ALL PURPOSE ROOM,21966 DOLORES ST BUS  CASTRO VALLEY 94546,37.68478,-122.07785,,,,,,,
145,BROOKINS A M E CH FELLOWSHIP RM,2201 73RD AVE  OAKLAND 94605,37.76428,-122.17997,,,,,,,
146,CHOCHMAT HALEV  SOCIAL HALL,2215 PRINCE ST  BERKELEY 94705,37.85367,-122.26331,,,,,,,
147,ALL SOULS EPISCOPAL PARISH CHURCH LOBBY,2220 CEDAR ST  BERKELEY 94709,37.87858,-122.26605,,,,,,,
148,CHURCH OF CHRIST HAYWARD HALL,22307 MONTGOMERY ST  HAYWARD 94541,37.67356,-122.08938,,,,,,,
149,MORRISSON THEATER LOBBY,22311 3RD ST  HAYWARD 94541,37.67754,-122.0787,,,,,,,
150,SEVENTH DAY ADVENTIST CH  BASEMENT,2236 PARKER ST  BERKELEY 94704,37.86238,-122.26331,,,,,,,
151,ALAMEDA COUNTY OFFICE BUILDING,224 WEST WINTON AVE  HAYWARD 94544,37.6577,-122.09573,,,,,,,
152,BARBARA LEE CENTER,2251 BANCROFT AVE  SAN LEANDRO 94577,37.71738,-122.14307,,,,,,,
153,CITY HALL RM 360 ENTER ON OAK ST,2263 SANTA CLARA AVE  ALAMEDA 94501,37.76647,-122.24348,,,,,,,
154,HAYWARD VETERANS MEMORIAL ARMY HALL,22737 MAIN ST  HAYWARD 94541,37.67112,-122.08166,,,,,,,
155,YOUTH EMPLOYMENT PARTNERSHIP,2300 INTERNATIONAL BLVD  OAKLAND 94601,37.78344,-122.23534,,,,,,,
156,MT EDEN HIGH SCHOOL,2300 PANAMA ST  HAYWARD 94545,37.62498,-122.09027,,,,,,,
157,MAKE BELIEVE,2301 TELEGRAPH AVE  OAKLAND 94612,37.81286,-122.26915,,,,,,,
158,CONGREGATION BETH EL SIDE B,2301 VINE ST  BERKELEY 94708,37.88117,-122.26464,,,,,,,
159,CONGREGATION BETH EL SIDE A,2301 VINE ST  BERKELEY 94708,37.88117,-122.26464,,,,,,,
160,ALAMEDA EAGLES,2305 ALAMEDA AVE  ALAMEDA 94501,37.76405,-122.24423,,,,,,,
161,BUENA VISTA UNITED METHODIST,2311 BUENA VISTA AVE  ALAMEDA 94501,37.76896,-122.24072,,,,,,,
162,FIRE STATION 34,2333 POWELL ST  EMERYVILLE 94608,37.83682,-122.30327,,,,,,,
163,FALE MAAMA UNITED METH CHURCH,2385 103RD AVE  OAKLAND 94603,37.74466,-122.1552,,,,,,,
164,ST REGIS RETIREMENT CTR RIGHT SIDE LOBBY,23950 MISSION BLVD  HAYWARD 94544,37.6683,-122.07962,,,,,,,
165,UC RESIDENCE HALL UNIT III BLDG,2400 DURANT AVE  BERKELEY 94720,37.86738,-122.26096,,,,,,,
166,THE BRIDGE CHURCH FOYER,2414 MARTIN LUTHER KING JR WAY  BERKELEY 94704,37.86449,-122.2727,,,,,,,
167,UNIVERSITY LUTHERAN CHAPEL PARISH HALL,2425 COLLEGE AVE  BERKELEY 94704,37.86672,-122.25373,,,,,,,
168,CHRISTIAN CATHEDRAL CHURCH,2433 COOLIDGE AVE  OAKLAND 94601,37.78589,-122.21961,,,,,,,
169,FIRST CHRISTIAN CHURCH,2441 SAN JOSE AVE  ALAMEDA 94501,37.76021,-122.2439,,,,,,,
170,BERKELEY FIRE STATION 1,2442 8TH ST  BERKELEY 94710,37.8607,-122.29334,,,,,,,
171,FREMONT MAIN LIBRARY  FUKAYA RM A,2450 STEVENSON BLVD  FREMONT 94538,37.55085,-121.97104,,,,,,,
172,SHEFFIELD VILLAGE MAIN CLUBROOM,247 MARLOW DR  OAKLAND 94605,37.73502,-122.13484,,,,,,,
173,HEART OF THE BAY CHURCH MAIN HALL,24800 HESPERIAN BLVD  HAYWARD 94545,37.64613,-122.10478,,,,,,,
174,PERALTA HACIENDA HISTORIC PARK,2488 COOLIDGE AVE  OAKLAND 94601,37.78716,-122.21798,,,,,,,
175,FIRST PRESBYTERIAN CHURCH  PARLOR,2490 GROVE WAY  CASTRO VALLEY 94546,37.68543,-122.07216,,,,,,,
176,WOODLAND ESTATES REC BUILDING,2494 OAKES DR  HAYWARD 94542,37.66472,-122.05229,,,,,,,
177,LINCOLN SQUARE REC CENTER,250 10TH ST  OAKLAND 94607,37.80027,-122.26873,,,,,,,
178,OUR LADY OF GOOD COUNSEL PARISH CH,2500 BERMUDA AVE  SAN LEANDRO 94577,37.69448,-122.17979,,,,,,,
179,ST ANTONIUS COPT ORTH CH SIDE A,2500 HANSEN RD  HAYWARD 94541,37.67258,-122.05649,,,,,,,
180,ST ANTONIUS COPT ORTH CH SIDE B,2500 HANSEN RD  HAYWARD 94541,37.67258,-122.05649,,,,,,,
181,ST ANTONIUS COPT ORTH CH SIDE C,2500 HANSEN RD  HAYWARD 94541,37.67258,-122.05649,,,,,,,
182,RHYTHMIX CULTURAL WORKS 1ST FLR RM,2513 BLANDING AVE  ALAMEDA 94501,37.76976,-122.23528,,,,,,,
183,BROOKDALE REC CENTER MAIN HALL,2535 HIGH ST  OAKLAND 94601,37.78195,-122.20522,,,,,,,
184,BAY HILLS COMMUNITY CHURCH SOCIAL HALL,25830 GADING RD  HAYWARD 94544,37.64817,-122.08068,,,,,,,
185,FIVE CANYONS FIRE STATION 8 APP BAY,25862 FIVE CANYONS PKWY  CASTRO VALLEY 94552,37.67516,-122.03007,,,,,,,
186,CHRISTS COMM CHURCH SOCIAL HALL,25927 KAY AVE  HAYWARD 94545,37.64037,-122.09814,,,,,,,
187,ALAMEDA FIRE STATION 4 CARDIO RM,2595 MECARTNEY RD BUS.  ALAMEDA 94502,37.73764,-122.25262,,,,,,,
188,AMERICAN BAPTIST SEMINARY OF THE WEST,2606 DWIGHT WAY  BERKELEY 94704,37.86525,-122.25604,,,,,,,
189,OAKLAND FIRE STATION 26,2611 98TH AVE  OAKLAND 94605,37.75137,-122.15604,,,,,,,
190,MARY HELP OF CHRISTIANS CHURCH,2611 E 9TH ST  OAKLAND 94601,37.77761,-122.23601,,,,,,,
191,ST JARLATH CHURCH PARISH HALL,2620 PLEASANT ST  OAKLAND,37.79719,-122.21696,,,,,,,
192,UC RESIDENCE HALL UNIT I REC RM,2650 DURANT AVE  BERKELEY 94720,37.86812,-122.25501,,,,,,,
193,SOUTHGATE COMMUNITY CENTER MAIN HALL,26780 CHIPLAY AVE  HAYWARD 94545,37.63591,-122.09524,,,,,,,
194,HOLY SPIRIT PARISH-NEWMAN HALL,2700 DWIGHT WAY  BERKELEY 94704,37.86546,-122.2536,,,,,,,
195,LAGUNA OAKS REC CENTER,2700 LYLEWOOD DR BUS.  PLEASANTON 94588,37.65812,-121.90795,,,,,,,
196,MANZANITA REC CENTER  GYM,2701 22ND AVE  OAKLAND 94606,37.79408,-122.22794,,,,,,,
197,BERKELEY FIRE STATION 3  SIDE A,2710 RUSSELL ST  BERKELEY 94705,37.85831,-122.25256,,,,,,,
198,BERKELEY FIRE STATION 3  SIDE B,2710 RUSSELL ST  BERKELEY 94705,37.85831,-122.25256,,,,,,,
199,ITALIAN AMERICAN HALL,2712 ENCINAL AVE  ALAMEDA 94501,37.75925,-122.23887,,,,,,,
200,BERKELEY MASJID FOUNDATION,2716 DERBY ST  BERKELEY 94705,37.86191,-122.25267,,,,,,,
201,WEEKES COMMUNITY CENTER MAIN HALL,27182 PATRICK AVE  HAYWARD 94544,37.63452,-122.07887,,,,,,,
202,EDEN SHORES HOA CLUBHOUSE,2723 BREAKER LN  HAYWARD 94545,37.60647,-122.09251,,,,,,,
203,THE BRIDGE OF FAITH FELLOWSHIP HALL,27343 WHITMAN ST  HAYWARD 94544,37.64088,-122.06551,,,,,,,
204,GARAGE,2741 CAMINO CASA BUENA  PLEASANTON 94566,37.671,-121.90244,,,,,,,
205,JOSEPHINE LUM LODGE C SECTION,2747 OLIVER DR  HAYWARD 94545,37.62881,-122.09954,,,,,,,
206,HIGHLAND BAPT CH ENTER REAR OF CH,27476 HAYWARD BLVD  HAYWARD 94542,37.65647,-122.037,,,,,,,
207,WESTLAKE CHRISTIAN TERRACE,275 28TH ST  OAKLAND 94611,37.81584,-122.26233,,,,,,,
208,SORENSDALE REC CTR  ROOM 10,275 GOODWIN ST  HAYWARD 94544,37.64409,-122.07145,,,,,,,
209,GRAND ADVENT SDA CHURCH,278 GRAND AVE  OAKLAND 94610,37.80944,-122.2579,,,,,,,
210,FIRE STATION 4 APP FLOOR,27836 LOYOLA AVE BUS  HAYWARD 94545,37.62511,-122.09207,,,,,,,
211,ST ANNES EPISCOPAL CH SANCTUARY,2791 DRISCOLL RD  FREMONT 94539,37.53718,-121.95244,,,,,,,
212,OAKLAND FIRE STATION 25 APP FLOOR,2795 BUTTERS DR  OAKLAND 94602,37.80913,-122.19132,,,,,,,
213,OLLIE GROVE CHURCH DINING HALL,2800 MABEL ST  BERKELEY 94702,37.855,-122.28492,,,,,,,
214,FRANCES ALBRIER COMM CTR GAME RM,2800 PARK ST  BERKELEY 94702,37.85503,-122.28342,,,,,,,
215,FRANCES ALBRIER COMM CTR  ART RM,2800 PARK ST  BERKELEY 94702,37.85503,-122.28342,,,,,,,
216,SAN LEANDRO RACQUET CLUB,2800 SAN LEANDRO BLVD  SAN LEANDRO 94578,37.71448,-122.14403,,,,,,,
217,OUR LADY OF LOURDES CH,2802 LAKESHORE AVE  OAKLAND 94610,37.80762,-122.24925,,,,,,,
218,MATT JIMENEZ COM CTR CLASSROOM 3,28200 RUUS RD  HAYWARD 94544,37.63085,-122.06762,,,,,,,
219,FIRE STATION 7,28270 HUNTWOOD AVE  HAYWARD 94544,37.63289,-122.06399,,,,,,,
220,ST CLEMENTS CHURCH  PALACHE HALL,2837 CLAREMONT BLVD  BERKELEY 94705,37.85921,-122.24491,,,,,,,
221,FIRE STATION 5 APP FLOOR,28595 HAYWARD BLVD BUS.  HAYWARD 94542,37.65402,-122.02564,,,,,,,
222,HALCYON BAPTIST CH FELLOWSHIP HALL,2860 HALCYON DR  SAN LEANDRO 94578,37.70199,-122.13503,,,,,,,
223,PALMA CEIA BAPTIST CHURCH SIDE A,28605 RUUS RD  HAYWARD 94544,37.62785,-122.06754,,,,,,,
224,PALMA CEIA BAPTIST CHURCH SIDE B,28605 RUUS RD  HAYWARD 94544,37.62785,-122.06754,,,,,,,
225,PALMA CEIA BAPTIST CHURCH SIDE C,28605 RUUS RD  HAYWARD 94544,37.62785,-122.06754,,,,,,,
226,PALMA CEIA BAPTIST CHURCH SIDE D,28605 RUUS RD  HAYWARD 94544,37.62785,-122.06754,,,,,,,
227,HARRIET TUBMAN TER COMMUNITY RM,2870 ADELINE ST  BERKELEY 94703,37.85682,-122.2688,,,,,,,
228,WOMEN CANCER RESOURCE CENTER MPR,2908 ELLSWORTH ST  BERKELEY 94705,37.85693,-122.26182,,,,,,,
229,ALAMEDA CHRISTIAN REFORMED CH,2914 ENCINAL AVE  ALAMEDA 94501,37.75725,-122.23627,,,,,,,
230,ST PETERS CHURCH MEETING ROOM,294 BROADMOOR BLVD  SAN LEANDRO 94577,37.73678,-122.15992,,,,,,,
231,CLAREMONT BRANCH LIBRARY,2940 BENVENUE AVE  BERKELEY 94705,37.85663,-122.25436,,,,,,,
232,FIRST UNITED METHODIST CH RM 7AND8,2950 WASHINGTON BLVD  FREMONT 94539,37.53251,-121.94962,,,,,,,
233,FIRST UNITED METHODIST CH RM 3AND4,2950 WASHINGTON BLVD  FREMONT 94539,37.53251,-121.94962,,,,,,,
234,REDWOOD GARDENS COMMUNITY RM,2951 DERBY ST  BERKELEY 94705,37.86266,-122.24698,,,,,,,
235,REDWOOD GARDENS 1ST FLR SOUTH SIDE LOBBY,2951 DERBY ST  BERKELEY 94705,37.86266,-122.24698,,,,,,,
236,HERITAGE BAPTIST CHURCH,2960 MERCED ST  SAN LEANDRO 94577,37.70074,-122.16489,,,,,,,
237,ST THERESA CHURCH  GYM,30 MANDALAY RD  OAKLAND 94618,37.83801,-122.2315,,,,,,,
238,ST THERESA CHURCH GYM,30 MANDALAY RD  OAKLAND 94618,37.83801,-122.2315,,,,,,,
239,SAN LEANDRO LIBRARY KARP RM,300 ESTUDILLO AVE  SAN LEANDRO 94577,37.72605,-122.15394,,,,,,,
240,SIKH TEMPLE SIDE A,300 GURDWARA RD  FREMONT 94536,37.58354,-121.99823,,,,,,,
241,SIKH TEMPLE SIDE B,300 GURDWARA RD  FREMONT 94536,37.58354,-121.99823,,,,,,,
242,BERKELEY  FIRE STATION 7,3000 SHASTA RD  BERKELEY 94708,37.89094,-122.25143,,,,,,,
243,BAYPORT PARK COMM BLDG,301 JACK LONDON AVE  ALAMEDA 94501,37.78224,-122.28754,,,,,,,
244,UNITED CHURCH OF HAYWARD SANCTUARY,30540 MISSION BLVD  HAYWARD 94544,37.62411,-122.03986,,,,,,,
245,GARAGE,3062 MELBOURNE CT  PLEASANTON 94588,37.69646,-121.86031,,,,,,,
246,ED ROBERTS CAMPUS SIDE B,3075 ADELINE ST  BERKELEY 94703,37.85259,-122.26959,,,,,,,
247,ED ROBERTS CAMPUS SIDE A,3075 ADELINE ST  BERKELEY 94703,37.85259,-122.26959,,,,,,,
248,ED ROBERTS CAMPUS SIDE C,3075 ADELINE ST  BERKELEY 94703,37.85259,-122.26959,,,,,,,
249,ASIAN RESOURCE CENTER LOBBY,310 8TH ST  OAKLAND 94607,37.79904,-122.27046,,,,,,,
250,THE GROVES AT DUBLIN RANCH,3115 FINNIAN WAY  DUBLIN 94568,37.70795,-121.85955,,,,,,,
251,MARK GREEN SPORTS CTR CLASS RM C,31224 UNION CITY BLVD  UNION CITY 94587,37.59344,-122.08028,,,,,,,
252,COUNTY ED BLDG HALL B-C COR,313 W WINTON AVE  HAYWARD 94544,37.65851,-122.09835,,,,,,,
253,WILLIE KEYES (POPLAR) REC CENTER,3131 UNION ST  OAKLAND 94608,37.82355,-122.28386,,,,,,,
254,COMMONWEALTH CHURCH OF GOD IN CHRIST,3136 13TH AVE  OAKLAND 94610,37.80024,-122.23386,,,,,,,
255,UNION CITY FIRE STATION 32 APP BAY,31600 ALVARADO BLVD  UNION CITY 94587,37.59262,-122.07448,,,,,,,
256,TEMPLE ISRAEL SOCIAL HALL,3183 MECARTNEY RD  ALAMEDA 94502,37.73778,-122.24222,,,,,,,
257,ST ANDREW KIM CH PARISH HALL,3200 62ND AVE  OAKLAND 94605,37.77401,-122.18254,,,,,,,
258,BLACK REPERTORY GROUP  HALL,3201 ADELINE ST  BERKELEY 94703,37.85056,-122.27031,,,,,,,
259,CORPUS CHRISTI CHURCH  GIBSON CTR,322 SAINT JAMES DR  PIEDMONT 94611,37.81323,-122.21472,,,,,,,
260,ST ANNES CHURCH MULTI-USE RM,32223 CABELLO ST  UNION CITY 94587,37.58735,-122.07243,,,,,,,
261,HACIENDA MOBILE HOME CLUBHOUSE,3231 VINEYARD AVE  PLEASANTON 94566,37.6668,-121.85085,,,,,,,
262,HAVENS SCH ELLEN DRISCOLL PLAYHOUSE,325 HIGHLAND AVE  PIEDMONT 94611,37.82533,-122.23263,,,,,,,
263,TEMPLE BETH ABRAHAM SOCIAL HALL,327 MACARTHUR BLVD  OAKLAND 94610,37.8137,-122.25178,,,,,,,
264,SHILOH CHRISTIAN FELLOWSHIP GYM,3295 SCHOOL ST  OAKLAND 94602,37.79237,-122.20804,,,,,,,
265,PIEDMONT GARDENS SENIOR CENTER,33 LINDA AVE  OAKLAND 94611,37.82669,-122.25081,,,,,,,
266,STONERIDGE CREEK GRANADA RM,3300 STONERIDGE CREEK WAY  PLEASANTON 94588,37.69876,-121.85528,,,,,,,
267,TROPICS MOBILE HOME CLUBHOUSE,33000 ALMADEN BLVD  UNION CITY 94587,37.58868,-122.05178,,,,,,,
268,FRUITVALE SAN ANTONIO SENIOR CTR,3301 E 12TH ST  OAKLAND 94601,37.77585,-122.22479,,,,,,,
269,PERALTA COMM COLLEGE DISTRICT ATRIUM,333 E 8TH ST  OAKLAND 94606,37.79265,-122.26091,,,,,,,
270,ST PAUL UNITED METH CH SANCTUARY,33350 PEACE TER BUS.  FREMONT 94555,37.58031,-122.05458,,,,,,,
271,OAKLAND FIRE STATION 17 APP FLOOR,3344 HIGH ST  OAKLAND 94619,37.7858,-122.19718,,,,,,,
272,CENTERVILLE COMM CTR CRAFT RM,3355 COUNTRY DR  FREMONT 94536,37.55495,-121.98947,,,,,,,
273,UC APOSTOLIC CHURCH GYM  ENTER WESTERN,33700 ALVARADO-NILES RD  UNION CITY 94587,37.59136,-122.03466,,,,,,,
274,QUAIL RUN  CLUBHOUSE,33783 WHIMBREL RD  FREMONT 94555,37.58217,-122.04446,,,,,,,
275,UNION CITY FIRE STATION 33 APP BAY,33942 7TH ST  UNION CITY 94587,37.59778,-122.01586,,,,,,,
276,CONGREGATION BETH EMEK SOCIAL HALL,3400 NEVADA CT  PLEASANTON 94566,37.66717,-121.8559,,,,,,,
277,UNION CITY LIBRARY MTG RM 1,34007 ALVARADO-NILES RD  UNION CITY 94587,37.58811,-122.02718,,,,,,,
278,COMMUNITY OF CHRIST FREMONT,34050 PASEO PADRE PKWY  FREMONT 94555,37.57629,-122.04064,,,,,,,
279,EDUCATION SERV CENTER  BOARD RM C,34200 ALVARADO-NILES RD BUS.  UNION CITY 94587,37.58876,-122.02482,,,,,,,
280,FOREST PARK ELEM SCH MPR,34400 MAYBIRD CIR BUS.  FREMONT 94555,37.562,-122.05225,,,,,,,
281,MASONIC HOMES OF CALIFORNIA,34400 MISSION BLVD  UNION CITY 94587,37.59908,-122.00427,,,,,,,
282,ROSEWOOD GARDENS THE CLUBHOUSE,35 FENTON ST  LIVERMORE 94550,37.67731,-121.7841,,,,,,,
283,FIRE STATION 30 DOCK,35000 EASTIN CT  UNION CITY 94587,37.56576,-122.0695,,,,,,,
284,LAKE SHORE AVE BAPT CHURCH LOBBY,3518 LAKE SHORE AVE  OAKLAND 94610,37.81204,-122.2413,,,,,,,
285,LAKE SHORE AVE BAPT CH BARNETT HALL,3518 LAKE SHORE AVE  OAKLAND 94610,37.81204,-122.2413,,,,,,,
286,NEWARK GARDEN I MEETING RM,35300 CEDAR BLVD  NEWARK 94560,37.54959,-122.04428,,,,,,,
287,LAKE SHORE AVE BAPT CH BARNETT HALL,3534 LAKE SHORE AVE  OAKLAND 94610,37.81173,-122.24141,,,,,,,
288,HOME OF CHRIST CHURCH,35487 DUMBARTON CT  NEWARK 94560,37.54698,-122.05329,,,,,,,
289,HOLY REDEEMER LUTH CHURCH,35660 CEDAR BLVD  NEWARK 94560,37.55112,-122.03913,,,,,,,
290,MACGREGOR SCHOOL ROOM 6,35753 CEDAR BLVD  NEWARK 94560,37.54978,-122.03733,,,,,,,
291,FIRE STATION 29  APPARATUS BAY,35757 RUSCHIN DR  NEWARK 94560,37.54611,-122.04057,,,,,,,
292,JOAQUIN MILLER CENTER ASSEMBLY RM1,3594 SANBORN DR BUS.  OAKLAND 94602,37.81028,-122.18409,,,,,,,
293,FIRE STATION 2,360 W HARDER RD BUS.  HAYWARD 94544,37.64754,-122.08645,,,,,,,
294,CASTRO VALLEY LIBRARY,3600 NORBRIDGE AVE  CASTRO VALLEY 94546,37.69298,-122.07105,,,,,,,
295,AEGIS GARDENS RETIRE COMMUNITY,36281 FREMONT BLVD  FREMONT 94536,37.56338,-122.01924,,,,,,,
296,ALDER AVE BAPTIST CHURCH  EDUCATION BLDG,36281 FREMONT BLVD  FREMONT 94536,37.56338,-122.01924,,,,,,,
297,STUDIO ONE ART CENTER THEATER,365 45TH ST  OAKLAND 94609,37.8327,-122.2571,,,,,,,
298,NILES DISCOVERY CHURCH,36600 NILES BLVD  FREMONT 94536,37.57949,-121.98894,,,,,,,
299,ST PASCHAL BAYLON CATHOLIC CH GYM,3700 DORISA AVE  OAKLAND 94605,37.75743,-122.14566,,,,,,,
300,ST JAMES EPISCOPAL CH PARISH HALL,37051 CABRILLO TER  FREMONT 94536,37.55139,-122.01715,,,,,,,
301,ALLENDALE REC CENTER MULTI-PURPOSE RM,3711 SUTER ST  OAKLAND 94619,37.78994,-122.20323,,,,,,,
302,ST LAWRENCE O'TOOLE ROMAN CATHOLIC CH,3725 HIGH ST  OAKLAND 94619,37.78904,-122.1925,,,,,,,
303,HOLY SPIRIT CATH CH DE SOUSA HOUSE,37588 FREMONT BLVD  FREMONT 94536,37.55712,-122.00351,,,,,,,
304,FAMILY BIBLE FELLOWSHIP CH MPR,37620 FILBERT ST  NEWARK 94560,37.52341,-122.03464,,,,,,,
305,BETH JACOB CONGREGATION,3778 PARK BLVD AVE  OAKLAND 94610,37.80424,-122.23007,,,,,,,
306,CORPUS CHRISTI CHURCH GYM,37981 2ND ST  FREMONT 94536,37.57476,-121.9759,,,,,,,
307,CARLTON PLAZA MULTI-USE RM,3800 WALNUT AVE  FREMONT 94538,37.54724,-121.98041,,,,,,,
308,CENTERVILLE LIBRARY  MEETING ROOM,3801 NICOLET AVE  FREMONT 94536,37.568,-122.02226,,,,,,,
309,UNITED CHURCH OF CHRIST FREMONT,38255 BLACOW RD  FREMONT 94536,37.54048,-122.00778,,,,,,,
310,CEDAR CHURCH FELLOWSHIP HALL,38325 CEDAR BLVD  NEWARK 94560,37.53219,-122.01142,,,,,,,
311,SGI-USA BUDDHIST CTR MAIN HALL,3834 OPAL ST  OAKLAND 94609,37.82702,-122.25888,,,,,,,
312,FREMONT VILLAGE ACTIVITY RM,38801 HASTINGS ST  FREMONT 94536,37.55332,-121.98583,,,,,,,
313,REDWOOD HEIGHTS REC CTR CRAFT RM,3883 ALISO AVE BUS.  OAKLAND 94619,37.79805,-122.18706,,,,,,,
314,PILGRIM LUTHERAN CH HALL,3900 35TH AVE  OAKLAND 94619,37.79587,-122.19649,,,,,,,
315,BEEBE MEMORIAL CATH CH GYM,3900 TELEGRAPH AVE  OAKLAND 94609,37.8281,-122.2645,,,,,,,
316,SAN LORENZO LIBRARY GREEN HOUSE COMM RM,395 PASEO GRANDE  SAN LORENZO 94580,37.68106,-122.12595,,,,,,,
317,RESURRECTION LUTH CH MULTI-USE RM,396 EUCLID AVE  OAKLAND 94610,37.81125,-122.25125,,,,,,,
318,FREMONT FIRE STATION 9,39609 STEVENSON PL  FREMONT 94539,37.55767,-121.95775,,,,,,,
319,FORERUNNER CHRISTIAN CH RM 15,39620 SUNDALE DR  FREMONT 94538,37.53302,-121.98543,,,,,,,
320,RESURRECTION LUTH CH MULTI-USE RM,397 EUCLID AVE  OAKLAND 94610,37.81103,-122.25181,,,,,,,
321,FREMONT CENTRAL PARK TEEN CTR,39770 PASEO PADRE PKWY  FREMONT 94538,37.54874,-121.96899,,,,,,,
322,FREMONT ROUNDTREE  CLUBHOUSE,39900 FARWELL DR  FREMONT 94538,37.5248,-121.98843,,,,,,,
323,ORIENTATION CENTER FOR THE BLIND,400 ADAMS ST  ALBANY 94706,37.89786,-122.30263,,,,,,,
324,ST AUGUSTINE CHURCH LOBBY,400 ALCATRAZ AVE  OAKLAND 94609,37.85085,-122.25699,,,,,,,
325,TRANSFIGURATION CHURCH HALL-MARIAN RM,4000 E CASTRO VALLEY BLVD  CASTRO VALLEY 94552,37.69736,-122.05143,,,,,,,
326,FIRST COVENANT CHURCH LOBBY,4000 REDWOOD RD  OAKLAND 94619,37.79883,-122.18323,,,,,,,
327,ST ELIZABETH SETON GYM,4001 STONERIDGE DR BUS.  PLEASANTON 94588,37.68736,-121.87371,,,,,,,
328,SHEPHERD OF THE HILLS LUTH CH,401 GRIZZLY PEAK BLVD  BERKELEY 94708,37.90393,-122.26922,,,,,,,
329,PIEDMONT VETERANS MEMORIAL BLDG,401 HIGHLAND AVE  PIEDMONT 94611,37.82459,-122.23235,,,,,,,
330,GRAND LAKE GARDENS RESIDENT LOUNGE,401 SANTA CLARA AVE  OAKLAND 94610,37.81312,-122.24904,,,,,,,
331,CHAPEL CORNER SENIOR APARTMENTS,40455 CHAPEL WAY  FREMONT 94538,37.53772,-121.95958,,,,,,,
332,FREMONT FIRE STATION 3,40700 CHAPEL WAY  FREMONT 94538,37.53587,-121.96095,,,,,,,
333,ALOFT HOTEL DUBLIN - PLEASANTON,4075 GRAFTON ST  DUBLIN 94568,37.70357,-121.86477,,,,,,,
334,PARADISE BALLROOMS LOBBY SIDE A,4100 PERALTA BLVD  FREMONT 94536,37.55627,-122.00687,,,,,,,
335,PARADISE BALLROOMS LOBBY SIDE B,4100 PERALTA BLVD  FREMONT 94536,37.55627,-122.00687,,,,,,,
336,PARK BLVD PRESBY CH ENTER HAMPEL,4101 PARK BLVD  OAKLAND 94602,37.80663,-122.22476,,,,,,,
337,REALTY EXPERTS LOBBY,41051 MISSION BLVD  FREMONT 94539,37.54997,-121.94078,,,,,,,
338,GARAGE,4111 HARBOR VIEW AVE  OAKLAND 94619,37.79247,-122.18833,,,,,,,
339,CROSSROADS CHURCH  WORSHIP CENTER,41386 FREMONT BLVD  FREMONT 94538,37.52937,-121.95766,,,,,,,
340,BESARO MOBILE PARK  SOCIAL HALL,4141 DEEP CREEK RD  FREMONT 94555,37.57765,-122.05467,,,,,,,
341,GARAGE,4145 CHURCHILL DR  PLEASANTON 94588,37.69578,-121.87283,,,,,,,
342,IRVINGTON PRESBY CH SOCIAL HALL,4181 IRVINGTON AVE  FREMONT 94538,37.53144,-121.9626,,,,,,,
343,IRVINGTON LIBRARY,41825 GREENPARK DR  FREMONT 94538,37.52198,-121.96477,,,,,,,
344,FREMONT FIRE STATION 1,4200 MOWRY AVE  FREMONT 94538,37.5449,-121.99063,,,,,,,
345,TEMPLE BETH TORAH SOCIAL HALL,42000 PASEO PADRE PKWY  FREMONT 94539,37.53592,-121.93793,,,,,,,
346,The WAVE,4201 Central Pkwy  Dublin 94568,37.71131,-121.87547,,,,,,,
347,THE WAVE WATER PARK COMMUNITY RM 2,4201 CENTRAL PKWY  DUBLIN 94568,37.71131,-121.87547,,,,,,,
348,BETHEL BAPTIST CH FELLOWSHIP HALL,4216 DYER ST  UNION CITY 94587,37.58718,-122.07125,,,,,,,
349,PLYMOUTH UNITED CH FIRESIDE RM,424 MONTE VISTA AVE  OAKLAND 94611,37.82165,-122.24821,,,,,,,
350,ISLAMIC CENTER OF FREMONT SIDE B,42412 ALBRAE ST  FREMONT 94538,37.50929,-121.9718,,,,,,,
351,ISLAMIC CENTER OF FREMONT SIDE A,42412 ALBRAE ST  FREMONT 94538,37.50929,-121.9718,,,,,,,
352,FAIRWAY PARK BAPT CH GYM SIDE B,425 GRESEL ST  HAYWARD 94544,37.61789,-122.03491,,,,,,,
353,FAIRWAY PARK BAPT CH GYM SIDE A,425 GRESEL ST  HAYWARD 94544,37.61789,-122.03491,,,,,,,
354,SEQUOYAH COMM CH RM 202,4292 KELLER AVE  OAKLAND 94605,37.76971,-122.1516,,,,,,,
355,FAITH PRESBYTERIAN CHURCH SOCIAL HALL,430 49TH ST  OAKLAND 94609,37.83577,-122.26005,,,,,,,
356,IMMANUEL PRESBYTERIAN CH LOBBY,4333 HANSEN AVE  FREMONT 94536,37.55581,-122.01231,,,,,,,
357,SOUTHLAKE PARK MOBILE HOME  REC BLDG,4343 AUTO MALL PKWY  FREMONT 94538,37.51079,-121.95843,,,,,,,
358,OHLONE COLLEGE BLDG 19B HR CONFERENCE RM,43600 MISSION BLVD  FREMONT 94539,37.53166,-121.91143,,,,,,,
359,ORANGE KETTLEBELL CLUB,4425 LINDEN ST  OAKLAND 94608,37.8348,-122.27607,,,,,,,
360,AMADOR RECREATION CENTER,4443 BLACK AVE  PLEASANTON 94566,37.67225,-121.87534,,,,,,,
361,UNION CITY TOWNHOUSE ASSN  CLBHS,4444 CASTILLE CT  UNION CITY 94587,37.58985,-122.07957,,,,,,,
362,MEMORIAL BAPTIST CHURCH,4467 STEVENSON BLVD  FREMONT 94538,37.53664,-121.9792,,,,,,,
363,TRI-VALLEY CH OF CHRIST FAMILY LIFE CTR,4481 EAST AVE BUS.  LIVERMORE 94550,37.68501,-121.76692,,,,,,,
364,VINEYARD HILLS  CLUBHOUSE,44831 TROUT CT BUS.  FREMONT 94539,37.51263,-121.91793,,,,,,,
365,FIRE STATION 9 APP BAY,450 ESTUDILLO AVE  SAN LEANDRO 94577,37.72683,-122.15079,,,,,,,
366,THE POINT AT ROCKRIDGE  ACTIVITY RM,4500 GILBERT ST  OAKLAND 94611,37.83287,-122.25046,,,,,,,
367,PATHWAY COMM CH FELLOWSHIP HALL,4500 THORNTON AVE  FREMONT 94536,37.555,-122.01524,,,,,,,
368,FIRE STATION 6,4550 EAST AVE  LIVERMORE 94550,37.68028,-121.73954,,,,,,,
369,COMM REFORMED CHURCH OF OAKLAND,457 CAPISTRANO DR  OAKLAND 94603,37.7286,-122.17953,,,,,,,
370,OAKLAND FIRE STATION 28  APP RM,4615 GRASS VALLEY RD  OAKLAND 94605,37.75141,-122.12319,,,,,,,
371,GARAGE,467 KNOTTINGHAM CIR  LIVERMORE 94551,37.6922,-121.75628,,,,,,,
372,FREMONT ADULT SCHOOL MPR SIDE A,4700 CALAVERAS AVE  FREMONT 94538,37.53825,-121.99094,,,,,,,
373,FREMONT ADULT SCHOOL MPR SIDE B,4700 CALAVERAS AVE  FREMONT 94538,37.53825,-121.99094,,,,,,,
374,ASCENSION GREEK ORTHO CATH OAKLAND RM,4700 LINCOLN AVE  OAKLAND 94602,37.80984,-122.20059,,,,,,,
375,ASCENSION GREEK ORTHO CATH RICHMOND RM,4700 LINCOLN AVE  OAKLAND 94602,37.80984,-122.20059,,,,,,,
376,THE CHURCH OF JESUS CHRIST AND LDS GYM,4705 VIRGINIA AVE  OAKLAND,37.78131,-122.197,,,,,,,
377,GARAGE,4724 REINHARDT DR  OAKLAND 94619,37.78758,-122.18186,,,,,,,
378,WARM SPRINGS COMMUNITY CENTER SIDE A,47300 FERNALD ST  FREMONT 94539,37.48591,-121.92249,,,,,,,
379,WARM SPRINGS COMMUNITY CENTER SIDE B,47300 FERNALD ST  FREMONT 94539,37.48591,-121.92249,,,,,,,
380,ECCL ROOM A100,4731 SAN PABLO AVE  EMERYVILLE 94608,37.8369,-122.28208,,,,,,,
381,ASBURY UNITED METHODIST CHURCH,4743 EAST AVE  LIVERMORE 94550,37.67891,-121.737,,,,,,,
382,FIRE STATION 18,4800 FALLON RD  LIVERMORE 94550,37.71498,-121.85444,,,,,,,
383,MELROSE BRANCH LIBRARY SIDE A,4805 FOOTHILL BLVD  OAKLAND 94601,37.77242,-122.20755,,,,,,,
384,MELROSE BRANCH LIBRARY SIDE B,4805 FOOTHILL BLVD  OAKLAND 94601,37.77242,-122.20755,,,,,,,
385,SANTA RITA PUBLIC WORKS CONF RM,4825 GLEASON DR  DUBLIN 94568,37.71423,-121.88254,,,,,,,
386,GARAGE,48970 VENTURA DR  FREMONT 94539,37.46696,-121.90068,,,,,,,
387,ECHO CHURCH LOBBY,48989 MILMONT DR  FREMONT 94538,37.45985,-121.92173,,,,,,,
388,MILLS COLLEGE STUDENT UNION-RC180,5000 MACARTHUR BLVD  OAKLAND 94613,37.77737,-122.18423,,,,,,,
389,FREMONT FIRE STATION 10,5001 DEEP CREEK RD BUS.  FREMONT 94555,37.56603,-122.05156,,,,,,,
390,MISSION VALLEY ROP STUDENT LOUNGE RM 103,5019 STEVENSON BLVD BUS.  FREMONT 94538,37.52801,-121.98385,,,,,,,
391,LONGFELLOW PARK,520 LINCOLN AVE  ALAMEDA 94501,37.7749,-122.28101,,,,,,,
392,South Shore Mall,523 South Shore Center W  Alameda 94501,37.75659,-122.25147,,,,,,,
393,ST AUGUSTINES EPISCOPAL CHURCH,525 29TH ST  OAKLAND 94609,37.81827,-122.2682,,,,,,,
394,TELEGRAPH COMMUNITY CENTER,5316 TELEGRAPH AVE  OAKLAND 94609,37.83909,-122.26188,,,,,,,
395,GARAGE,5325 THERESA WAY  LIVERMORE 94550,37.68984,-121.7287,,,,,,,
396,PLEASANTON SENIOR CENTER,5353 SUNOL BLVD BUS.  PLEASANTON 94566,37.65279,-121.88083,,,,,,,
397,MILLS GROVE CHRISTIAN CH,5410 FLEMING AVE  OAKLAND 94619,37.7757,-122.19223,,,,,,,
398,CAMELIA PLACE COMMUNITY RM,5450 DE MARCUS BLVD  DUBLIN 94568,37.70541,-121.90028,,,,,,,
399,FREMONT FIRE STATION 5,55 HACKAMORE LN  FREMONT 94539,37.4849,-121.92584,,,,,,,
400,TRINITY BAPT CH BLDG A FOYER,557 OLIVINA AVE  LIVERMORE 94551,37.68161,-121.79398,,,,,,,
401,BUSHROD REC CENTER GYM,560 59TH ST  OAKLAND 94609,37.84545,-122.26339,,,,,,,
402,GOLDEN GATE BRANCH LIBRARY,5606 SAN PABLO AVE  OAKLAND 94608,37.83919,-122.2822,,,,,,,
403,MONTCLAIR PRESBY CH FAMILY ROOM,5701 THORNHILL DR  OAKLAND 94611,37.83414,-122.21314,,,,,,,
404,NORTH OAKLAND SENIOR CENTER,5714 MARTIN LUTHER KING JR WAY  OAKLAND 94609,37.84287,-122.26925,,,,,,,
405,MUSLIM COMM CTR EAST BAY BANQUET HALL,5724 W LAS POSITAS BLVD  PLEASANTON 94588,37.68555,-121.89121,,,,,,,
406,OAKLAND FIRE STATION 19 APP BAY,5776 MILES AVE  OAKLAND 94618,37.84607,-122.24974,,,,,,,
407,ST EDWARDS  CATHOLIC CH SIDE A,5788 THORNTON AVE  NEWARK 94560,37.53956,-122.02767,,,,,,,
408,ST EDWARDS  CATHOLIC CH SIDE B,5788 THORNTON AVE  NEWARK 94560,37.53956,-122.02767,,,,,,,
409,ST EDWARDS  CATHOLIC CH SIDE D,5788 THORNTON AVE  NEWARK 94560,37.53956,-122.02767,,,,,,,
410,ST EDWARDS  CATHOLIC CH SIDE C,5788 THORNTON AVE  NEWARK 94560,37.53956,-122.02767,,,,,,,
411,GARAGE,5789 GOLD CREEK DR  CASTRO VALLEY 94552,37.68792,-122.03523,,,,,,,
412,RAINBOW REC CENTER,5800 INTERNATIONAL BLVD  OAKLAND 94621,37.76586,-122.20007,,,,,,,
413,CANAAN COVENANT CHRISTIAN CHURCH,5802 FOOTHILL BLVD  OAKLAND 94605,37.77212,-122.19161,,,,,,,
414,DUBLIN RANCH GOLF COURSE BANQUET HALL,5900 5900 SIGNAL HILL DR DR  DUBLIN 94568,37.72497,-121.85755,,,,,,,
415,OAKLAND FIRE STATION 24,5900 SHEPHERD CANYON RD  OAKLAND 94611,37.8235,-122.20343,,,,,,,
416,RIDGEVIEW HOPE CHURCH,5901 CORONADO LN  PLEASANTON,37.68336,-121.90075,,,,,,,
417,SOJOURNER TRUTH MANOR REC AREA,5915 MARTIN LUTHER KING JR WAY  OAKLAND 94609,37.84461,-122.27102,,,,,,,
418,COLLEGE PRESBY CH RECEPTION RM,5951 COLLEGE AVE  OAKLAND 94618,37.84804,-122.25249,,,,,,,
419,ROTARY NATURE CENTER  SIDE RM,600 BELLEVUE AVE  OAKLAND 94610,37.80719,-122.25598,,,,,,,
420,NEW HAVEN ADULT SCHOOL MPR,600 G ST  UNION CITY 94587,37.59991,-122.01995,,,,,,,
421,GARAGE,6001 ESTATES DR  OAKLAND 94611,37.83024,-122.21837,,,,,,,
422,ST PETERS CHURCH MEETING RM,6013 LAWTON AVE  OAKLAND 94618,37.84407,-122.24576,,,,,,,
423,SOJOURNER TRUTH MANOR REC AREA,6015 MARTIN LUTHER KING JR WAY  OAKLAND 94609,37.84537,-122.27119,,,,,,,
424,DOWNS MEMORIAL METHODIST CHURCH,6026 IDAHO ST  OAKLAND 94608,37.84412,-122.28041,,,,,,,
425,GARAGE,618 SANTA BARBARA RD  BERKELEY 94707,37.89924,-122.27361,,,,,,,
426,GARAGE,628 BOULEVARD WAY  OAKLAND 94610,37.81684,-122.23838,,,,,,,
427,MONTCLAIR REC CENTER MPR,6300 MORAGA AVE  OAKLAND 94611,37.82962,-122.21289,,,,,,,
428,ALAMEDA COUNTY FIRE STATION NO. 35,6303 HOLLIS ST  EMERYVILLE 94608,37.84409,-122.29095,,,,,,,
429,GARAGE,6308 BENNER CT  PLEASANTON 94588,37.68925,-121.90671,,,,,,,
430,FIRST BAPTIST CHURCH HALL,6320 DAIRY AVE  NEWARK 94560,37.53552,-122.03427,,,,,,,
431,GARAGE,640 SANDALWOOD ISLE  ALAMEDA 94501,37.76376,-122.25719,,,,,,,
432,ST COLUMBAS CHURCH PARISH HALL,6401 SAN PABLO AVE  OAKLAND 94608,37.84652,-122.28526,,,,,,,
433,ST VARTAN ARMENIAN CHURCH,650 SPRUCE ST  OAKLAND 94610,37.80593,-122.23991,,,,,,,
434,NIEBLY-PROCTOR LIBRARY,6501 TELEGRAPH AVE  OAKLAND 94609,37.85111,-122.26076,,,,,,,
435,H A SNOW SCHOOL LIBRARY,6580 MIRABEAU DR  NEWARK 94560,37.54242,-122.0493,,,,,,,
436,LAKESIDE PARK GARDEN VISTA ROOM,666 BELLEVUE AVE  OAKLAND 94610,37.80714,-122.25861,,,,,,,
437,LAKESIDE PARK GARDEN EBELL RM,666 BELLEVUE AVE  OAKLAND 94610,37.80714,-122.25861,,,,,,,
438,ALAMEDA POINTS COLLABORATIVE,677 W RANGER AVE  ALAMEDA 94501,37.78485,-122.2991,,,,,,,
439,ST BARTHOLOMEWS EPISCOPAL CHURCH,678 ENOS WAY  LIVERMORE 94551,37.68958,-121.76901,,,,,,,
440,SILIMAN ACTIVITY CENTER,6800 MOWRY AVE  NEWARK 94560,37.51772,-122.01031,,,,,,,
441,PALOMARES HILLS REC CTR   SIDE A,6810 VILLAREAL DR  CASTRO VALLEY 94552,37.71376,-122.02915,,,,,,,
442,PALOMARES HILLS REC CTR   SIDE B,6811 VILLAREAL DR  CASTRO VALLEY 94552,37.70724,-122.03066,,,,,,,
443,FIRST UNITARIAN CH WENDTE HALL,685 14TH ST  OAKLAND 94612,37.80625,-122.27686,,,,,,,
444,LION CREEK CROSSING MPR 102,6888 LION WAY  OAKLAND 94621,37.75634,-122.19733,,,,,,,
445,CLAREDON HILL HOMEOWNERS ASSOCIATION,700 ALQUIRE PKWY  HAYWARD 94544,37.6316,-122.04493,,,,,,,
446,CALIFORNIA SHAKESPEARE THEATER,701 HEINZ AVE  BERKELEY 94710,37.85291,-122.29589,,,,,,,
447,INDEPENDENCE PLAZA COMM ROOM,703 ATLANTIC AVE  ALAMEDA 94501,37.77999,-122.27527,,,,,,,
448,OUR LADY OF THE ROSARY CHURCH,703 C ST  UNION CITY 94587,37.60362,-122.0253,,,,,,,
449,OAKLAND FIRE STATION 6,7080 COLTON BLVD  OAKLAND 94611,37.83984,-122.19782,,,,,,,
450,PIEDMONT COMMUNITY HALL  MAIN RM,711 HIGHLAND AVE  PIEDMONT 94611,37.82378,-122.23058,,,,,,,
451,NILES CANYON MOBILE ESTATES REC RM,711 OLD CANYON RD  FREMONT 94536,37.57712,-121.96615,,,,,,,
452,ST CLEMENTS CH  MC COLLUM HALL,738 CALHOUN ST  HAYWARD 94544,37.64297,-122.05924,,,,,,,
453,JOHN KNOX PRESBY CH FELLOWSHIP HALL,7421 AMARILLO RD  DUBLIN 94568,37.70513,-121.94216,,,,,,,
454,EAST OAKLAND DELIVERANCE CTR SOCIAL HALL,7425 INTERNATIONAL BLVD  OAKLAND 94621,37.75845,-122.18622,,,,,,,
455,DUBLIN UNIFIED SCH DISTRICT BOARDROOM,7471 LARKDALE AVE  DUBLIN 94568,37.71683,-121.93087,,,,,,,
456,ARROYO VIEJO REC SOCIAL HALL,7701 KRAUSE AVE  OAKLAND 94605,37.76183,-122.17611,,,,,,,
457,PRAISE FELLOWSHIP CHRISTIAN CH MPR,7711 MACARTHUR BLVD  OAKLAND 94605,37.76683,-122.16915,,,,,,,
458,CITY HALL ROTUNDA SIDE C,777 B ST  HAYWARD 94541,37.67098,-122.0857,,,,,,,
459,CITY HALL ROTUNDA SIDE A,777 B ST  HAYWARD 94541,37.67098,-122.0857,,,,,,,
460,CITY HALL ROTUNDA SIDE B,777 B ST  HAYWARD 94541,37.67098,-122.0857,,,,,,,
461,GARAGE,7804 TURQUOISE ST  DUBLIN 94568,37.72171,-121.92058,,,,,,,
462,FORMOSAN UNITED METHODIST CH CHAPEL,788 LEWELLING BLVD  SAN LEANDRO 94579,37.68514,-122.14132,,,,,,,
463,GARAGE,7886 KELLY CANYON PL  DUBLIN 94568,37.70682,-121.98292,,,,,,,
464,THE WATERS EDGE LODGE CAFE,801 ISLAND DR  ALAMEDA 94502,37.7385,-122.23929,,,,,,,
465,GARAGE,816 LUCERNE ST  LIVERMORE 94551,37.6869,-121.79393,,,,,,,
466,EAST OAKLAND YOUTH DEVELOPMENT CTR,8200 INTERNATIONAL BLVD  OAKLAND 94621,37.75565,-122.17891,,,,,,,
467,SAN LEANDRO CITY HALL LOBBY,835 E 14TH ST  SAN LEANDRO 94577,37.72871,-122.15944,,,,,,,
468,REFUGE MINISTRIES,8400 ENTERPRISE WAY  OAKLAND 94621,37.74428,-122.19456,,,,,,,
469,LOVE TEMPLE MISSIONARY BAPTIST CHURCH,8401 BIRCH ST  OAKLAND 94621,37.75637,-122.17288,,,,,,,
470,CENTER OF HOPE COMM CH LOBBY,8411 MACARTHUR BLVD  OAKLAND 94605,37.7612,-122.16383,,,,,,,
471,SEVENTH DAY ADVENTIST CHURCH,842 CENTRAL AVE  ALAMEDA 94501,37.77106,-122.27084,,,,,,,
472,ALBANY SENIOR CENTER  LOBBY,846 MASONIC AVE  ALBANY 94706,37.89117,-122.29396,,,,,,,
473,ALLEN TEMPLE BAPTIST CHURCH HALL,8500 A ST  OAKLAND 94621,37.75248,-122.17895,,,,,,,
474,OUR SAVIOR LUTH CH PARISH HALL,858 WASHINGTON BLVD  FREMONT 94539,37.53058,-121.931,,,,,,,
475,FARGO SENIOR CENTER FIRST FLOOR LOUNGE,868 FARGO AVE  SAN LEANDRO 94579,37.68697,-122.14387,,,,,,,
476,UNITED LUTHERAN CHURCH FIRESIDE RM,8800 FONTAINE ST  OAKLAND 94605,37.76099,-122.15134,,,,,,,
477,CHRIST PRESBYTERIAN CHURCH NARTHEX,890 FARGO AVE  SAN LEANDRO 94579,37.6875,-122.14458,,,,,,,
478,TRUE VINE BAPTIST CHURCH GREAT ROOM,896 ISABELLA ST  OAKLAND 94607,37.8146,-122.27757,,,,,,,
479,IRA JINKINS COMMUNITY CENTER,9175 EDES AVE  OAKLAND 94603,37.73702,-122.19,,,,,,,
480,COMMUNITY ROOM,920 PARK ST  ALAMEDA 94501,37.75775,-122.2478,,,,,,,
481,ST MARY'S CENTER,925 BROCKHURST ST  OAKLAND 94608,37.82314,-122.27669,,,,,,,
482,EAST OAKLAND SENIOR CENTER,9255 EDES AVE  OAKLAND 94603,37.73734,-122.18857,,,,,,,
483,SPRINGTOWN AUDITORIUM,931 LARKSPUR DR  LIVERMORE 94551,37.70627,-121.74023,,,,,,,
484,OAKLAND FIRE STATION 5 APP BAY,934 34TH ST  OAKLAND 94608,37.82512,-122.27607,,,,,,,
485,OAKLAND HOUSING AUTHORITY,935 UNION ST  OAKLAND 94607,37.80694,-122.28971,,,,,,,
486,NORTHBRAE COMMUNITY CH  HAVER HALL,941 THE ALAMEDA  BERKELEY 94707,37.89046,-122.27644,,,,,,,
487,HILLSIDE ALLIANCE CHURCH,944 CENTRAL BLVD  HAYWARD 94542,37.65947,-122.0703,,,,,,,
488,SAN LORENZO COMM CH FIRESIDE RM,945 PASEO GRANDE  SAN LORENZO 94580,37.67752,-122.13477,,,,,,,
489,CREEKSIDE COMMUNITY CH  COMM RM,951 MACARTHUR BLVD  SAN LEANDRO 94577,37.73522,-122.14085,,,,,,,
490,LIVERMORE-PLEASANTON FIRE STATION 7,951 RINCON AVE  LIVERMORE 94551,37.68867,-121.78379,,,,,,,
491,PUBLIC WORKS ROOM 230,951 TURNER CT  HAYWARD 94545,37.64654,-122.0978,,,,,,,
492,VERDESE CARTER CENTER  MAIN RM,9600 SUNNYSIDE ST  OAKLAND 94603,37.74908,-122.16351,,,,,,,
493,AEOLIAN YACHT CLUB GROUND FLOOR,980 FERNSIDE BLVD  ALAMEDA 94501,37.75066,-122.23539,,,,,,,
494,ROOTS COMMUNITY HEALTH CENTER,9925 INTERNATIONAL BLVD  OAKLAND 94603,37.7434,-122.17013,,,,,,,
495,LIBERTY HILL BAPTIST CHURCH,997 UNIVERSITY AVE  BERKELEY 94710,37.86892,-122.29474,,,,,,,
496,BERKELEY  FIRE STATION 6,999 CEDAR ST  BERKELEY 94710,37.87492,-122.29671,,,,,,,
497,Southland Mall,One Southland Mall   Hayward 94545,37.65119,-122.1022,,,,,,,
