Unnamed: 0,name,address,lat,lon,Unnamed: 0.1,State,Locality,Precincts (Or Locality-wide),Is Early Voting,Is Drop Off,manual
1106,San Ramon Valley United Methodist Church,"902 Danville Blvd, Alamo, CA 94507, USA",37.83555,-122.01664,1106.0,CA,CONTRA COSTA COUNTY,"Alamo102, Alamo106, Alamo801, Alamo802, Alamo803, Alamo804, Alamo805, Alamo806, Alamo807, Alamo808, Alamo809, Alamo810, Alamo811",False,False,1.0
1107,Stone Valley Rd Chapel - LDS,"2949 Stone Valley Rd, Alamo, CA 94507, USA",37.8439,-121.98739,1107.0,CA,CONTRA COSTA COUNTY,"Alamo103, Alamo104, Alamo105, Alamo109, Alamo110, Alamo111, Alamo112, MountDiablo801, MountDiablo802, MountDiablo101",False,False,1.0
1108,Martinez United Methodist Church,"100 Church St, Martinez, CA 94553, USA",37.98602,-122.12248,1108.0,CA,CONTRA COSTA COUNTY,"Alhambra101, Alhambra801, Alhambra802, Alhambra803, Alhambra804, Alhambra805, Alhambra806, Martinez802, Martinez803, Martinez804, Martinez805, Martinez848, Martinez829, Martinez840, Martinez850, Martinez843, Martinez844, Martinez845, Martinez846, Martinez847, Pacheco801",False,False,1.0
1109,Nick Rodriguez Center,"213 F St, Antioch, CA 94509, USA",38.01653,-121.81231,1109.0,CA,CONTRA COSTA COUNTY,"Antioch101, Antioch103, Antioch114, Antioch115, Antioch820",False,False,1.0
1110,Somersville Town Center,"2550 Somersville Rd, Antioch, CA 94509, USA",38.00158,-121.84263,1110.0,CA,CONTRA COSTA COUNTY,Antioch102,False,False,1.0
1111,Opportunity Junction,"3102 Delta Fair Blvd, Antioch, CA 94509, USA",38.00198,-121.83767,1111.0,CA,CONTRA COSTA COUNTY,"Antioch104, Antioch147",False,False,1.0
1112,Rio Grande Chapel - LDS,"3015 Rio Grande Dr, Antioch, CA 94509, USA",37.99056,-121.82806,1112.0,CA,CONTRA COSTA COUNTY,"Antioch119, Antioch105, Antioch107, Antioch108, Antioch110, Antioch111, Antioch112, Antioch810, Antioch822, Antioch816, BlackDiamond804",False,False,1.0
1113,John Muir Elementary,"615 Greystone Dr, Antioch, CA 94509, USA",37.9768,-121.79602,1113.0,CA,CONTRA COSTA COUNTY,"Antioch120, Antioch156, Antioch125, Antioch126, Antioch804, Antioch807, Antioch808",False,False,1.0
1114,Dallas Ranch Middle School,"1401 Mt Hamilton Dr, Antioch, CA 94531, USA",37.96864,-121.7986,1114.0,CA,CONTRA COSTA COUNTY,"Antioch121, Antioch122, Antioch109",False,False,1.0
1115,Antioch Water Park,"4701 Lone Tree Way, Antioch, CA 94531, USA",37.96554,-121.77274,1115.0,CA,CONTRA COSTA COUNTY,"Antioch123, Antioch124, Antioch157, Antioch106, Antioch803, Antioch141, Antioch819, Antioch144, Antioch145, Antioch805, Antioch154, Antioch809, Antioch814, Antioch815, Antioch824, Antioch825",False,False,1.0
1116,Golden Hills Community Church - Antioch,"1800 Woodland Dr, Antioch, CA 94509, USA",38.00472,-121.79847,1116.0,CA,CONTRA COSTA COUNTY,"Antioch128, Antioch116, Antioch811, Antioch812, Antioch813",False,False,1.0
1117,Grace Bible Fellowship of Antioch,"3415 Oakley Rd, Antioch, CA 94509, USA",37.99895,-121.75703,1117.0,CA,CONTRA COSTA COUNTY,"Antioch130, Antioch823",False,False,1.0
1118,Black Diamond Middle School,"4730 Sterling Hill Dr, Antioch, CA 94531, USA",37.96946,-121.76794,1118.0,CA,CONTRA COSTA COUNTY,"Antioch135, Antioch136, Antioch137, Antioch151, Antioch821",False,False,1.0
1119,St John's Lutheran Church,"1360 E Tregallas Rd, Antioch, CA 94509, USA",37.99495,-121.78639,1119.0,CA,CONTRA COSTA COUNTY,"Antioch155, Antioch131, Antioch132, Antioch134, Antioch117, Antioch150, Antioch806, Antioch153",False,False,1.0
1120,Carmen Dragon Elementary,"4721 Vista Grande Dr, Antioch, CA 94531, USA",37.96587,-121.75294,1120.0,CA,CONTRA COSTA COUNTY,"Antioch801, Antioch138, Antioch152",False,False,1.0
1121,Lone Tree Elementary School,"1931 Mokelumne Dr, Antioch, CA 94531, USA",37.96218,-121.78921,1121.0,CA,CONTRA COSTA COUNTY,"Antioch802, Antioch142, Antioch143",False,False,1.0
1122,Antioch Middle School,"1500 D St, Antioch, CA 94509, USA",38.00667,-121.81101,1122.0,CA,CONTRA COSTA COUNTY,"Antioch817, Antioch818, Antioch113, Antioch148, Fairgrounds801",False,False,1.0
1123,St Demetrios Greek Orthodox Church,"1955 Kirker Pass Rd, Concord, CA 94521, USA",37.96218,-121.94398,1123.0,CA,CONTRA COSTA COUNTY,"AyersRanch801, AyersRanch802, AyersRanch803, Concord135, Concord136, Concord159, Concord804",False,False,1.0
1124,Ambrose Community Center,"3105 Willow Pass Rd, Bay Point, CA 94565, USA",38.02625,-121.94918,1124.0,CA,CONTRA COSTA COUNTY,"BayPoint102, BayPoint103, BayPoint104, BayPoint101, BayPoint108, BayPoint801",False,False,1.0
1125,The Bay Church,"4725 Evora Rd, Bay Point, CA 94565, USA",38.02308,-121.9825,1125.0,CA,CONTRA COSTA COUNTY,"BayPoint802, BayPoint105, BayPoint106, BayPoint107, Baypoint109, Nichols801",False,False,1.0
1126,Scout Hall,"3090 Ranch Ln, Bethel Island, CA 94511, USA",38.01493,-121.63887,1126.0,CA,CONTRA COSTA COUNTY,"BethelIsland807, BethelIsland804, BethelIsland102, BethelIsland801, BethelIsland802, BethelIsland805, BethelIsland803, BethelIsland806",False,False,1.0
1127,Cornerstone Fellowship - Brentwood,"6641 Lone Tree Way, Brentwood, CA 94513, USA",37.96138,-121.72936,1127.0,CA,CONTRA COSTA COUNTY,"BlackDiamond805, BlackDiamond801, BlackDiamond802, Brentwood101, Brentwood103, Brentwood104, Brentwood105, Brentwood113, Brentwood114, Brentwood115, Brentwood116, Brentwood129, Brentwood132",False,False,1.0
1128,Diablo Country Club,"1700 Club House Rd, Danville, CA 94526, USA",37.83617,-121.95791,1128.0,CA,CONTRA COSTA COUNTY,"BlackHawk101, BlackHawk102, BlackHawk106, BlackHawk109, BlackHawk801, BlackHawk802, Diablo101",False,False,1.0
1129,Blackhawk Country Club,"3521 Country Club Pl, Blackhawk, CA 94506, USA",37.80911,-121.8905,1129.0,CA,CONTRA COSTA COUNTY,"BlackHawk103, BlackHawk104, BlackHawk105, BlackHawk107, BlackHawk108, Tassajara802, Tassajara803, Tassajara805, Tassajara806",False,False,1.0
1130,The Rock Church- Brentwood,"1770 Adams Ln, Brentwood, CA 94513, USA",37.95358,-121.70485,1130.0,CA,CONTRA COSTA COUNTY,"Brentwood107, Brentwood110, Brentwood111",False,False,1.0
1131,Club Los Meganos,"1700 Trilogy Pkwy, Brentwood, CA 94513, USA",37.89894,-121.72939,1131.0,CA,CONTRA COSTA COUNTY,"Brentwood121, Brentwood126, Brentwood127, Brentwood128",False,False,1.0
1132,Brentwood Bible Fellowship,"3415 Walnut Blvd, Brentwood, CA 94513, USA",37.92421,-121.69661,1132.0,CA,CONTRA COSTA COUNTY,"Brentwood122, Brentwood123, Brentwood124, Brentwood125",False,False,1.0
1133,Golden Hills Community Church - Brentwood,"2401 Shady Willow Ln, Brentwood, CA 94513, USA",37.96016,-121.73843,1133.0,CA,CONTRA COSTA COUNTY,"Brentwood801, Brentwood106, Brentwood808, Brentwood109, Brentwood809, Brentwood810, Brentwood130",False,False,1.0
1134,Brentwood Community Center,"35 Oak St, Brentwood, CA 94513, USA",37.93456,-121.69277,1134.0,CA,CONTRA COSTA COUNTY,"Brentwood802, Brentwood803, Brentwood806, Brentwood807, Brentwood108, Brentwood112, Brentwood120, Brentwood131, Brentwood133",False,False,1.0
1135,Mc Clarren Chapel - LDS,"1101 McClarren Rd, Brentwood, CA 94513, USA",37.92971,-121.70766,1135.0,CA,CONTRA COSTA COUNTY,"Brentwood804, Brentwood117, Brentwood118, Brentwood119, Brentwood134, Brentwood135",False,False,1.0
1136,Seventh Day Adventist Church - Pleasant Hill,"800 Grayson Rd, Pleasant Hill, CA 94523, USA",37.94621,-122.08878,1136.0,CA,CONTRA COSTA COUNTY,"BrionesHills102, BrionesHills801, BrionesHills802, BrionesHills803, BrionesHills804, BrionesHills805",False,False,1.0
1137,Excelsior School,"14401 Byron Hwy, Discovery Bay, CA 94514, USA",37.87616,-121.64051,1137.0,CA,CONTRA COSTA COUNTY,"Byron101, Byron801, Byron802, Byron803, MarshCreek801, MarshCreek802, MarshCreek803",False,False,1.0
1138,Holy Shepherd Lutheran Church,"433 Moraga Way, Orinda, CA 94563, USA",37.86033,-122.16365,1138.0,CA,CONTRA COSTA COUNTY,"Caldecott801, Canyon801, Orinda101, Orinda104, Orinda107",False,False,1.0
1139,North Gate Rd Chapel - LDS,"100 N Gate Rd, Walnut Creek, CA 94598, USA",37.9137,-122.00409,1139.0,CA,CONTRA COSTA COUNTY,"CastleRock801, WalnutCreek138, WalnutCreek118, WalnutCreek119, WalnutCreek139, WalnutCreek130, WalnutCreek132",False,False,1.0
1140,Clayton Endeavor Hall,"6008 Center St, Clayton, CA 94517, USA",37.94027,-121.93653,1140.0,CA,CONTRA COSTA COUNTY,"Clayton102, Clayton103, Clayton101",False,False,1.0
1141,Oakhurst Country Club,"1001 Peacock Creek Dr, Clayton, CA 94517, USA",37.94139,-121.92703,1141.0,CA,CONTRA COSTA COUNTY,"Clayton104, Clayton105, Clayton106, BrionesValley801, BrionesValley802, Clayton107, BrionesValley803, BrionesValley804, BrionesValley805",False,False,1.0
1142,New Hope Church,"2120 Olivera Ct, Concord, CA 94520, USA",37.99725,-122.04139,1142.0,CA,CONTRA COSTA COUNTY,"Clyde801, Clyde802, Concord101, Concord102, Concord103, Concord104, Concord105, Concord106, Concord802, Concord803, Concord824, Tesoro801",False,False,1.0
1143,First Christian Church - Concord,"3039 Willow Pass Rd, Concord, CA 94519, USA",37.98116,-122.0227,1143.0,CA,CONTRA COSTA COUNTY,"Concord107, Concord108, Concord109, Concord805, Concord806, Concord808",False,False,1.0
1144,First Lutheran Church,"4000 Concord Blvd, Concord, CA 94519, USA",37.97725,-121.99814,1144.0,CA,CONTRA COSTA COUNTY,"Concord113, Concord114, Concord122, Concord115, Concord809",False,False,1.0
1145,Concord Historical Society,"1928 Clayton Rd, Concord, CA 94520, USA",37.97353,-122.03531,1145.0,CA,CONTRA COSTA COUNTY,"Concord116, Concord118, Concord166, Concord801, Concord825",False,False,1.0
1146,Harvest House - Suite K,"2395 Monument Blvd, Concord, CA 94520, USA",37.95962,-122.03532,1146.0,CA,CONTRA COSTA COUNTY,"Concord117, Concord147, Concord813",False,False,1.0
1147,Bethel Baptist Church,"3578 Clayton Rd, Concord, CA 94519, USA",37.96981,-122.01026,1147.0,CA,CONTRA COSTA COUNTY,"Concord119, Concord124, Concord127, Concord810",False,False,1.0
1148,Concord Blvd Chapel - LDS,"3700 Concord Blvd, Concord, CA 94519, USA",37.97716,-122.00715,1148.0,CA,CONTRA COSTA COUNTY,"Concord120, Concord121, Concord112, Concord807",False,False,1.0
1149,Concord High School,"4200 Concord Blvd, Concord, CA 94521, USA",37.97839,-121.98759,1149.0,CA,CONTRA COSTA COUNTY,"Concord130, Concord123, Concord133, Concord128, Concord129, Concord134",False,False,1.0
1150,Valley Christian Church,"1411 La Vista Ave, Concord, CA 94521, USA",37.96614,-122.0052,1150.0,CA,CONTRA COSTA COUNTY,"Concord132, Concord125, Concord126, Concord140",False,False,1.0
1151,Clayton Valley Charter High School,"1101 Alberta Way, Concord, CA 94521, USA",37.95024,-121.96947,1151.0,CA,CONTRA COSTA COUNTY,"Concord139, Concord131, Concord137, Concord138",False,False,1.0
1152,Walnut Country - Clubhouse,"4465 S Larwin Ave, Concord, CA 94521, USA",37.94867,-121.9869,1152.0,CA,CONTRA COSTA COUNTY,"Concord141, Concord144, Concord168, Concord811, Concord812, Concord823",False,False,1.0
1153,Refuge Church,"1187 Meadow Ln, Concord, CA 94520, USA",37.95934,-122.04233,1153.0,CA,CONTRA COSTA COUNTY,"Concord145, Concord146",False,False,1.0
1154,Willow Creek Center,"1026 Mohr Ln, Concord, CA 94518, USA",37.94425,-122.04335,1154.0,CA,CONTRA COSTA COUNTY,"Concord150, Concord163, Concord165, Concord817",False,False,1.0
1155,Fair Oaks Church,"1925 Risdon Rd, Concord, CA 94518, USA",37.94463,-122.03418,1155.0,CA,CONTRA COSTA COUNTY,"Concord154, Concord149, Concord152, Concord164, Concord814, Concord818, Concord819, Concord820, Concord821",False,False,1.0
1156,Holy Cross Lutheran Church,"1092 Alberta Way, Concord, CA 94521, USA",37.94689,-121.96846,1156.0,CA,CONTRA COSTA COUNTY,"Concord156, Concord161",False,False,1.0
1157,Contra Costa Farm Bureau Building,"5554 Clayton Rd, Concord, CA 94521, USA",37.94883,-121.95189,1157.0,CA,CONTRA COSTA COUNTY,"Concord158, Concord157, Concord160, Concord167, Concord822",False,False,1.0
1158,El Rancho Restaurant,"1450 Monument Blvd, Concord, CA 94520, USA",37.95189,-122.04455,1158.0,CA,CONTRA COSTA COUNTY,"Concord815, Concord816",False,False,1.0
1159,Crockett Community Auditorium,"850 Pomona St, Crockett, CA 94525, USA",38.0527,-122.21863,1159.0,CA,CONTRA COSTA COUNTY,"Crockett101, Crockett102, Crockett801, Oleum801, PortCosta801",False,False,1.0
1160,The Rock Church- Danville,"2615 Camino Tassajara, Danville, CA 94506, USA",37.80769,-121.94878,1160.0,CA,CONTRA COSTA COUNTY,"Danville108, Danville109, Danville112, Danville113, Danville124, Danville125",False,False,1.0
1161,St Timothy Episcopal Church,"1550 Diablo Rd, Danville, CA 94526, USA",37.83677,-121.97135,1161.0,CA,CONTRA COSTA COUNTY,"Danville801, Danville802, Danville101, Danville107, Danville120, Danville121, Danville122, Danville129",False,False,1.0
1162,Peace Lutheran Church,"3201 Camino Tassajara, Danville, CA 94506, USA",37.80079,-121.92751,1162.0,CA,CONTRA COSTA COUNTY,"Danville803, Danville103, Danville110, Danville114, Danville115, Danville116, Danville127, Danville130",False,False,1.0
1163,Greenbrook Elementary,"1475 Harlan Dr, Danville, CA 94526, USA",37.79147,-121.97539,1163.0,CA,CONTRA COSTA COUNTY,"Danville804, Danville805, Danville806, Danville111, Danville117, Danville118, Danville119, Danville126",False,False,1.0
1164,Danville Town Hall Meeting,"201 Front St, Danville, CA 94526, USA",37.82142,-121.99792,1164.0,CA,CONTRA COSTA COUNTY,"Danville807, Danville104, Danville105, Danville106, Danville123",False,False,1.0
1165,Town of Discovery Bay Community Center,"1601 Discovery Bay Blvd, Discovery Bay, CA 94505, USA",37.9027,-121.60134,1165.0,CA,CONTRA COSTA COUNTY,"DiscoveryBay103, DiscoveryBay104, DiscoveryBay106, DiscoveryBay107, DiscoveryBay801, DiscoveryBay802, DiscoveryBay803, DiscoveryBay804, DiscoveryBay805, DiscoveryBay806, DiscoveryBay807, DiscoveryBay808, DiscoveryBay809, DiscoveryBay810, DiscoveryBay811, DiscoveryBay812",False,False,1.0
1166,Open Door United Methodist Church,"6226 Arlington Blvd, Richmond, CA 94805, USA",37.94468,-122.31624,1166.0,CA,CONTRA COSTA COUNTY,"EastRichmond101, EastRichmond102, EastRichmond103, EastRichmond801, EastRichmond802, EastRichmond803, Richmond804, Richmond849",False,False,1.0
1167,St Peter Christian Methodist Episcopal Church,"5324 Cypress Ave, El Cerrito, CA 94530, USA",37.91936,-122.31894,1167.0,CA,CONTRA COSTA COUNTY,"ElCerrito101, ElCerrito102, ElCerrito103",False,False,1.0
1168,St John's Community Center,"6500 Gladys Ave, El Cerrito, CA 94530, USA",37.91947,-122.3121,1168.0,CA,CONTRA COSTA COUNTY,"ElCerrito104, ElCerrito106, ElCerrito114",False,False,1.0
1169,El Cerrito Community Center,"7007 Moeser Ln, El Cerrito, CA 94530, USA",37.91477,-122.30335,1169.0,CA,CONTRA COSTA COUNTY,"ElCerrito105, ElCerrito107, ElCerrito108, ElCerrito110",False,False,1.0
1170,St Jerome Catholic Church,"308 Carmel Ave, El Cerrito, CA 94530, USA",37.90289,-122.29042,1170.0,CA,CONTRA COSTA COUNTY,"ElCerrito109, ElCerrito113",False,False,1.0
1171,El Cerrito City Hall,"10890 San Pablo Ave, El Cerrito, CA 94530, USA",37.91571,-122.31097,1171.0,CA,CONTRA COSTA COUNTY,"ElCerrito111, ElCerrito112, ElCerrito115",False,False,1.0
1172,St Callistus Church,"3580 San Pablo Dam Rd, El Sobrante, CA 94803, USA",37.96326,-122.31903,1172.0,CA,CONTRA COSTA COUNTY,"ElSobrante106, ElSobrante107, ElSobrante810, ElSobrante801, ElSobrante802, ElSobrante803, ElSobrante101, ElSobrante102, ElSobrante104, ElSobrante804, ElSobrante105, ElSobrante805, ElSobrante806, ElSobrante807, ElSobrante808, ElSobrante809",False,False,1.0
1173,Hilltop Mall,"2200 Hilltop Mall Rd, Richmond, CA 94806, USA",37.98088,-122.32953,1173.0,CA,CONTRA COSTA COUNTY,"Giant808, Giant805, Giant801, Giant802, Giant803, Giant806, Giant804, Giant810, Giant807, Giant809, Giant811, Giant812, Giant813, Giant814, Giant815, NorthRichmond102, NorthRichmond801, NorthRichmond802, NorthRichmond803, Richmond813, Richmond815, Richmond817, Richmond818, Richmond823",False,False,1.0
1174,Hercules By The Bay - Clubhouse,"1199 Santa Fe Ave, Hercules, CA 94547, USA",38.01292,-122.28907,1174.0,CA,CONTRA COSTA COUNTY,"Hercules101, Hercules102, Hercules109",False,False,1.0
1175,Hercules Library,"109 Civic Dr, Hercules, CA 94547, USA",38.00957,-122.26517,1175.0,CA,CONTRA COSTA COUNTY,"Hercules103, Hercules108, Hercules110, Hercules111, Hercules113, Hercules114, Hercules115, Hercules802",False,False,1.0
1176,Hercules Community Center,"2001 Refugio Valley Rd, Hercules, CA 94547, USA",37.99961,-122.24842,1176.0,CA,CONTRA COSTA COUNTY,"Hercules104, Hercules105, Hercules106, Hercules107, Oleum802",False,False,1.0
1177,Kensington Community Center,"59 Arlington Ave, Kensington, CA 94707, USA",37.91383,-122.28067,1177.0,CA,CONTRA COSTA COUNTY,"Kensington101, Kensington102, Kensington103, Kensington104, Kensington801, Kensington802, Kensington803, Richmond805",False,False,1.0
1178,Knightsen Elementary,"1923 Delta Rd, Knightsen, CA 94548, USA",37.9687,-121.66076,1178.0,CA,CONTRA COSTA COUNTY,"Knightsen801, Knightsen802, Knightsen803, Knightsen804, Knightsen805, Knightsen806, Knightsen807, Knightsen808, Knightsen809",False,False,1.0
1179,Veterans Memorial Building - Lafayette,"3780 Mt Diablo Blvd, Lafayette, CA 94549, USA",37.88862,-122.13424,1179.0,CA,CONTRA COSTA COUNTY,"Lafayette101, Lafayette102, Lafayette103, Lafayette105, Lafayette106, Lafayette108",False,False,1.0
1180,Acalanes High,"1200 Pleasant Hill Rd, Lafayette, CA 94549, USA",37.90384,-122.09684,1180.0,CA,CONTRA COSTA COUNTY,"Lafayette104, Lafayette115, Lafayette116",False,False,1.0
1181,Lafayette Christian Church,"584 Glenside Dr, Lafayette, CA 94549, USA",37.87129,-122.09741,1181.0,CA,CONTRA COSTA COUNTY,"Lafayette107, Lafayette112, Lafayette113, Lafayette114, Lafayette117",False,False,1.0
1182,Our Savior's Lutheran Church,"1035 Carol Ln, Lafayette, CA 94549, USA",37.89221,-122.10309,1182.0,CA,CONTRA COSTA COUNTY,"Lafayette109, Lafayette110, Lafayette111",False,False,1.0
1183,San Ramon Valley Fire Protection Dist,"1500 Bollinger Canyon Rd, San Ramon, CA 94583, USA",37.77207,-121.99485,1183.0,CA,CONTRA COSTA COUNTY,"LasTrampas801, SanRamon102, SanRamon101, SanRamon126, SanRamon136, SanRamon801",False,False,1.0
1184,Contra Costa County Clerk-Recorder-Elections Office,"555 Escobar St, Martinez, CA 94553, USA",38.01752,-122.13846,1184.0,CA,CONTRA COSTA COUNTY,Locality wide location,False,False,1.0
1185,Martinez City Hall,"525 Henrietta St, Martinez, CA 94553, USA",38.01408,-122.13535,1185.0,CA,CONTRA COSTA COUNTY,"Martinez104, Martinez816, Martinez817, Martinez101, Martinez801, Martinez806, Martinez807, Martinez808, Martinez809, Martinez811, Martinez814, Martinez830, Martinez831, Martinez832, Martinez833",False,False,1.0
1186,Grace Episcopal Church,"130 Muir Station Rd, Martinez, CA 94553, USA",37.99075,-122.12382,1186.0,CA,CONTRA COSTA COUNTY,"Martinez106, Martinez107, Martinez818, Martinez117, Martinez118, Martinez837, Martinez827",False,False,1.0
1187,Local 302 IBEW,"1875 Arnold Dr, Martinez, CA 94553, USA",37.99206,-122.08779,1187.0,CA,CONTRA COSTA COUNTY,"Martinez108, Martinez109, Martinez110, Martinez111, Martinez125, Martinez822, Martinez851",False,False,1.0
1188,Public Works Building,"255 Glacier Dr, Martinez, CA 94553, USA",37.98805,-122.08685,1188.0,CA,CONTRA COSTA COUNTY,"Martinez114, Martinez120, Martinez126, Martinez842, Martinez852, Martinez853",False,False,1.0
1189,Bill's Ace Truckbox,"3550 Pacheco Blvd, Martinez, CA 94553, USA",38.01092,-122.1046,1189.0,CA,CONTRA COSTA COUNTY,"Martinez823, Martinez834, MountainView101, MountainView102, MountainView801, MountainView802, VineHill101, VineHill102, VineHill801, VineHill802, VineHill803, VineHill804, VineHill805",False,False,1.0
1190,Plumbers Assembly Hall,"1308 Roman Way, Martinez, CA 94553, USA",37.99261,-122.10891,1190.0,CA,CONTRA COSTA COUNTY,"Martinez835, Martinez115, Martinez116, Martinez824, Martinez825, Martinez826, Martinez839, Martinez849, Martinez841",False,False,1.0
1191,Alhambra High,"150 E St, Martinez, CA 94553, USA",38.00256,-122.13337,1191.0,CA,CONTRA COSTA COUNTY,"Martinez836, Martinez819, Martinez820, Martinez103, Martinez821, Martinez810, Martinez812, Martinez838, Martinez813, Martinez815, Martinez828",False,False,1.0
1192,Moraga Library,"1500 St Marys Rd, Moraga, CA 94556, USA",37.84077,-122.12266,1192.0,CA,CONTRA COSTA COUNTY,"Moraga101, Moraga105, Moraga103, Moraga108, Moraga106, Moraga107, SaintMarys801",False,False,1.0
1193,Moraga Valley Presbyterian Church,"10 Moraga Valley Ln, Moraga, CA 94556, USA",37.84074,-122.13832,1193.0,CA,CONTRA COSTA COUNTY,"Moraga104, Moraga102",False,False,1.0
1194,Norris Canyon Estates Clubhouse,"3051 Ashbourne Cir, San Ramon, CA 94583, USA",37.74878,-121.99403,1194.0,CA,CONTRA COSTA COUNTY,NorrisCanyon101,False,False,1.0
1195,Mehran Restaurant,"3841 Railroad Ave, Pittsburg, CA 94565, USA",38.0029,-121.89388,1195.0,CA,CONTRA COSTA COUNTY,"NortonValley801, NortonValley803, Pittsburg112, Pittsburg117, Pittsburg115, Pittsburg118, Pittsburg133",False,False,1.0
1196,Best Western Plus Delta Inn,"5549 Bridgehead Rd, Oakley, CA 94561, USA",38.0063,-121.75254,1196.0,CA,CONTRA COSTA COUNTY,"Oakley101, Oakley102, Oakley802, Oakley803, Oakley805, Oakley806, Oakley807, Oakley808, Oakley809, Oakley810, Oakley819, Oakley820, Oakley821, Oakley822, Oakley826, Oakley829, Oakley830, Viera801, Viera802",False,False,1.0
1197,O'hara Park Middle School,"1100 O'Hara Ave, Oakley, CA 94561, USA",37.98922,-121.71176,1197.0,CA,CONTRA COSTA COUNTY,"Oakley103, Oakley109, Oakley120, Oakley122, Oakley804, Oakley825, Oakley827, Oakley828",False,False,1.0
1198,Laurel Ridge Community Church,"2459 Laurel Rd, Oakley, CA 94561, USA",37.9825,-121.7403,1198.0,CA,CONTRA COSTA COUNTY,"Oakley110, Oakley801, Oakley811, Oakley812, Oakley815, Oakley816, Oakley831",False,False,1.0
1199,Freedom High School,"1050 Neroly Rd, Oakley, CA 94561, USA",37.97068,-121.72026,1199.0,CA,CONTRA COSTA COUNTY,"Oakley112, Oakley115, Oakley116, Oakley813, Oakley814, Oakley817, Oakley818, Oakley823, Oakley824",False,False,1.0
1200,St Stephens Episcopal Church,"66 St Stephens Dr, Orinda, CA 94563, USA",37.89836,-122.17181,1200.0,CA,CONTRA COSTA COUNTY,"Orinda109, Orinda110, Orinda112, Orinda102",False,False,1.0
1201,Orinda City Hall,"22 Orinda Way, Orinda, CA 94563, USA",37.88214,-122.18618,1201.0,CA,CONTRA COSTA COUNTY,"Orinda111, Orinda801, Orinda103, Orinda108",False,False,1.0
1202,St Mark's United Methodist Church,"451 Moraga Way, Orinda, CA 94563, USA",37.8592,-122.16126,1202.0,CA,CONTRA COSTA COUNTY,"Orinda113, Orinda105, Orinda106",False,False,1.0
1203,Pacheco Community Center,"5800 Pacheco Blvd, Pacheco, CA 94553, USA",37.98503,-122.06852,1203.0,CA,CONTRA COSTA COUNTY,"Pacheco101, Pacheco102, Pacheco802, Pacheco803, Pacheco804, Pacheco805",False,False,1.0
1204,Shannon Elementary,"685 Marlesta Rd, Pinole, CA 94564, USA",38.00018,-122.3117,1204.0,CA,CONTRA COSTA COUNTY,"Pinole102, Pinole104, Pinole802",False,False,1.0
1205,Pinole Senior Center,"2500 Charles Ave, Pinole, CA 94564, USA",38.00741,-122.28989,1205.0,CA,CONTRA COSTA COUNTY,"Pinole103, Pinole105, Pinole107, Pinole108",False,False,1.0
1206,Pinole Valley Community Church,"2885 Pinole Valley Rd, Pinole, CA 94564, USA",37.99291,-122.28455,1206.0,CA,CONTRA COSTA COUNTY,"Pinole106, Pinole109, Pinole110, Pinole111, Pinole112, Pinole801, Pinole803",False,False,1.0
1207,Delta View Elementary,"2916 Rio Verde, Bay Point, CA 94565, USA",38.01169,-121.96677,1207.0,CA,CONTRA COSTA COUNTY,"Pittsburg101, Pittsburg102, Pittsburg132, Pittsburg802",False,False,1.0
1208,Golf Club Rd Chapel - LDS,"2201 Golf Club Rd, Pittsburg, CA 94565, USA",38.01404,-121.91078,1208.0,CA,CONTRA COSTA COUNTY,"Pittsburg103, Pittsburg104, Pittsburg105, Pittsburg106, Pittsburg107",False,False,1.0
1209,Grace Lutheran Church,"195 Alvarado Ave, Pittsburg, CA 94565, USA",38.01127,-121.89991,1209.0,CA,CONTRA COSTA COUNTY,"Pittsburg109, Pittsburg110, Pittsburg111, Pittsburg113",False,False,1.0
1210,Pittsburg Youth Development Center,"1001 Stoneman Ave, Pittsburg, CA 94565, USA",38.00571,-121.87632,1210.0,CA,CONTRA COSTA COUNTY,"Pittsburg116, Pittsburg114, Pittsburg119, Pittsburg134, Pittsburg136",False,False,1.0
1211,Pittsburg City Hall,"65 Civic Ave, Pittsburg, CA 94565, USA",38.01993,-121.89175,1211.0,CA,CONTRA COSTA COUNTY,"Pittsburg121, Pittsburg122, Pittsburg128, Pittsburg130, Pittsburg131",False,False,1.0
1212,Filipino-American Association Cultural Center,"345 Central Ave, Pittsburg, CA 94565, USA",38.02488,-121.88388,1212.0,CA,CONTRA COSTA COUNTY,"Pittsburg124, Pittsburg123, Pittsburg125, Pittsburg126, Pittsburg127, Pittsburg129, Pittsburg803, Pittsburg804",False,False,1.0
1213,New Destiny Church,"1411 E Leland Rd, Pittsburg, CA 94565, USA",38.00887,-121.8672,1213.0,CA,CONTRA COSTA COUNTY,"Pittsburg135, Pittsburg805, Pittsburg806, Pittsburg807",False,False,1.0
1214,Hope Center,"2275 Morello Ave, Pleasant Hill, CA 94523, USA",37.96092,-122.08064,1214.0,CA,CONTRA COSTA COUNTY,"PleasantHill106, PleasantHill103, PleasantHill104, PleasantHill105",False,False,1.0
1215,St Andrews Presbyterian Church,"1601 Mary Dr, Pleasant Hill, CA 94523, USA",37.96094,-122.06648,1215.0,CA,CONTRA COSTA COUNTY,"PleasantHill107, PleasantHill806, PleasantHill807, PleasantHill808, PleasantHill805",False,False,1.0
1216,Hillcrest Congregational Church,"404 Gregory Ln, Pleasant Hill, CA 94523, USA",37.94763,-122.07402,1216.0,CA,CONTRA COSTA COUNTY,"PleasantHill108, PleasantHill109, PleasantHill110",False,False,1.0
1217,Boyd Road Chapel - LDS,"555 Boyd Rd, Pleasant Hill, CA 94523, USA",37.94416,-122.08048,1217.0,CA,CONTRA COSTA COUNTY,"PleasantHill111, PleasantHill112, PleasantHill113, PleasantHill114",False,False,1.0
1218,Hyatt House Pleasant Hill,"2611 Contra Costa Blvd, Pleasant Hill, CA 94523, USA",37.9428,-122.06124,1218.0,CA,CONTRA COSTA COUNTY,"PleasantHill115, PleasantHill116, PleasantHill119, Waldon101, Waldon104, Waldon801, Waldon802, Waldon803, Waldon804",False,False,1.0
1219,Clarion Hotel,"1050 Burnett Ave, Concord, CA 94520, USA",37.97536,-122.06044,1219.0,CA,CONTRA COSTA COUNTY,"PleasantHill801, PleasantHill802, PleasantHill803, PleasantHill804",False,False,1.0
1220,Washington Elementary,"565 Wine St, Richmond, CA 94801, USA",37.92443,-122.38097,1220.0,CA,CONTRA COSTA COUNTY,"Richmond101, Richmond102, Richmond844, Richmond845, Richmond846",False,False,1.0
1221,Brickyard Landing Clubhouse,"1223 Brickyard Cove Ln, Richmond, CA 94801, USA",37.91309,-122.38088,1221.0,CA,CONTRA COSTA COUNTY,Richmond103,False,False,1.0
1222,Marina Bay - Harbor Master Bldg,"1340 Marina Way S, Richmond, CA 94804, USA",37.91366,-122.35472,1222.0,CA,CONTRA COSTA COUNTY,"Richmond104, Richmond105, Richmond848",False,False,1.0
1223,Booker T Anderson Community Center,"960 S 47th St, Richmond, CA 94804, USA",37.91848,-122.32678,1223.0,CA,CONTRA COSTA COUNTY,"Richmond106, Richmond109, Richmond111, Richmond112, Richmond808",False,False,1.0
1224,Richmond Korean Baptist Church,"5711 Jefferson Ave, Richmond, CA 94804, USA",37.91738,-122.31496,1224.0,CA,CONTRA COSTA COUNTY,"Richmond108, Richmond110",False,False,1.0
1225,Easter Hill Methodist Church,"3911 Cutting Blvd, Richmond, CA 94804, USA",37.92569,-122.33223,1225.0,CA,CONTRA COSTA COUNTY,"Richmond114, Richmond820, Richmond821, Richmond822, Richmond824, Richmond828",False,False,1.0
1226,St Luke Missionary Baptist Church,"165 S 7th St, Richmond, CA 94804, USA",37.9297,-122.36322,1226.0,CA,CONTRA COSTA COUNTY,"Richmond116, Richmond117, Richmond147, Richmond825, Richmond827",False,False,1.0
1227,Atchison Village Mutual Homes Corp,"Collins St & Curry St, Richmond, CA 94801, USA",37.9351,-122.37134,1227.0,CA,CONTRA COSTA COUNTY,"Richmond118, Richmond837",False,False,1.0
1228,Nevin Community Center,"598 Nevin Ave, Richmond, CA 94801, USA",37.93659,-122.36402,1228.0,CA,CONTRA COSTA COUNTY,"Richmond119, Richmond149, Richmond838",False,False,1.0
1229,Richmond Senior Citizens Center,"2525 Macdonald Ave, Richmond, CA 94804, USA",37.93547,-122.34479,1229.0,CA,CONTRA COSTA COUNTY,"Richmond121, Richmond812, Richmond143, Richmond150, Richmond816, Richmond836, Richmond826, Richmond829",False,False,1.0
1230,Richmond Memorial Auditorium,"403 Civic Center Plaza, Richmond, CA 94804, USA",37.93692,-122.34406,1230.0,CA,CONTRA COSTA COUNTY,"Richmond122, Richmond123, Richmond125, Richmond126, Richmond809, Richmond810, Richmond814, Richmond839, Richmond840, Richmond830",False,False,1.0
1231,Church of Christ - Macdonald Ave,"4709 Macdonald Ave, Richmond, CA 94805, USA",37.93277,-122.32511,1231.0,CA,CONTRA COSTA COUNTY,"Richmond124, Richmond144",False,False,1.0
1232,Triangle Court Community Center,"960 Triangle Ct, Richmond, CA 94801, USA",37.94837,-122.36094,1232.0,CA,CONTRA COSTA COUNTY,Richmond130,False,False,1.0
1233,Bay Hills Community Church,"4100 Klose Way, Richmond, CA 94806, USA",37.9846,-122.31728,1233.0,CA,CONTRA COSTA COUNTY,"Richmond135, Richmond137, Richmond154",False,False,1.0
1234,Richmond Annex Senior Center,"5801 Huntington Ave, Richmond, CA 94804, USA",37.90723,-122.31029,1234.0,CA,CONTRA COSTA COUNTY,Richmond145,False,False,1.0
1235,Hilltop Community Church,"3118 Shane Dr, Richmond, CA 94806, USA",37.97565,-122.32696,1235.0,CA,CONTRA COSTA COUNTY,"Richmond155, Richmond133, Richmond134, Richmond136, Richmond153, Richmond819, Rollingwood101, Rollingwood801",False,False,1.0
1236,De Anza High School,"5000 Valley View Rd, El Sobrante, CA 94803, USA",37.96795,-122.28736,1236.0,CA,CONTRA COSTA COUNTY,"Richmond156, Richmond802, Richmond806, Richmond834, Richmond138, Richmond139, Richmond141, Richmond142, Richmond835, Richmond841",False,False,1.0
1237,Parchester Community Center,"900 Williams Dr, Richmond, CA 94806, USA",37.98305,-122.35304,1237.0,CA,CONTRA COSTA COUNTY,"Richmond807, Richmond131, Richmond132, Richmond811, Richmond842, Richmond843, Richmond847",False,False,1.0
1238,Richmond Veterans Building,"968 23rd St, Richmond, CA 94804, USA",37.94686,-122.34715,1238.0,CA,CONTRA COSTA COUNTY,"Richmond831, Richmond832, Richmond833, Richmond129, Richmond152",False,False,1.0
1239,St Patricks Church,"907 Seventh St, Rodeo, CA 94572, USA",38.02858,-122.26251,1239.0,CA,CONTRA COSTA COUNTY,"Rodeo101, Rodeo102",False,False,1.0
1240,Lefty Gomez Recreation Bldg,"Garretson Field, 470 Parker Ave, Rodeo, CA 94572, USA",38.0314,-122.26718,1240.0,CA,CONTRA COSTA COUNTY,"Rodeo103, Rodeo104",False,False,1.0
1241,Davis Park Multipurpose Room,"1651 Folsom Ave, San Pablo, CA 94806, USA",37.96091,-122.35241,1241.0,CA,CONTRA COSTA COUNTY,"SanPablo101, SanPablo102, SanPablo109",False,False,1.0
1242,Old Maple Hall,"13831 San Pablo Ave, San Pablo, CA 94806, USA",37.95864,-122.34109,1242.0,CA,CONTRA COSTA COUNTY,"SanPablo106, SanPablo111, SanPablo103, SanPablo104, SanPablo105, SanPablo801, SanPablo802",False,False,1.0
1243,Broadway Baptist Church,"2965 19th St, San Pablo, CA 94806, USA",37.97391,-122.34534,1243.0,CA,CONTRA COSTA COUNTY,"SanPablo107, SanPablo108, SanPablo803, SanPablo110, SanPablo804",False,False,1.0
1244,Church of the Valley,"19001 San Ramon Valley Blvd, San Ramon, CA 94583, USA",37.74921,-121.96071,1244.0,CA,CONTRA COSTA COUNTY,"SanRamon103, SanRamon104, SanRamon105, SanRamon106, SanRamon130",False,False,1.0
1245,San Ramon Community Center,"12501 Alcosta Blvd, San Ramon, CA 94583, USA",37.76646,-121.95362,1245.0,CA,CONTRA COSTA COUNTY,"SanRamon107, SanRamon106, SanRamon110, SanRamon125, SanRamon128, SanRamon129, SanRamon132, SanRamon146, SanRamon802, SanRamon803, SanRamon804, SanRamon805, SanRamon806, SanRamon810, SanRamon811, SanRamon812, SanRamon821",False,False,1.0
1246,Dougherty Valley Performing Arts Center,"10550 Albion Rd, San Ramon, CA 94582, USA",37.76937,-121.90162,1246.0,CA,CONTRA COSTA COUNTY,"SanRamon108, SanRamon111, SanRamon124, SanRamon133, SanRamon134, SanRamon135, SanRamon138, SanRamon139, SanRamon140, SanRamon142, SanRamon143, SanRamon145, SanRamon813, SanRamon817, SanRamon818, SanRamon819, SanRamon820, SanRamon822, SanRamon823",False,False,1.0
1247,Sunny Glen Senior Community,"9000 Craydon Cir, San Ramon, CA 94583, USA",37.72774,-121.92433,1247.0,CA,CONTRA COSTA COUNTY,"SanRamon112, SanRamon114, SanRamon115, SanRamon116, SanRamon118, SanRamon120, SanRamon121, SanRamon825, SanRamon141, SanRamon807, SanRamon809",False,False,1.0
1248,Amador Rancho Center,"1998 Rancho Park Loop, San Ramon, CA 94582, USA",37.7481,-121.92024,1248.0,CA,CONTRA COSTA COUNTY,"SanRamon113, SanRamon117, SanRamon808",False,False,1.0
1249,Dougherty Station Community Center,"17011 Bollinger Canyon Rd, San Ramon, CA 94582, USA",37.75333,-121.91011,1249.0,CA,CONTRA COSTA COUNTY,"SanRamon824, SanRamon122, SanRamon123, Tassajara801, SanRamon137, Tassajara804, SanRamon144, SanRamon814, SanRamon815",False,False,1.0
1250,Las Lomas High School,"1460 S Main St, Walnut Creek, CA 94596, USA",37.89048,-122.0566,1250.0,CA,CONTRA COSTA COUNTY,"Saranap802, Saranap101, Saranap102, Saranap103, Saranap105, Saranap106, Saranap801, WalnutCreek807, WalnutCreek806",False,False,1.0
1251,Mt Diablo Unitarian Universalist Church,"55 Eckley Ln, Walnut Creek, CA 94596, USA",37.89964,-122.04588,1251.0,CA,CONTRA COSTA COUNTY,"ShellRidge801, ShellRidge802, WalnutCreek124, WalnutCreek109, WalnutCreek126, WalnutCreek137, WalnutCreek802",False,False,1.0
1252,Event Center,"1021 Stanley Dollar Dr, Walnut Creek, CA 94595, USA",37.862,-122.06738,1252.0,CA,CONTRA COSTA COUNTY,"WalnutCreek101, WalnutCreek103, WalnutCreek127, WalnutCreek129, WalnutCreek120, WalnutCreek121",False,False,1.0
1253,Walnut Creek Elks Lodge,"1475 Creekside Dr, Walnut Creek, CA 94596, USA",37.88642,-122.05458,1253.0,CA,CONTRA COSTA COUNTY,"WalnutCreek105, WalnutCreek125, WalnutCreek122, WalnutCreek123, WalnutCreek134",False,False,1.0
1254,Heather Farms Park,"301 N San Carlos Dr, Walnut Creek, CA 94598, USA",37.91991,-122.04268,1254.0,CA,CONTRA COSTA COUNTY,"WalnutCreek106, WalnutCreek107, WalnutCreek108, WalnutCreek110, WalnutCreek135, WalnutCreek143",False,False,1.0
1255,Community of Christ Church,"1786 2nd Ave, Walnut Creek, CA 94597, USA",37.92242,-122.07214,1255.0,CA,CONTRA COSTA COUNTY,"WalnutCreek111, WalnutCreek112, WalnutCreek102, WalnutCreek114, WalnutCreek131, WalnutCreek144, WalnutCreek803, WalnutCreek809, WalnutCreek808, WalnutCreek811, WalnutCreek813",False,False,1.0
1256,St Matthew Lutheran Church,"399 Wiget Ln, Walnut Creek, CA 94598, USA",37.91955,-122.0226,1256.0,CA,CONTRA COSTA COUNTY,"WalnutCreek113, WalnutCreek115, WalnutCreek140, WalnutCreek141",False,False,1.0
1257,Faith Christian Fellowship,"860 Bancroft Rd, Walnut Creek, CA 94598, USA",37.93226,-122.04432,1257.0,CA,CONTRA COSTA COUNTY,"WalnutCreek142, WalnutCreek814",False,False,1.0
1258,Shadelands Art Center,"111 N Wiget Ln, Walnut Creek, CA 94598, USA",37.92509,-122.02439,1258.0,CA,CONTRA COSTA COUNTY,"WalnutCreek804, WalnutCreek145, WalnutCreek801, WalnutCreek805, WalnutCreek810, WalnutCreek812",False,False,1.0
1259,Walnut Heights Elementary,"4064 Walnut Blvd, Walnut Creek, CA 94596, USA",37.89484,-122.03733,1259.0,CA,CONTRA COSTA COUNTY,"WalnutKnolls101, WalnutKnolls102, WalnutKnolls103, WalnutKnolls801",False,False,1.0
